{
"type": "FeatureCollection",
"name": "kaliningrad_nodes",
"crs": { "type": "name", "properties": { "name": "urn:ogc:def:crs:OGC:1.3:CRS84" } },
"features": [
{ "type": "Feature", "properties": { "osmid": 0, "osmid_original": [ 0, 515, 528, 113, 529, 390, 518, 523 ], "x": 20.509118538371222, "y": 54.711657550358041, "cluster": 0.0, "street_count": 6 }, "geometry": { "type": "Point", "coordinates": [ 20.509118538371222, 54.711657550358041 ] } },
{ "type": "Feature", "properties": { "osmid": 1, "osmid_original": [ 1, 341, 73, 2, 343, 522, 3, 614, 398, 68, 337, 122, 338, 340, 342, 349, 391, 399, 392, 397, 525 ], "x": 20.50679324703755, "y": 54.712701399734115, "cluster": 1.0, "street_count": 10 }, "geometry": { "type": "Point", "coordinates": [ 20.50679324703755, 54.712701399734115 ] } },
{ "type": "Feature", "properties": { "osmid": 129, "osmid_original": [ 270, 268 ], "x": 20.510896949927766, "y": 54.71131465000613, "cluster": 129.0, "street_count": 3 }, "geometry": { "type": "Point", "coordinates": [ 20.510896949927766, 54.71131465000613 ] } },
{ "type": "Feature", "properties": { "osmid": 225, "osmid_original": [ 282, 280 ], "x": 20.508457849471537, "y": 54.709892600042004, "cluster": 225.0, "street_count": 4 }, "geometry": { "type": "Point", "coordinates": [ 20.508457849471537, 54.709892600042004 ] } },
{ "type": "Feature", "properties": { "osmid": 2, "osmid_original": "339", "x": 20.5081001, "y": 54.7121437, "cluster": null, "street_count": 1 }, "geometry": { "type": "Point", "coordinates": [ 20.5081001, 54.712143699999984 ] } },
{ "type": "Feature", "properties": { "osmid": 98, "osmid_original": [ 76, 519 ], "x": 20.504211049897997, "y": 54.715111150036712, "cluster": 98.0, "street_count": 3 }, "geometry": { "type": "Point", "coordinates": [ 20.504211049897997, 54.715111150036712 ] } },
{ "type": "Feature", "properties": { "osmid": 89, "osmid_original": [ 414, 85 ], "x": 20.506562800006233, "y": 54.710465350048388, "cluster": 89.0, "street_count": 2 }, "geometry": { "type": "Point", "coordinates": [ 20.506562800006233, 54.710465350048388 ] } },
{ "type": "Feature", "properties": { "osmid": 258, "osmid_original": "336", "x": 20.5064218, "y": 54.7107295, "cluster": null, "street_count": 1 }, "geometry": { "type": "Point", "coordinates": [ 20.5064218, 54.7107295 ] } },
{ "type": "Feature", "properties": { "osmid": 134, "osmid_original": [ 348, 347 ], "x": 20.505984900429318, "y": 54.710796700455177, "cluster": 134.0, "street_count": 3 }, "geometry": { "type": "Point", "coordinates": [ 20.505984900429318, 54.710796700455177 ] } },
{ "type": "Feature", "properties": { "osmid": 102, "osmid_original": [ 83, 317, 381, 124, 320, 319, 318 ], "x": 20.503622392757734, "y": 54.712666592987681, "cluster": 102.0, "street_count": 6 }, "geometry": { "type": "Point", "coordinates": [ 20.503622392757734, 54.712666592987681 ] } },
{ "type": "Feature", "properties": { "osmid": 259, "osmid_original": "351", "x": 20.5076672, "y": 54.7141806, "cluster": null, "street_count": 1 }, "geometry": { "type": "Point", "coordinates": [ 20.5076672, 54.7141806 ] } },
{ "type": "Feature", "properties": { "osmid": 267, "osmid_original": "400", "x": 20.506951, "y": 54.7139572, "cluster": null, "street_count": 1 }, "geometry": { "type": "Point", "coordinates": [ 20.506951, 54.71395720000001 ] } },
{ "type": "Feature", "properties": { "osmid": 3, "osmid_original": [ 4, 552 ], "x": 20.497176799989528, "y": 54.718059500002255, "cluster": 3.0, "street_count": 5 }, "geometry": { "type": "Point", "coordinates": [ 20.497176799989528, 54.718059500002255 ] } },
{ "type": "Feature", "properties": { "osmid": 4, "osmid_original": "91", "x": 20.4961715, "y": 54.7183702, "cluster": null, "street_count": 3 }, "geometry": { "type": "Point", "coordinates": [ 20.4961715, 54.718370199999988 ] } },
{ "type": "Feature", "properties": { "osmid": 5, "osmid_original": [ 538, 7 ], "x": 20.500176899921119, "y": 54.719840700017976, "cluster": 5.0, "street_count": 3 }, "geometry": { "type": "Point", "coordinates": [ 20.500176899921119, 54.719840700017976 ] } },
{ "type": "Feature", "properties": { "osmid": 88, "osmid_original": [ 618, 619 ], "x": 20.490913599987771, "y": 54.712438100000881, "cluster": 88.0, "street_count": 3 }, "geometry": { "type": "Point", "coordinates": [ 20.490913599987771, 54.712438100000881 ] } },
{ "type": "Feature", "properties": { "osmid": 85, "osmid_original": [ 64, 553 ], "x": 20.500337399980818, "y": 54.717104700003183, "cluster": 85.0, "street_count": 3 }, "geometry": { "type": "Point", "coordinates": [ 20.500337399980818, 54.717104700003183 ] } },
{ "type": "Feature", "properties": { "osmid": 107, "osmid_original": [ 93, 555 ], "x": 20.494836599986328, "y": 54.718642500001465, "cluster": 107.0, "street_count": 4 }, "geometry": { "type": "Point", "coordinates": [ 20.494836599986328, 54.718642500001465 ] } },
{ "type": "Feature", "properties": { "osmid": 7, "osmid_original": [ 6, 536, 537, 535 ], "x": 20.501617321245892, "y": 54.71878173042218, "cluster": 7.0, "street_count": 3 }, "geometry": { "type": "Point", "coordinates": [ 20.501617321245892, 54.71878173042218 ] } },
{ "type": "Feature", "properties": { "osmid": 8, "osmid_original": [ 344, 35, 88, 544, 89, 539, 584 ], "x": 20.498342155531528, "y": 54.720072929675403, "cluster": 8.0, "street_count": 4 }, "geometry": { "type": "Point", "coordinates": [ 20.498342155531528, 54.720072929675403 ] } },
{ "type": "Feature", "properties": { "osmid": 6, "osmid_original": [ 5, 54, 334, 50, 554, 595, 543, 594, 546, 549, 551 ], "x": 20.492991673264925, "y": 54.719165746503485, "cluster": 6.0, "street_count": 5 }, "geometry": { "type": "Point", "coordinates": [ 20.492991673264925, 54.719165746503485 ] } },
{ "type": "Feature", "properties": { "osmid": 59, "osmid_original": [ 37, 53 ], "x": 20.491452399979579, "y": 54.720376900184412, "cluster": 59.0, "street_count": 4 }, "geometry": { "type": "Point", "coordinates": [ 20.491452399979579, 54.720376900184412 ] } },
{ "type": "Feature", "properties": { "osmid": 61, "osmid_original": [ 256, 94, 550 ], "x": 20.48781106610322, "y": 54.720141446517978, "cluster": 61.0, "street_count": 4 }, "geometry": { "type": "Point", "coordinates": [ 20.48781106610322, 54.720141446517978 ] } },
{ "type": "Feature", "properties": { "osmid": 239, "osmid_original": [ 417, 416, 418 ], "x": 20.492703060497487, "y": 54.717048702322231, "cluster": 239.0, "street_count": 3 }, "geometry": { "type": "Point", "coordinates": [ 20.492703060497487, 54.717048702322231 ] } },
{ "type": "Feature", "properties": { "osmid": 26, "osmid_original": [ 13, 36, 548, 87, 545, 393 ], "x": 20.494512982596362, "y": 54.72012140732582, "cluster": 26.0, "street_count": 4 }, "geometry": { "type": "Point", "coordinates": [ 20.494512982596362, 54.72012140732582 ] } },
{ "type": "Feature", "properties": { "osmid": 84, "osmid_original": [ 63, 530 ], "x": 20.505374650035566, "y": 54.719512650003828, "cluster": 84.0, "street_count": 4 }, "geometry": { "type": "Point", "coordinates": [ 20.505374650035566, 54.719512650003828 ] } },
{ "type": "Feature", "properties": { "osmid": 99, "osmid_original": [ 325, 78, 387, 324, 81, 622, 271, 272, 383, 273, 274, 527, 516, 526, 326, 327, 382, 403 ], "x": 20.502257826303573, "y": 54.716117942643159, "cluster": 99.0, "street_count": 4 }, "geometry": { "type": "Point", "coordinates": [ 20.502257826303573, 54.716117942643159 ] } },
{ "type": "Feature", "properties": { "osmid": 105, "osmid_original": "90", "x": 20.4971201, "y": 54.7190412, "cluster": null, "street_count": 3 }, "geometry": { "type": "Point", "coordinates": [ 20.4971201, 54.7190412 ] } },
{ "type": "Feature", "properties": { "osmid": 9, "osmid_original": "8", "x": 20.5305434, "y": 54.7131347, "cluster": null, "street_count": 4 }, "geometry": { "type": "Point", "coordinates": [ 20.5305434, 54.7131347 ] } },
{ "type": "Feature", "properties": { "osmid": 10, "osmid_original": "214", "x": 20.5311966, "y": 54.7109382, "cluster": null, "street_count": 4 }, "geometry": { "type": "Point", "coordinates": [ 20.5311966, 54.7109382 ] } },
{ "type": "Feature", "properties": { "osmid": 11, "osmid_original": "228", "x": 20.5315501, "y": 54.7132469, "cluster": null, "street_count": 3 }, "geometry": { "type": "Point", "coordinates": [ 20.5315501, 54.7132469 ] } },
{ "type": "Feature", "properties": { "osmid": 12, "osmid_original": "230", "x": 20.5289905, "y": 54.7129816, "cluster": null, "street_count": 3 }, "geometry": { "type": "Point", "coordinates": [ 20.5289905, 54.7129816 ] } },
{ "type": "Feature", "properties": { "osmid": 13, "osmid_original": "231", "x": 20.5300312, "y": 54.7144472, "cluster": null, "street_count": 4 }, "geometry": { "type": "Point", "coordinates": [ 20.5300312, 54.7144472 ] } },
{ "type": "Feature", "properties": { "osmid": 127, "osmid_original": "218", "x": 20.5371341, "y": 54.7118277, "cluster": null, "street_count": 3 }, "geometry": { "type": "Point", "coordinates": [ 20.5371341, 54.7118277 ] } },
{ "type": "Feature", "properties": { "osmid": 52, "osmid_original": [ 31, 215, 61, 142 ], "x": 20.531451475488094, "y": 54.709873862920276, "cluster": 52.0, "street_count": 6 }, "geometry": { "type": "Point", "coordinates": [ 20.531451475488094, 54.709873862920276 ] } },
{ "type": "Feature", "properties": { "osmid": 200, "osmid_original": [ 316, 601 ], "x": 20.525847200202204, "y": 54.710680650022155, "cluster": 200.0, "street_count": 2 }, "geometry": { "type": "Point", "coordinates": [ 20.525847200202204, 54.710680650022155 ] } },
{ "type": "Feature", "properties": { "osmid": 14, "osmid_original": "9", "x": 20.5344732, "y": 54.7135513, "cluster": null, "street_count": 2 }, "geometry": { "type": "Point", "coordinates": [ 20.5344732, 54.7135513 ] } },
{ "type": "Feature", "properties": { "osmid": 212, "osmid_original": "232", "x": 20.5285187, "y": 54.7142896, "cluster": null, "street_count": 3 }, "geometry": { "type": "Point", "coordinates": [ 20.5285187, 54.7142896 ] } },
{ "type": "Feature", "properties": { "osmid": 210, "osmid_original": "229", "x": 20.5260915, "y": 54.71265, "cluster": null, "street_count": 3 }, "geometry": { "type": "Point", "coordinates": [ 20.5260915, 54.71265 ] } },
{ "type": "Feature", "properties": { "osmid": 40, "osmid_original": "23", "x": 20.5285876, "y": 54.7157602, "cluster": null, "street_count": 3 }, "geometry": { "type": "Point", "coordinates": [ 20.5285876, 54.7157602 ] } },
{ "type": "Feature", "properties": { "osmid": 15, "osmid_original": [ 109, 110 ], "x": 20.535872100080994, "y": 54.713392750013433, "cluster": 15.0, "street_count": 4 }, "geometry": { "type": "Point", "coordinates": [ 20.535872100080994, 54.713392750013433 ] } },
{ "type": "Feature", "properties": { "osmid": 39, "osmid_original": "233", "x": 20.5300491, "y": 54.7188355, "cluster": null, "street_count": 3 }, "geometry": { "type": "Point", "coordinates": [ 20.5300491, 54.7188355 ] } },
{ "type": "Feature", "properties": { "osmid": 16, "osmid_original": "10", "x": 20.5135773, "y": 54.7149157, "cluster": null, "street_count": 3 }, "geometry": { "type": "Point", "coordinates": [ 20.5135773, 54.7149157 ] } },
{ "type": "Feature", "properties": { "osmid": 17, "osmid_original": [ 331, 332, 333, 514, 512, 513 ], "x": 20.512751253017797, "y": 54.712888239450137, "cluster": 17.0, "street_count": 3 }, "geometry": { "type": "Point", "coordinates": [ 20.512751253017797, 54.712888239450137 ] } },
{ "type": "Feature", "properties": { "osmid": 18, "osmid_original": [ 534, 148 ], "x": 20.518374100002973, "y": 54.720724700000225, "cluster": 18.0, "street_count": 4 }, "geometry": { "type": "Point", "coordinates": [ 20.518374100002973, 54.720724700000225 ] } },
{ "type": "Feature", "properties": { "osmid": 19, "osmid_original": "596", "x": 20.5134619, "y": 54.7155609, "cluster": null, "street_count": 3 }, "geometry": { "type": "Point", "coordinates": [ 20.5134619, 54.7155609 ] } },
{ "type": "Feature", "properties": { "osmid": 47, "osmid_original": "329", "x": 20.5127354, "y": 54.7120348, "cluster": null, "street_count": 3 }, "geometry": { "type": "Point", "coordinates": [ 20.5127354, 54.7120348 ] } },
{ "type": "Feature", "properties": { "osmid": 256, "osmid_original": "330", "x": 20.5122833, "y": 54.7122168, "cluster": null, "street_count": 1 }, "geometry": { "type": "Point", "coordinates": [ 20.5122833, 54.7122168 ] } },
{ "type": "Feature", "properties": { "osmid": 43, "osmid_original": [ 433, 533, 436, 434, 437, 435, 458, 438, 459, 443, 439, 440, 441, 442, 444, 445 ], "x": 20.525014700798579, "y": 54.721402168093171, "cluster": 43.0, "street_count": 5 }, "geometry": { "type": "Point", "coordinates": [ 20.525014700798579, 54.721402168093171 ] } },
{ "type": "Feature", "properties": { "osmid": 126, "osmid_original": "108", "x": 20.5172289, "y": 54.7208069, "cluster": null, "street_count": 3 }, "geometry": { "type": "Point", "coordinates": [ 20.5172289, 54.7208069 ] } },
{ "type": "Feature", "properties": { "osmid": 169, "osmid_original": [ 159, 168, 169 ], "x": 20.510281956325347, "y": 54.715105056358574, "cluster": 169.0, "street_count": 3 }, "geometry": { "type": "Point", "coordinates": [ 20.510281956325347, 54.715105056358574 ] } },
{ "type": "Feature", "properties": { "osmid": 20, "osmid_original": "11", "x": 20.513077, "y": 54.716949, "cluster": null, "street_count": 3 }, "geometry": { "type": "Point", "coordinates": [ 20.513077, 54.716949 ] } },
{ "type": "Feature", "properties": { "osmid": 21, "osmid_original": "166", "x": 20.5133498, "y": 54.7186925, "cluster": null, "street_count": 3 }, "geometry": { "type": "Point", "coordinates": [ 20.5133498, 54.718692499999989 ] } },
{ "type": "Feature", "properties": { "osmid": 22, "osmid_original": "160", "x": 20.5101576, "y": 54.7164764, "cluster": null, "street_count": 3 }, "geometry": { "type": "Point", "coordinates": [ 20.5101576, 54.7164764 ] } },
{ "type": "Feature", "properties": { "osmid": 172, "osmid_original": "165", "x": 20.5111824, "y": 54.7190946, "cluster": null, "street_count": 1 }, "geometry": { "type": "Point", "coordinates": [ 20.5111824, 54.719094599999984 ] } },
{ "type": "Feature", "properties": { "osmid": 23, "osmid_original": [ 12, 531 ], "x": 20.514160749964521, "y": 54.720453750002449, "cluster": 23.0, "street_count": 5 }, "geometry": { "type": "Point", "coordinates": [ 20.514160749964521, 54.720453750002449 ] } },
{ "type": "Feature", "properties": { "osmid": 170, "osmid_original": "164", "x": 20.5098983, "y": 54.7177329, "cluster": null, "street_count": 1 }, "geometry": { "type": "Point", "coordinates": [ 20.5098983, 54.7177329 ] } },
{ "type": "Feature", "properties": { "osmid": 24, "osmid_original": [ 615, 107, 623, 402, 401, 396 ], "x": 20.514714940558139, "y": 54.721865146119086, "cluster": 24.0, "street_count": 3 }, "geometry": { "type": "Point", "coordinates": [ 20.514714940558139, 54.721865146119086 ] } },
{ "type": "Feature", "properties": { "osmid": 25, "osmid_original": [ 612, 611 ], "x": 20.51291475001042, "y": 54.72039905000053, "cluster": 25.0, "street_count": 2 }, "geometry": { "type": "Point", "coordinates": [ 20.51291475001042, 54.72039905000053 ] } },
{ "type": "Feature", "properties": { "osmid": 266, "osmid_original": "395", "x": 20.5126858, "y": 54.7215993, "cluster": null, "street_count": 1 }, "geometry": { "type": "Point", "coordinates": [ 20.5126858, 54.7215993 ] } },
{ "type": "Feature", "properties": { "osmid": 257, "osmid_original": [ 335, 541, 540, 532 ], "x": 20.507821394613266, "y": 54.719876185547392, "cluster": 257.0, "street_count": 3 }, "geometry": { "type": "Point", "coordinates": [ 20.507821394613266, 54.719876185547392 ] } },
{ "type": "Feature", "properties": { "osmid": 58, "osmid_original": "51", "x": 20.493147, "y": 54.7204479, "cluster": null, "street_count": 4 }, "geometry": { "type": "Point", "coordinates": [ 20.493147, 54.720447900000011 ] } },
{ "type": "Feature", "properties": { "osmid": 108, "osmid_original": "92", "x": 20.4947897, "y": 54.718886, "cluster": null, "street_count": 1 }, "geometry": { "type": "Point", "coordinates": [ 20.4947897, 54.718886 ] } },
{ "type": "Feature", "properties": { "osmid": 27, "osmid_original": [ 14, 222, 255, 367, 223, 99 ], "x": 20.489246563353444, "y": 54.706439164914528, "cluster": 27.0, "street_count": 3 }, "geometry": { "type": "Point", "coordinates": [ 20.489246563353444, 54.706439164914528 ] } },
{ "type": "Feature", "properties": { "osmid": 28, "osmid_original": [ 15, 104, 16, 213, 212 ], "x": 20.489947364417201, "y": 54.704935325888385, "cluster": 28.0, "street_count": 4 }, "geometry": { "type": "Point", "coordinates": [ 20.489947364417201, 54.704935325888385 ] } },
{ "type": "Feature", "properties": { "osmid": 114, "osmid_original": "283", "x": 20.4899832, "y": 54.7080715, "cluster": null, "street_count": 3 }, "geometry": { "type": "Point", "coordinates": [ 20.4899832, 54.7080715 ] } },
{ "type": "Feature", "properties": { "osmid": 29, "osmid_original": [ 610, 507, 561 ], "x": 20.493810259626695, "y": 54.697059563541977, "cluster": 29.0, "street_count": 6 }, "geometry": { "type": "Point", "coordinates": [ 20.493810259626695, 54.697059563541977 ] } },
{ "type": "Feature", "properties": { "osmid": 199, "osmid_original": "224", "x": 20.4883929, "y": 54.7019781, "cluster": null, "street_count": 2 }, "geometry": { "type": "Point", "coordinates": [ 20.4883929, 54.7019781 ] } },
{ "type": "Feature", "properties": { "osmid": 123, "osmid_original": [ 105, 106 ], "x": 20.492556300008488, "y": 54.696365300001005, "cluster": 123.0, "street_count": 3 }, "geometry": { "type": "Point", "coordinates": [ 20.492556300008488, 54.696365300001005 ] } },
{ "type": "Feature", "properties": { "osmid": 34, "osmid_original": [ 20, 480, 505 ], "x": 20.495922762002944, "y": 54.69615119027425, "cluster": 34.0, "street_count": 3 }, "geometry": { "type": "Point", "coordinates": [ 20.495922762002944, 54.69615119027425 ] } },
{ "type": "Feature", "properties": { "osmid": 189, "osmid_original": [ 205, 364, 563, 265, 571, 365, 361, 362 ], "x": 20.500428588171527, "y": 54.69838908860325, "cluster": 189.0, "street_count": 7 }, "geometry": { "type": "Point", "coordinates": [ 20.500428588171527, 54.69838908860325 ] } },
{ "type": "Feature", "properties": { "osmid": 30, "osmid_original": [ 17, 562, 574, 128, 578 ], "x": 20.517083120638603, "y": 54.698320734171595, "cluster": 30.0, "street_count": 6 }, "geometry": { "type": "Point", "coordinates": [ 20.517083120638603, 54.698320734171595 ] } },
{ "type": "Feature", "properties": { "osmid": 31, "osmid_original": [ 379, 29, 288, 307, 556, 275, 289 ], "x": 20.521271146196035, "y": 54.695836893832649, "cluster": 31.0, "street_count": 4 }, "geometry": { "type": "Point", "coordinates": [ 20.521271146196035, 54.695836893832649 ] } },
{ "type": "Feature", "properties": { "osmid": 164, "osmid_original": [ 581, 577 ], "x": 20.518132700023859, "y": 54.699848650015781, "cluster": 164.0, "street_count": 3 }, "geometry": { "type": "Point", "coordinates": [ 20.518132700023859, 54.699848650015781 ] } },
{ "type": "Feature", "properties": { "osmid": 137, "osmid_original": "171", "x": 20.5154697, "y": 54.6985509, "cluster": null, "street_count": 3 }, "geometry": { "type": "Point", "coordinates": [ 20.5154697, 54.6985509 ] } },
{ "type": "Feature", "properties": { "osmid": 115, "osmid_original": "100", "x": 20.5165384, "y": 54.6972822, "cluster": null, "street_count": 3 }, "geometry": { "type": "Point", "coordinates": [ 20.5165384, 54.6972822 ] } },
{ "type": "Feature", "properties": { "osmid": 62, "osmid_original": [ 39, 564, 481, 572 ], "x": 20.513448472493256, "y": 54.699624495902441, "cluster": 62.0, "street_count": 4 }, "geometry": { "type": "Point", "coordinates": [ 20.513448472493256, 54.699624495902441 ] } },
{ "type": "Feature", "properties": { "osmid": 122, "osmid_original": [ 126, 125 ], "x": 20.516745400007647, "y": 54.69529290000041, "cluster": 122.0, "street_count": 3 }, "geometry": { "type": "Point", "coordinates": [ 20.516745400007647, 54.69529290000041 ] } },
{ "type": "Feature", "properties": { "osmid": 54, "osmid_original": "32", "x": 20.5242181, "y": 54.694419, "cluster": null, "street_count": 2 }, "geometry": { "type": "Point", "coordinates": [ 20.5242181, 54.694419 ] } },
{ "type": "Feature", "properties": { "osmid": 233, "osmid_original": "276", "x": 20.5228827, "y": 54.7018898, "cluster": null, "street_count": 3 }, "geometry": { "type": "Point", "coordinates": [ 20.5228827, 54.7018898 ] } },
{ "type": "Feature", "properties": { "osmid": 32, "osmid_original": "18", "x": 20.5091923, "y": 54.7109784, "cluster": null, "street_count": 3 }, "geometry": { "type": "Point", "coordinates": [ 20.5091923, 54.7109784 ] } },
{ "type": "Feature", "properties": { "osmid": 33, "osmid_original": [ 19, 570, 180, 298, 509, 510, 568, 569 ], "x": 20.503187761608345, "y": 54.698950762998152, "cluster": 33.0, "street_count": 8 }, "geometry": { "type": "Point", "coordinates": [ 20.503187761608345, 54.698950762998152 ] } },
{ "type": "Feature", "properties": { "osmid": 176, "osmid_original": "178", "x": 20.5038544, "y": 54.6978522, "cluster": null, "street_count": 1 }, "geometry": { "type": "Point", "coordinates": [ 20.5038544, 54.6978522 ] } },
{ "type": "Feature", "properties": { "osmid": 151, "osmid_original": [ 145, 573 ], "x": 20.505916000003715, "y": 54.699217, "cluster": 151.0, "street_count": 3 }, "geometry": { "type": "Point", "coordinates": [ 20.505916000003715, 54.699217000000168 ] } },
{ "type": "Feature", "properties": { "osmid": 71, "osmid_original": [ 42, 520 ], "x": 20.504872100071182, "y": 54.70240700007303, "cluster": 71.0, "street_count": 6 }, "geometry": { "type": "Point", "coordinates": [ 20.504872100071182, 54.70240700007303 ] } },
{ "type": "Feature", "properties": { "osmid": 245, "osmid_original": [ 297, 405 ], "x": 20.500699150282514, "y": 54.696853350191248, "cluster": 245.0, "street_count": 2 }, "geometry": { "type": "Point", "coordinates": [ 20.500699150282514, 54.696853350191248 ] } },
{ "type": "Feature", "properties": { "osmid": 120, "osmid_original": [ 356, 357, 358, 359 ], "x": 20.501434702487206, "y": 54.696099351075176, "cluster": 120.0, "street_count": 4 }, "geometry": { "type": "Point", "coordinates": [ 20.501434702487206, 54.696099351075176 ] } },
{ "type": "Feature", "properties": { "osmid": 36, "osmid_original": "138", "x": 20.4979734, "y": 54.6955161, "cluster": null, "street_count": 3 }, "geometry": { "type": "Point", "coordinates": [ 20.4979734, 54.6955161 ] } },
{ "type": "Feature", "properties": { "osmid": 35, "osmid_original": [ 21, 557 ], "x": 20.49874724996662, "y": 54.696268500006269, "cluster": 35.0, "street_count": 5 }, "geometry": { "type": "Point", "coordinates": [ 20.49874724996662, 54.696268500006269 ] } },
{ "type": "Feature", "properties": { "osmid": 37, "osmid_original": [ 30, 609, 559 ], "x": 20.500073208624563, "y": 54.695820545421775, "cluster": 37.0, "street_count": 6 }, "geometry": { "type": "Point", "coordinates": [ 20.500073208624563, 54.695820545421775 ] } },
{ "type": "Feature", "properties": { "osmid": 240, "osmid_original": [ 287, 404 ], "x": 20.500151950001509, "y": 54.696531200000734, "cluster": 240.0, "street_count": 2 }, "geometry": { "type": "Point", "coordinates": [ 20.500151950001509, 54.696531200000734 ] } },
{ "type": "Feature", "properties": { "osmid": 51, "osmid_original": "139", "x": 20.499268, "y": 54.695077, "cluster": null, "street_count": 3 }, "geometry": { "type": "Point", "coordinates": [ 20.499268, 54.695077 ] } },
{ "type": "Feature", "properties": { "osmid": 50, "osmid_original": "45", "x": 20.5014846, "y": 54.695245, "cluster": null, "street_count": 3 }, "geometry": { "type": "Point", "coordinates": [ 20.5014846, 54.695245 ] } },
{ "type": "Feature", "properties": { "osmid": 38, "osmid_original": "22", "x": 20.5299903, "y": 54.7163475, "cluster": null, "street_count": 3 }, "geometry": { "type": "Point", "coordinates": [ 20.5299903, 54.7163475 ] } },
{ "type": "Feature", "properties": { "osmid": 41, "osmid_original": "503", "x": 20.5316368, "y": 54.7157171, "cluster": null, "street_count": 1 }, "geometry": { "type": "Point", "coordinates": [ 20.5316368, 54.715717100000013 ] } },
{ "type": "Feature", "properties": { "osmid": 42, "osmid_original": [ 24, 432, 431 ], "x": 20.525252533287325, "y": 54.719482900077466, "cluster": 42.0, "street_count": 3 }, "geometry": { "type": "Point", "coordinates": [ 20.525252533287325, 54.719482900077466 ] } },
{ "type": "Feature", "properties": { "osmid": 44, "osmid_original": [ 25, 227 ], "x": 20.526289299153888, "y": 54.716274100742382, "cluster": 44.0, "street_count": 4 }, "geometry": { "type": "Point", "coordinates": [ 20.526289299153888, 54.716274100742382 ] } },
{ "type": "Feature", "properties": { "osmid": 156, "osmid_original": "150", "x": 20.5212886, "y": 54.716491, "cluster": null, "street_count": 3 }, "geometry": { "type": "Point", "coordinates": [ 20.5212886, 54.716491 ] } },
{ "type": "Feature", "properties": { "osmid": 264, "osmid_original": [ 386, 429, 430 ], "x": 20.524809966656409, "y": 54.719056700056662, "cluster": 264.0, "street_count": 3 }, "geometry": { "type": "Point", "coordinates": [ 20.524809966656409, 54.719056700056662 ] } },
{ "type": "Feature", "properties": { "osmid": 211, "osmid_original": [ 424, 428, 425 ], "x": 20.524724400016357, "y": 54.71627816675884, "cluster": 211.0, "street_count": 3 }, "geometry": { "type": "Point", "coordinates": [ 20.524724400016357, 54.71627816675884 ] } },
{ "type": "Feature", "properties": { "osmid": 206, "osmid_original": "226", "x": 20.5244695, "y": 54.7124573, "cluster": null, "street_count": 3 }, "geometry": { "type": "Point", "coordinates": [ 20.5244695, 54.7124573 ] } },
{ "type": "Feature", "properties": { "osmid": 45, "osmid_original": [ 26, 582 ], "x": 20.514382749929869, "y": 54.705771650174448, "cluster": 45.0, "street_count": 2 }, "geometry": { "type": "Point", "coordinates": [ 20.514382749929869, 54.705771650174448 ] } },
{ "type": "Feature", "properties": { "osmid": 278, "osmid_original": [ 579, 473 ], "x": 20.515278149974346, "y": 54.705036250017258, "cluster": 278.0, "street_count": 5 }, "geometry": { "type": "Point", "coordinates": [ 20.515278149974346, 54.705036250017258 ] } },
{ "type": "Feature", "properties": { "osmid": 46, "osmid_original": [ 27, 117, 116 ], "x": 20.512293433493042, "y": 54.711240700233134, "cluster": 46.0, "street_count": 3 }, "geometry": { "type": "Point", "coordinates": [ 20.512293433493042, 54.711240700233134 ] } },
{ "type": "Feature", "properties": { "osmid": 255, "osmid_original": "328", "x": 20.5119881, "y": 54.7116643, "cluster": null, "street_count": 1 }, "geometry": { "type": "Point", "coordinates": [ 20.5119881, 54.7116643 ] } },
{ "type": "Feature", "properties": { "osmid": 48, "osmid_original": "28", "x": 20.5098464, "y": 54.7091848, "cluster": null, "street_count": 3 }, "geometry": { "type": "Point", "coordinates": [ 20.5098464, 54.7091848 ] } },
{ "type": "Feature", "properties": { "osmid": 49, "osmid_original": "242", "x": 20.507242, "y": 54.7096162, "cluster": null, "street_count": 3 }, "geometry": { "type": "Point", "coordinates": [ 20.507242, 54.709616199999985 ] } },
{ "type": "Feature", "properties": { "osmid": 224, "osmid_original": "281", "x": 20.5046324, "y": 54.7099545, "cluster": null, "street_count": 3 }, "geometry": { "type": "Point", "coordinates": [ 20.5046324, 54.7099545 ] } },
{ "type": "Feature", "properties": { "osmid": 76, "osmid_original": [ 127, 558 ], "x": 20.50301325000002, "y": 54.694835700000233, "cluster": 76.0, "street_count": 4 }, "geometry": { "type": "Point", "coordinates": [ 20.50301325000002, 54.694835700000233 ] } },
{ "type": "Feature", "properties": { "osmid": 77, "osmid_original": "46", "x": 20.5007979, "y": 54.6945926, "cluster": null, "street_count": 2 }, "geometry": { "type": "Point", "coordinates": [ 20.5007979, 54.6945926 ] } },
{ "type": "Feature", "properties": { "osmid": 53, "osmid_original": [ 140, 141 ], "x": 20.526450400020373, "y": 54.709389200001084, "cluster": 53.0, "street_count": 3 }, "geometry": { "type": "Point", "coordinates": [ 20.526450400020373, 54.709389200001084 ] } },
{ "type": "Feature", "properties": { "osmid": 201, "osmid_original": "216", "x": 20.5339366, "y": 54.7104538, "cluster": null, "street_count": 1 }, "geometry": { "type": "Point", "coordinates": [ 20.5339366, 54.7104538 ] } },
{ "type": "Feature", "properties": { "osmid": 82, "osmid_original": "193", "x": 20.5362899, "y": 54.7097415, "cluster": null, "street_count": 3 }, "geometry": { "type": "Point", "coordinates": [ 20.5362899, 54.7097415 ] } },
{ "type": "Feature", "properties": { "osmid": 149, "osmid_original": "143", "x": 20.5309552, "y": 54.7073588, "cluster": null, "street_count": 1 }, "geometry": { "type": "Point", "coordinates": [ 20.5309552, 54.7073588 ] } },
{ "type": "Feature", "properties": { "osmid": 148, "osmid_original": [ 261, 312, 263, 296 ], "x": 20.522957948998318, "y": 54.709202577639353, "cluster": 148.0, "street_count": 5 }, "geometry": { "type": "Point", "coordinates": [ 20.522957948998318, 54.709202577639353 ] } },
{ "type": "Feature", "properties": { "osmid": 55, "osmid_original": "254", "x": 20.5256957, "y": 54.6953018, "cluster": null, "street_count": 1 }, "geometry": { "type": "Point", "coordinates": [ 20.5256957, 54.695301799999982 ] } },
{ "type": "Feature", "properties": { "osmid": 56, "osmid_original": "33", "x": 20.4972801, "y": 54.7215035, "cluster": null, "street_count": 1 }, "geometry": { "type": "Point", "coordinates": [ 20.4972801, 54.7215035 ] } },
{ "type": "Feature", "properties": { "osmid": 57, "osmid_original": "34", "x": 20.4957729, "y": 54.7221934, "cluster": null, "street_count": 2 }, "geometry": { "type": "Point", "coordinates": [ 20.4957729, 54.7221934 ] } },
{ "type": "Feature", "properties": { "osmid": 79, "osmid_original": "52", "x": 20.4931973, "y": 54.7198193, "cluster": null, "street_count": 1 }, "geometry": { "type": "Point", "coordinates": [ 20.4931973, 54.7198193 ] } },
{ "type": "Feature", "properties": { "osmid": 60, "osmid_original": "38", "x": 20.4929292, "y": 54.7224668, "cluster": null, "street_count": 2 }, "geometry": { "type": "Point", "coordinates": [ 20.4929292, 54.722466799999985 ] } },
{ "type": "Feature", "properties": { "osmid": 109, "osmid_original": [ 98, 547 ], "x": 20.486668450011443, "y": 54.719998250000963, "cluster": 109.0, "street_count": 2 }, "geometry": { "type": "Point", "coordinates": [ 20.486668450011443, 54.719998250000963 ] } },
{ "type": "Feature", "properties": { "osmid": 110, "osmid_original": "95", "x": 20.4881638, "y": 54.7158868, "cluster": null, "street_count": 3 }, "geometry": { "type": "Point", "coordinates": [ 20.4881638, 54.7158868 ] } },
{ "type": "Feature", "properties": { "osmid": 65, "osmid_original": "187", "x": 20.5137576, "y": 54.7003214, "cluster": null, "street_count": 3 }, "geometry": { "type": "Point", "coordinates": [ 20.5137576, 54.7003214 ] } },
{ "type": "Feature", "properties": { "osmid": 138, "osmid_original": [ 129, 567, 174, 146, 565 ], "x": 20.509535319728588, "y": 54.699394046986541, "cluster": 138.0, "street_count": 5 }, "geometry": { "type": "Point", "coordinates": [ 20.509535319728588, 54.699394046986541 ] } },
{ "type": "Feature", "properties": { "osmid": 63, "osmid_original": "40", "x": 20.5131627, "y": 54.7009742, "cluster": null, "street_count": 3 }, "geometry": { "type": "Point", "coordinates": [ 20.5131627, 54.7009742 ] } },
{ "type": "Feature", "properties": { "osmid": 64, "osmid_original": "188", "x": 20.5115441, "y": 54.7013209, "cluster": null, "street_count": 4 }, "geometry": { "type": "Point", "coordinates": [ 20.5115441, 54.7013209 ] } },
{ "type": "Feature", "properties": { "osmid": 66, "osmid_original": "134", "x": 20.5134788, "y": 54.7023804, "cluster": null, "street_count": 3 }, "geometry": { "type": "Point", "coordinates": [ 20.5134788, 54.702380399999988 ] } },
{ "type": "Feature", "properties": { "osmid": 143, "osmid_original": "189", "x": 20.5114616, "y": 54.7023189, "cluster": null, "street_count": 3 }, "geometry": { "type": "Point", "coordinates": [ 20.5114616, 54.7023189 ] } },
{ "type": "Feature", "properties": { "osmid": 180, "osmid_original": "186", "x": 20.5115277, "y": 54.7002658, "cluster": null, "street_count": 3 }, "geometry": { "type": "Point", "coordinates": [ 20.5115277, 54.7002658 ] } },
{ "type": "Feature", "properties": { "osmid": 68, "osmid_original": "130", "x": 20.5095622, "y": 54.701715, "cluster": null, "street_count": 4 }, "geometry": { "type": "Point", "coordinates": [ 20.5095622, 54.701715 ] } },
{ "type": "Feature", "properties": { "osmid": 139, "osmid_original": "132", "x": 20.5096415, "y": 54.7022746, "cluster": null, "street_count": 3 }, "geometry": { "type": "Point", "coordinates": [ 20.5096415, 54.7022746 ] } },
{ "type": "Feature", "properties": { "osmid": 67, "osmid_original": "41", "x": 20.5080886, "y": 54.7019481, "cluster": null, "street_count": 3 }, "geometry": { "type": "Point", "coordinates": [ 20.5080886, 54.7019481 ] } },
{ "type": "Feature", "properties": { "osmid": 69, "osmid_original": "133", "x": 20.5078995, "y": 54.7038844, "cluster": null, "street_count": 3 }, "geometry": { "type": "Point", "coordinates": [ 20.5078995, 54.7038844 ] } },
{ "type": "Feature", "properties": { "osmid": 70, "osmid_original": "184", "x": 20.5069878, "y": 54.7021052, "cluster": null, "street_count": 3 }, "geometry": { "type": "Point", "coordinates": [ 20.5069878, 54.7021052 ] } },
{ "type": "Feature", "properties": { "osmid": 140, "osmid_original": [ 185, 182 ], "x": 20.509422050000989, "y": 54.700168150000245, "cluster": 140.0, "street_count": 4 }, "geometry": { "type": "Point", "coordinates": [ 20.509422050000989, 54.700168150000245 ] } },
{ "type": "Feature", "properties": { "osmid": 73, "osmid_original": [ 43, 498, 495 ], "x": 20.508182146015621, "y": 54.704774743426313, "cluster": 73.0, "street_count": 3 }, "geometry": { "type": "Point", "coordinates": [ 20.508182146015621, 54.704774743426313 ] } },
{ "type": "Feature", "properties": { "osmid": 72, "osmid_original": [ 49, 47, 48 ], "x": 20.505971033164048, "y": 54.704137400173195, "cluster": 72.0, "street_count": 3 }, "geometry": { "type": "Point", "coordinates": [ 20.505971033164048, 54.704137400173195 ] } },
{ "type": "Feature", "properties": { "osmid": 179, "osmid_original": "183", "x": 20.5067122, "y": 54.7015255, "cluster": null, "street_count": 1 }, "geometry": { "type": "Point", "coordinates": [ 20.5067122, 54.7015255 ] } },
{ "type": "Feature", "properties": { "osmid": 197, "osmid_original": "517", "x": 20.5037111, "y": 54.7006482, "cluster": null, "street_count": 3 }, "geometry": { "type": "Point", "coordinates": [ 20.5037111, 54.7006482 ] } },
{ "type": "Feature", "properties": { "osmid": 195, "osmid_original": "210", "x": 20.5026239, "y": 54.70279, "cluster": null, "street_count": 4 }, "geometry": { "type": "Point", "coordinates": [ 20.5026239, 54.70279 ] } },
{ "type": "Feature", "properties": { "osmid": 78, "osmid_original": [ 284, 279 ], "x": 20.508654998736777, "y": 54.709914200106731, "cluster": 78.0, "street_count": 4 }, "geometry": { "type": "Point", "coordinates": [ 20.508654998736777, 54.709914200106731 ] } },
{ "type": "Feature", "properties": { "osmid": 141, "osmid_original": [ 131, 385 ], "x": 20.510053399952994, "y": 54.704711650002501, "cluster": 141.0, "street_count": 2 }, "geometry": { "type": "Point", "coordinates": [ 20.510053399952994, 54.704711650002501 ] } },
{ "type": "Feature", "properties": { "osmid": 74, "osmid_original": [ 44, 406, 521, 524 ], "x": 20.505502649863743, "y": 54.704230275120977, "cluster": 74.0, "street_count": 4 }, "geometry": { "type": "Point", "coordinates": [ 20.505502649863743, 54.704230275120977 ] } },
{ "type": "Feature", "properties": { "osmid": 75, "osmid_original": "211", "x": 20.5033743, "y": 54.7044842, "cluster": null, "street_count": 3 }, "geometry": { "type": "Point", "coordinates": [ 20.5033743, 54.7044842 ] } },
{ "type": "Feature", "properties": { "osmid": 194, "osmid_original": "484", "x": 20.4995526, "y": 54.7049405, "cluster": null, "street_count": 3 }, "geometry": { "type": "Point", "coordinates": [ 20.4995526, 54.7049405 ] } },
{ "type": "Feature", "properties": { "osmid": 136, "osmid_original": [ 195, 152 ], "x": 20.506526750006124, "y": 54.694939250000338, "cluster": 136.0, "street_count": 3 }, "geometry": { "type": "Point", "coordinates": [ 20.506526750006124, 54.694939250000338 ] } },
{ "type": "Feature", "properties": { "osmid": 260, "osmid_original": "560", "x": 20.5016141, "y": 54.6953226, "cluster": null, "street_count": 3 }, "geometry": { "type": "Point", "coordinates": [ 20.5016141, 54.6953226 ] } },
{ "type": "Feature", "properties": { "osmid": 119, "osmid_original": "102", "x": 20.5032186, "y": 54.6958303, "cluster": null, "street_count": 4 }, "geometry": { "type": "Point", "coordinates": [ 20.5032186, 54.6958303 ] } },
{ "type": "Feature", "properties": { "osmid": 80, "osmid_original": [ 55, 56, 57, 66, 58, 59, 60, 237, 65, 257 ], "x": 20.49453248261915, "y": 54.711094979812415, "cluster": 80.0, "street_count": 8 }, "geometry": { "type": "Point", "coordinates": [ 20.49453248261915, 54.711094979812415 ] } },
{ "type": "Feature", "properties": { "osmid": 81, "osmid_original": [ 260, 258, 259 ], "x": 20.492693189717869, "y": 54.710050686505603, "cluster": 81.0, "street_count": 3 }, "geometry": { "type": "Point", "coordinates": [ 20.492693189717869, 54.710050686505603 ] } },
{ "type": "Feature", "properties": { "osmid": 181, "osmid_original": [ 190, 409, 191, 245, 323, 378, 410, 412, 411, 413 ], "x": 20.500869077900823, "y": 54.710275301702339, "cluster": 181.0, "street_count": 7 }, "geometry": { "type": "Point", "coordinates": [ 20.500869077900823, 54.710275301702339 ] } },
{ "type": "Feature", "properties": { "osmid": 217, "osmid_original": [ 238, 322 ], "x": 20.495132999607293, "y": 54.709837600028941, "cluster": 217.0, "street_count": 4 }, "geometry": { "type": "Point", "coordinates": [ 20.495132999607293, 54.709837600028941 ] } },
{ "type": "Feature", "properties": { "osmid": 86, "osmid_original": "67", "x": 20.4958827, "y": 54.7116539, "cluster": null, "street_count": 1 }, "geometry": { "type": "Point", "coordinates": [ 20.4958827, 54.711653899999988 ] } },
{ "type": "Feature", "properties": { "osmid": 87, "osmid_original": [ 221, 69 ], "x": 20.495430049694519, "y": 54.713082700056354, "cluster": 87.0, "street_count": 4 }, "geometry": { "type": "Point", "coordinates": [ 20.495430049694519, 54.713082700056354 ] } },
{ "type": "Feature", "properties": { "osmid": 183, "osmid_original": "192", "x": 20.5377642, "y": 54.707065, "cluster": null, "street_count": 3 }, "geometry": { "type": "Point", "coordinates": [ 20.5377642, 54.707065 ] } },
{ "type": "Feature", "properties": { "osmid": 184, "osmid_original": [ 585, 586 ], "x": 20.537797200024787, "y": 54.709734850002569, "cluster": 184.0, "street_count": 4 }, "geometry": { "type": "Point", "coordinates": [ 20.537797200024787, 54.709734850002569 ] } },
{ "type": "Feature", "properties": { "osmid": 83, "osmid_original": [ 62, 542 ], "x": 20.507448749992612, "y": 54.720926450011042, "cluster": 83.0, "street_count": 2 }, "geometry": { "type": "Point", "coordinates": [ 20.507448749992612, 54.720926450011042 ] } },
{ "type": "Feature", "properties": { "osmid": 168, "osmid_original": "161", "x": 20.5055572, "y": 54.7182962, "cluster": null, "street_count": 3 }, "geometry": { "type": "Point", "coordinates": [ 20.5055572, 54.7182962 ] } },
{ "type": "Feature", "properties": { "osmid": 208, "osmid_original": [ 605, 603, 604, 608, 607 ], "x": 20.493436431131087, "y": 54.713341504324738, "cluster": 208.0, "street_count": 5 }, "geometry": { "type": "Point", "coordinates": [ 20.493436431131087, 54.713341504324738 ] } },
{ "type": "Feature", "properties": { "osmid": 90, "osmid_original": [ 461, 70, 371, 486 ], "x": 20.497853358602395, "y": 54.713281853219613, "cluster": 90.0, "street_count": 4 }, "geometry": { "type": "Point", "coordinates": [ 20.497853358602395, 54.713281853219613 ] } },
{ "type": "Feature", "properties": { "osmid": 91, "osmid_original": "462", "x": 20.4972867, "y": 54.7142305, "cluster": null, "street_count": 3 }, "geometry": { "type": "Point", "coordinates": [ 20.4972867, 54.7142305 ] } },
{ "type": "Feature", "properties": { "osmid": 103, "osmid_original": [ 84, 415, 346 ], "x": 20.503969167814258, "y": 54.710717996158792, "cluster": 103.0, "street_count": 5 }, "geometry": { "type": "Point", "coordinates": [ 20.503969167814258, 54.710717996158792 ] } },
{ "type": "Feature", "properties": { "osmid": 92, "osmid_original": "71", "x": 20.49883, "y": 54.7123664, "cluster": null, "street_count": 3 }, "geometry": { "type": "Point", "coordinates": [ 20.49883, 54.7123664 ] } },
{ "type": "Feature", "properties": { "osmid": 97, "osmid_original": [ 77, 372, 79, 489, 80, 487 ], "x": 20.499291024614589, "y": 54.714569348919589, "cluster": 97.0, "street_count": 8 }, "geometry": { "type": "Point", "coordinates": [ 20.499291024614589, 54.714569348919589 ] } },
{ "type": "Feature", "properties": { "osmid": 93, "osmid_original": "72", "x": 20.500938, "y": 54.7123253, "cluster": null, "street_count": 3 }, "geometry": { "type": "Point", "coordinates": [ 20.500938, 54.71232530000001 ] } },
{ "type": "Feature", "properties": { "osmid": 94, "osmid_original": "121", "x": 20.4982115, "y": 54.7117098, "cluster": null, "street_count": 1 }, "geometry": { "type": "Point", "coordinates": [ 20.4982115, 54.7117098 ] } },
{ "type": "Feature", "properties": { "osmid": 95, "osmid_original": "123", "x": 20.5019264, "y": 54.7122434, "cluster": null, "street_count": 3 }, "geometry": { "type": "Point", "coordinates": [ 20.5019264, 54.7122434 ] } },
{ "type": "Feature", "properties": { "osmid": 96, "osmid_original": [ 74, 75, 82 ], "x": 20.503041500566827, "y": 54.714074277255015, "cluster": 96.0, "street_count": 4 }, "geometry": { "type": "Point", "coordinates": [ 20.503041500566827, 54.714074277255015 ] } },
{ "type": "Feature", "properties": { "osmid": 101, "osmid_original": "86", "x": 20.5033986, "y": 54.7146515, "cluster": null, "street_count": 2 }, "geometry": { "type": "Point", "coordinates": [ 20.5033986, 54.7146515 ] } },
{ "type": "Feature", "properties": { "osmid": 100, "osmid_original": "394", "x": 20.5012547, "y": 54.7151467, "cluster": null, "street_count": 3 }, "geometry": { "type": "Point", "coordinates": [ 20.5012547, 54.7151467 ] } },
{ "type": "Feature", "properties": { "osmid": 283, "osmid_original": "490", "x": 20.4989044, "y": 54.71377, "cluster": null, "street_count": 1 }, "geometry": { "type": "Point", "coordinates": [ 20.4989044, 54.71377 ] } },
{ "type": "Feature", "properties": { "osmid": 282, "osmid_original": "488", "x": 20.4981373, "y": 54.7140582, "cluster": null, "street_count": 1 }, "geometry": { "type": "Point", "coordinates": [ 20.4981373, 54.7140582 ] } },
{ "type": "Feature", "properties": { "osmid": 263, "osmid_original": "380", "x": 20.5017774, "y": 54.7119301, "cluster": null, "street_count": 1 }, "geometry": { "type": "Point", "coordinates": [ 20.5017774, 54.711930099999989 ] } },
{ "type": "Feature", "properties": { "osmid": 104, "osmid_original": "617", "x": 20.5020855, "y": 54.7108783, "cluster": null, "street_count": 1 }, "geometry": { "type": "Point", "coordinates": [ 20.5020855, 54.7108783 ] } },
{ "type": "Feature", "properties": { "osmid": 106, "osmid_original": "621", "x": 20.4949449, "y": 54.7190106, "cluster": null, "street_count": 1 }, "geometry": { "type": "Point", "coordinates": [ 20.4949449, 54.7190106 ] } },
{ "type": "Feature", "properties": { "osmid": 111, "osmid_original": "97", "x": 20.4871111, "y": 54.7157322, "cluster": null, "street_count": 2 }, "geometry": { "type": "Point", "coordinates": [ 20.4871111, 54.7157322 ] } },
{ "type": "Feature", "properties": { "osmid": 112, "osmid_original": "286", "x": 20.4891993, "y": 54.7158234, "cluster": null, "street_count": 3 }, "geometry": { "type": "Point", "coordinates": [ 20.4891993, 54.7158234 ] } },
{ "type": "Feature", "properties": { "osmid": 113, "osmid_original": "96", "x": 20.48696, "y": 54.7179704, "cluster": null, "street_count": 2 }, "geometry": { "type": "Point", "coordinates": [ 20.48696, 54.7179704 ] } },
{ "type": "Feature", "properties": { "osmid": 238, "osmid_original": "285", "x": 20.4896339, "y": 54.7147415, "cluster": null, "street_count": 1 }, "geometry": { "type": "Point", "coordinates": [ 20.4896339, 54.7147415 ] } },
{ "type": "Feature", "properties": { "osmid": 116, "osmid_original": [ 170, 600 ], "x": 20.515178949992716, "y": 54.697506250004835, "cluster": 116.0, "street_count": 2 }, "geometry": { "type": "Point", "coordinates": [ 20.515178949992716, 54.697506250004835 ] } },
{ "type": "Feature", "properties": { "osmid": 117, "osmid_original": [ 290, 103 ], "x": 20.516608650012461, "y": 54.696607300000629, "cluster": 117.0, "street_count": 4 }, "geometry": { "type": "Point", "coordinates": [ 20.516608650012461, 54.696607300000629 ] } },
{ "type": "Feature", "properties": { "osmid": 154, "osmid_original": [ 172, 173 ], "x": 20.510336349991821, "y": 54.697265700000671, "cluster": 154.0, "street_count": 2 }, "geometry": { "type": "Point", "coordinates": [ 20.510336349991821, 54.697265700000671 ] } },
{ "type": "Feature", "properties": { "osmid": 118, "osmid_original": [ 101, 179, 200 ], "x": 20.503877232872373, "y": 54.69701030893949, "cluster": 118.0, "street_count": 5 }, "geometry": { "type": "Point", "coordinates": [ 20.503877232872373, 54.69701030893949 ] } },
{ "type": "Feature", "properties": { "osmid": 177, "osmid_original": "597", "x": 20.5038543, "y": 54.6977144, "cluster": null, "street_count": 1 }, "geometry": { "type": "Point", "coordinates": [ 20.5038543, 54.6977144 ] } },
{ "type": "Feature", "properties": { "osmid": 187, "osmid_original": "199", "x": 20.5046915, "y": 54.6960906, "cluster": null, "street_count": 1 }, "geometry": { "type": "Point", "coordinates": [ 20.5046915, 54.6960906 ] } },
{ "type": "Feature", "properties": { "osmid": 150, "osmid_original": [ 144, 176, 147, 301, 300 ], "x": 20.507434908139718, "y": 54.697114734525954, "cluster": 150.0, "street_count": 6 }, "geometry": { "type": "Point", "coordinates": [ 20.507434908139718, 54.697114734525954 ] } },
{ "type": "Feature", "properties": { "osmid": 121, "osmid_original": "153", "x": 20.5064974, "y": 54.6958898, "cluster": null, "street_count": 3 }, "geometry": { "type": "Point", "coordinates": [ 20.5064974, 54.6958898 ] } },
{ "type": "Feature", "properties": { "osmid": 158, "osmid_original": [ 201, 202 ], "x": 20.509711999859725, "y": 54.695957300812573, "cluster": 158.0, "street_count": 4 }, "geometry": { "type": "Point", "coordinates": [ 20.509711999859725, 54.695957300812573 ] } },
{ "type": "Feature", "properties": { "osmid": 135, "osmid_original": [ 203, 350 ], "x": 20.513818250013134, "y": 54.695194550000636, "cluster": 135.0, "street_count": 3 }, "geometry": { "type": "Point", "coordinates": [ 20.513818250013134, 54.695194550000636 ] } },
{ "type": "Feature", "properties": { "osmid": 124, "osmid_original": "251", "x": 20.4917183, "y": 54.6969857, "cluster": null, "street_count": 1 }, "geometry": { "type": "Point", "coordinates": [ 20.4917183, 54.6969857 ] } },
{ "type": "Feature", "properties": { "osmid": 125, "osmid_original": "250", "x": 20.4881305, "y": 54.6955438, "cluster": null, "street_count": 2 }, "geometry": { "type": "Point", "coordinates": [ 20.4881305, 54.695543800000017 ] } },
{ "type": "Feature", "properties": { "osmid": 227, "osmid_original": [ 463, 465, 464, 466, 470, 468, 467, 469 ], "x": 20.487108067651253, "y": 54.694520467503736, "cluster": 227.0, "street_count": 1 }, "geometry": { "type": "Point", "coordinates": [ 20.487108067651253, 54.694520467503736 ] } },
{ "type": "Feature", "properties": { "osmid": 202, "osmid_original": "217", "x": 20.5374021, "y": 54.7110333, "cluster": null, "street_count": 3 }, "geometry": { "type": "Point", "coordinates": [ 20.5374021, 54.7110333 ] } },
{ "type": "Feature", "properties": { "osmid": 128, "osmid_original": [ 111, 115, 112, 119, 118, 114, 249, 248 ], "x": 20.518379261967407, "y": 54.711992590661801, "cluster": 128.0, "street_count": 3 }, "geometry": { "type": "Point", "coordinates": [ 20.518379261967407, 54.711992590661801 ] } },
{ "type": "Feature", "properties": { "osmid": 130, "osmid_original": [ 267, 266 ], "x": 20.513595599914101, "y": 54.710871650007341, "cluster": 130.0, "street_count": 3 }, "geometry": { "type": "Point", "coordinates": [ 20.513595599914101, 54.710871650007341 ] } },
{ "type": "Feature", "properties": { "osmid": 131, "osmid_original": "220", "x": 20.5204948, "y": 54.7119821, "cluster": null, "street_count": 3 }, "geometry": { "type": "Point", "coordinates": [ 20.5204948, 54.7119821 ] } },
{ "type": "Feature", "properties": { "osmid": 133, "osmid_original": "269", "x": 20.5190862, "y": 54.713068, "cluster": null, "street_count": 3 }, "geometry": { "type": "Point", "coordinates": [ 20.5190862, 54.713068 ] } },
{ "type": "Feature", "properties": { "osmid": 207, "osmid_original": "419", "x": 20.5209892, "y": 54.7097133, "cluster": null, "street_count": 1 }, "geometry": { "type": "Point", "coordinates": [ 20.5209892, 54.7097133 ] } },
{ "type": "Feature", "properties": { "osmid": 204, "osmid_original": [ 219, 479, 407 ], "x": 20.522545309978309, "y": 54.712194128322317, "cluster": 204.0, "street_count": 7 }, "geometry": { "type": "Point", "coordinates": [ 20.522545309978309, 54.712194128322317 ] } },
{ "type": "Feature", "properties": { "osmid": 132, "osmid_original": "120", "x": 20.5196258, "y": 54.7135466, "cluster": null, "street_count": 1 }, "geometry": { "type": "Point", "coordinates": [ 20.5196258, 54.7135466 ] } },
{ "type": "Feature", "properties": { "osmid": 232, "osmid_original": [ 421, 420, 422 ], "x": 20.522046917750622, "y": 54.713087231787355, "cluster": 232.0, "street_count": 3 }, "geometry": { "type": "Point", "coordinates": [ 20.522046917750622, 54.713087231787355 ] } },
{ "type": "Feature", "properties": { "osmid": 186, "osmid_original": [ 198, 196, 197 ], "x": 20.509845700296591, "y": 54.695081532859973, "cluster": 186.0, "street_count": 4 }, "geometry": { "type": "Point", "coordinates": [ 20.509845700296591, 54.695081532859973 ] } },
{ "type": "Feature", "properties": { "osmid": 188, "osmid_original": "204", "x": 20.513688, "y": 54.6964035, "cluster": null, "street_count": 3 }, "geometry": { "type": "Point", "coordinates": [ 20.513688, 54.6964035 ] } },
{ "type": "Feature", "properties": { "osmid": 173, "osmid_original": "599", "x": 20.5151874, "y": 54.6978729, "cluster": null, "street_count": 1 }, "geometry": { "type": "Point", "coordinates": [ 20.5151874, 54.6978729 ] } },
{ "type": "Feature", "properties": { "osmid": 174, "osmid_original": "175", "x": 20.5103729, "y": 54.6984785, "cluster": null, "street_count": 1 }, "geometry": { "type": "Point", "coordinates": [ 20.5103729, 54.6984785 ] } },
{ "type": "Feature", "properties": { "osmid": 153, "osmid_original": [ 177, 566, 499, 501, 502 ], "x": 20.507380322454971, "y": 54.698878338198412, "cluster": 153.0, "street_count": 4 }, "geometry": { "type": "Point", "coordinates": [ 20.507380322454971, 54.698878338198412 ] } },
{ "type": "Feature", "properties": { "osmid": 178, "osmid_original": "181", "x": 20.5043951, "y": 54.7002519, "cluster": null, "street_count": 1 }, "geometry": { "type": "Point", "coordinates": [ 20.5043951, 54.7002519 ] } },
{ "type": "Feature", "properties": { "osmid": 142, "osmid_original": "384", "x": 20.5121919, "y": 54.7044582, "cluster": null, "street_count": 1 }, "geometry": { "type": "Point", "coordinates": [ 20.5121919, 54.7044582 ] } },
{ "type": "Feature", "properties": { "osmid": 144, "osmid_original": "135", "x": 20.5157312, "y": 54.7085277, "cluster": null, "street_count": 3 }, "geometry": { "type": "Point", "coordinates": [ 20.5157312, 54.7085277 ] } },
{ "type": "Feature", "properties": { "osmid": 145, "osmid_original": [ 136, 137 ], "x": 20.5203209500533, "y": 54.708926750002853, "cluster": 145.0, "street_count": 4 }, "geometry": { "type": "Point", "coordinates": [ 20.5203209500533, 54.708926750002853 ] } },
{ "type": "Feature", "properties": { "osmid": 146, "osmid_original": [ 310, 294, 295, 311 ], "x": 20.522968948382676, "y": 54.709011703670676, "cluster": 146.0, "street_count": 4 }, "geometry": { "type": "Point", "coordinates": [ 20.522968948382676, 54.709011703670676 ] } },
{ "type": "Feature", "properties": { "osmid": 147, "osmid_original": [ 253, 154 ], "x": 20.514007350003361, "y": 54.708611300000761, "cluster": 147.0, "street_count": 5 }, "geometry": { "type": "Point", "coordinates": [ 20.514007350003361, 54.708611300000761 ] } },
{ "type": "Feature", "properties": { "osmid": 244, "osmid_original": [ 293, 308 ], "x": 20.523073350359695, "y": 54.708174050018023, "cluster": 244.0, "street_count": 3 }, "geometry": { "type": "Point", "coordinates": [ 20.523073350359695, 54.708174050018023 ] } },
{ "type": "Feature", "properties": { "osmid": 243, "osmid_original": [ 292, 309 ], "x": 20.523285000323444, "y": 54.708196400017009, "cluster": 243.0, "street_count": 3 }, "geometry": { "type": "Point", "coordinates": [ 20.523285000323444, 54.708196400017009 ] } },
{ "type": "Feature", "properties": { "osmid": 228, "osmid_original": "278", "x": 20.5118355, "y": 54.7088731, "cluster": null, "street_count": 3 }, "geometry": { "type": "Point", "coordinates": [ 20.5118355, 54.7088731 ] } },
{ "type": "Feature", "properties": { "osmid": 159, "osmid_original": [ 583, 576 ], "x": 20.514485649997145, "y": 54.706569650012533, "cluster": 159.0, "street_count": 5 }, "geometry": { "type": "Point", "coordinates": [ 20.514485649997145, 54.706569650012533 ] } },
{ "type": "Feature", "properties": { "osmid": 229, "osmid_original": "262", "x": 20.5226787, "y": 54.7112207, "cluster": null, "street_count": 3 }, "geometry": { "type": "Point", "coordinates": [ 20.5226787, 54.7112207 ] } },
{ "type": "Feature", "properties": { "osmid": 230, "osmid_original": [ 264, 313 ], "x": 20.522531150643474, "y": 54.710374250038022, "cluster": 230.0, "street_count": 3 }, "geometry": { "type": "Point", "coordinates": [ 20.522531150643474, 54.710374250038022 ] } },
{ "type": "Feature", "properties": { "osmid": 175, "osmid_original": "500", "x": 20.5069106, "y": 54.6980627, "cluster": null, "street_count": 3 }, "geometry": { "type": "Point", "coordinates": [ 20.5069106, 54.6980627 ] } },
{ "type": "Feature", "properties": { "osmid": 246, "osmid_original": "299", "x": 20.5064102, "y": 54.6961159, "cluster": null, "street_count": 1 }, "geometry": { "type": "Point", "coordinates": [ 20.5064102, 54.6961159 ] } },
{ "type": "Feature", "properties": { "osmid": 152, "osmid_original": "302", "x": 20.5060098, "y": 54.6980586, "cluster": null, "street_count": 3 }, "geometry": { "type": "Point", "coordinates": [ 20.5060098, 54.6980586 ] } },
{ "type": "Feature", "properties": { "osmid": 247, "osmid_original": "303", "x": 20.5054591, "y": 54.6986753, "cluster": null, "street_count": 1 }, "geometry": { "type": "Point", "coordinates": [ 20.5054591, 54.6986753 ] } },
{ "type": "Feature", "properties": { "osmid": 155, "osmid_original": "149", "x": 20.5197756, "y": 54.7136957, "cluster": null, "street_count": 1 }, "geometry": { "type": "Point", "coordinates": [ 20.5197756, 54.7136957 ] } },
{ "type": "Feature", "properties": { "osmid": 157, "osmid_original": [ 151, 426, 423, 427 ], "x": 20.523903224848649, "y": 54.716252225241696, "cluster": 157.0, "street_count": 4 }, "geometry": { "type": "Point", "coordinates": [ 20.523903224848649, 54.716252225241696 ] } },
{ "type": "Feature", "properties": { "osmid": 161, "osmid_original": "156", "x": 20.5230983, "y": 54.7068267, "cluster": null, "street_count": 3 }, "geometry": { "type": "Point", "coordinates": [ 20.5230983, 54.7068267 ] } },
{ "type": "Feature", "properties": { "osmid": 160, "osmid_original": "155", "x": 20.5379476, "y": 54.7039152, "cluster": null, "street_count": 1 }, "geometry": { "type": "Point", "coordinates": [ 20.5379476, 54.7039152 ] } },
{ "type": "Feature", "properties": { "osmid": 162, "osmid_original": "450", "x": 20.5234001, "y": 54.7048831, "cluster": null, "street_count": 3 }, "geometry": { "type": "Point", "coordinates": [ 20.5234001, 54.7048831 ] } },
{ "type": "Feature", "properties": { "osmid": 271, "osmid_original": "449", "x": 20.5271442, "y": 54.7046731, "cluster": null, "street_count": 3 }, "geometry": { "type": "Point", "coordinates": [ 20.5271442, 54.7046731 ] } },
{ "type": "Feature", "properties": { "osmid": 272, "osmid_original": "493", "x": 20.5355029, "y": 54.7001322, "cluster": null, "street_count": 3 }, "geometry": { "type": "Point", "coordinates": [ 20.5355029, 54.7001322 ] } },
{ "type": "Feature", "properties": { "osmid": 163, "osmid_original": [ 157, 575 ], "x": 20.517434099973432, "y": 54.700602000014939, "cluster": 163.0, "street_count": 4 }, "geometry": { "type": "Point", "coordinates": [ 20.517434099973432, 54.700602000014939 ] } },
{ "type": "Feature", "properties": { "osmid": 277, "osmid_original": "580", "x": 20.5160363, "y": 54.7042385, "cluster": null, "street_count": 3 }, "geometry": { "type": "Point", "coordinates": [ 20.5160363, 54.70423850000001 ] } },
{ "type": "Feature", "properties": { "osmid": 276, "osmid_original": "472", "x": 20.5189897, "y": 54.7046024, "cluster": null, "street_count": 3 }, "geometry": { "type": "Point", "coordinates": [ 20.5189897, 54.7046024 ] } },
{ "type": "Feature", "properties": { "osmid": 273, "osmid_original": [ 452, 454, 453, 455 ], "x": 20.520717728801376, "y": 54.699112793535427, "cluster": 273.0, "street_count": 4 }, "geometry": { "type": "Point", "coordinates": [ 20.520717728801376, 54.699112793535427 ] } },
{ "type": "Feature", "properties": { "osmid": 165, "osmid_original": "158", "x": 20.5056793, "y": 54.7172793, "cluster": null, "street_count": 3 }, "geometry": { "type": "Point", "coordinates": [ 20.5056793, 54.7172793 ] } },
{ "type": "Feature", "properties": { "osmid": 166, "osmid_original": [ 370, 506, 163 ], "x": 20.507356180535222, "y": 54.71761433781306, "cluster": 166.0, "street_count": 2 }, "geometry": { "type": "Point", "coordinates": [ 20.507356180535222, 54.71761433781306 ] } },
{ "type": "Feature", "properties": { "osmid": 167, "osmid_original": [ 167, 482, 352, 483 ], "x": 20.506441699389168, "y": 54.714414075571284, "cluster": 167.0, "street_count": 2 }, "geometry": { "type": "Point", "coordinates": [ 20.506441699389168, 54.714414075571284 ] } },
{ "type": "Feature", "properties": { "osmid": 171, "osmid_original": [ 368, 162, 369 ], "x": 20.507661610176495, "y": 54.718921732286383, "cluster": 171.0, "street_count": 2 }, "geometry": { "type": "Point", "coordinates": [ 20.507661610176495, 54.718921732286383 ] } },
{ "type": "Feature", "properties": { "osmid": 182, "osmid_original": [ 246, 241, 243 ], "x": 20.506111466736527, "y": 54.709500767014362, "cluster": 182.0, "street_count": 3 }, "geometry": { "type": "Point", "coordinates": [ 20.506111466736527, 54.709500767014362 ] } },
{ "type": "Feature", "properties": { "osmid": 254, "osmid_original": "460", "x": 20.497507, "y": 54.7100589, "cluster": null, "street_count": 1 }, "geometry": { "type": "Point", "coordinates": [ 20.497507, 54.7100589 ] } },
{ "type": "Feature", "properties": { "osmid": 222, "osmid_original": [ 375, 373, 374, 388, 376, 377 ], "x": 20.502115973072552, "y": 54.708731178431691, "cluster": 222.0, "street_count": 2 }, "geometry": { "type": "Point", "coordinates": [ 20.502115973072552, 54.708731178431691 ] } },
{ "type": "Feature", "properties": { "osmid": 237, "osmid_original": "408", "x": 20.5032711, "y": 54.7100769, "cluster": null, "street_count": 3 }, "geometry": { "type": "Point", "coordinates": [ 20.5032711, 54.7100769 ] } },
{ "type": "Feature", "properties": { "osmid": 220, "osmid_original": "239", "x": 20.5014008, "y": 54.7067242, "cluster": null, "street_count": 3 }, "geometry": { "type": "Point", "coordinates": [ 20.5014008, 54.7067242 ] } },
{ "type": "Feature", "properties": { "osmid": 226, "osmid_original": [ 247, 252 ], "x": 20.510842899883016, "y": 54.708907950012694, "cluster": 226.0, "street_count": 4 }, "geometry": { "type": "Point", "coordinates": [ 20.510842899883016, 54.708907950012694 ] } },
{ "type": "Feature", "properties": { "osmid": 185, "osmid_original": "194", "x": 20.5398867, "y": 54.7067981, "cluster": null, "street_count": 1 }, "geometry": { "type": "Point", "coordinates": [ 20.5398867, 54.7067981 ] } },
{ "type": "Feature", "properties": { "osmid": 231, "osmid_original": "598", "x": 20.5003944, "y": 54.6969132, "cluster": null, "street_count": 1 }, "geometry": { "type": "Point", "coordinates": [ 20.5003944, 54.6969132 ] } },
{ "type": "Feature", "properties": { "osmid": 192, "osmid_original": "508", "x": 20.4949161, "y": 54.6974394, "cluster": null, "street_count": 3 }, "geometry": { "type": "Point", "coordinates": [ 20.4949161, 54.697439399999986 ] } },
{ "type": "Feature", "properties": { "osmid": 262, "osmid_original": "366", "x": 20.5023909, "y": 54.699428, "cluster": null, "street_count": 1 }, "geometry": { "type": "Point", "coordinates": [ 20.5023909, 54.699428 ] } },
{ "type": "Feature", "properties": { "osmid": 198, "osmid_original": "321", "x": 20.5010349, "y": 54.6998094, "cluster": null, "street_count": 3 }, "geometry": { "type": "Point", "coordinates": [ 20.5010349, 54.6998094 ] } },
{ "type": "Feature", "properties": { "osmid": 261, "osmid_original": "363", "x": 20.5020993, "y": 54.6984076, "cluster": null, "street_count": 1 }, "geometry": { "type": "Point", "coordinates": [ 20.5020993, 54.6984076 ] } },
{ "type": "Feature", "properties": { "osmid": 190, "osmid_original": [ 206, 616 ], "x": 20.497500649893787, "y": 54.700538700228478, "cluster": 190.0, "street_count": 2 }, "geometry": { "type": "Point", "coordinates": [ 20.497500649893787, 54.700538700228478 ] } },
{ "type": "Feature", "properties": { "osmid": 265, "osmid_original": "389", "x": 20.4956407, "y": 54.6996228, "cluster": null, "street_count": 1 }, "geometry": { "type": "Point", "coordinates": [ 20.4956407, 54.6996228 ] } },
{ "type": "Feature", "properties": { "osmid": 196, "osmid_original": "209", "x": 20.5016793, "y": 54.7009753, "cluster": null, "street_count": 4 }, "geometry": { "type": "Point", "coordinates": [ 20.5016793, 54.7009753 ] } },
{ "type": "Feature", "properties": { "osmid": 191, "osmid_original": "207", "x": 20.4956117, "y": 54.6997259, "cluster": null, "street_count": 1 }, "geometry": { "type": "Point", "coordinates": [ 20.4956117, 54.6997259 ] } },
{ "type": "Feature", "properties": { "osmid": 193, "osmid_original": "208", "x": 20.4985534, "y": 54.7050673, "cluster": null, "street_count": 3 }, "geometry": { "type": "Point", "coordinates": [ 20.4985534, 54.7050673 ] } },
{ "type": "Feature", "properties": { "osmid": 281, "osmid_original": "485", "x": 20.4998092, "y": 54.7036172, "cluster": null, "street_count": 1 }, "geometry": { "type": "Point", "coordinates": [ 20.4998092, 54.7036172 ] } },
{ "type": "Feature", "properties": { "osmid": 253, "osmid_original": "471", "x": 20.4998055, "y": 54.6990215, "cluster": null, "street_count": 1 }, "geometry": { "type": "Point", "coordinates": [ 20.4998055, 54.6990215 ] } },
{ "type": "Feature", "properties": { "osmid": 209, "osmid_original": "225", "x": 20.4872655, "y": 54.7036652, "cluster": null, "street_count": 1 }, "geometry": { "type": "Point", "coordinates": [ 20.4872655, 54.7036652 ] } },
{ "type": "Feature", "properties": { "osmid": 205, "osmid_original": "602", "x": 20.5243721, "y": 54.7103294, "cluster": null, "street_count": 3 }, "geometry": { "type": "Point", "coordinates": [ 20.5243721, 54.7103294 ] } },
{ "type": "Feature", "properties": { "osmid": 203, "osmid_original": "345", "x": 20.5342181, "y": 54.7104924, "cluster": null, "street_count": 1 }, "geometry": { "type": "Point", "coordinates": [ 20.5342181, 54.7104924 ] } },
{ "type": "Feature", "properties": { "osmid": 252, "osmid_original": "315", "x": 20.5237027, "y": 54.7097691, "cluster": null, "street_count": 1 }, "geometry": { "type": "Point", "coordinates": [ 20.5237027, 54.7097691 ] } },
{ "type": "Feature", "properties": { "osmid": 288, "osmid_original": [ 606, 613 ], "x": 20.493881050282251, "y": 54.714053200245637, "cluster": 288.0, "street_count": 2 }, "geometry": { "type": "Point", "coordinates": [ 20.493881050282251, 54.714053200245637 ] } },
{ "type": "Feature", "properties": { "osmid": 213, "osmid_original": "234", "x": 20.5384493, "y": 54.7180791, "cluster": null, "street_count": 1 }, "geometry": { "type": "Point", "coordinates": [ 20.5384493, 54.7180791 ] } },
{ "type": "Feature", "properties": { "osmid": 214, "osmid_original": "235", "x": 20.5392972, "y": 54.7173052, "cluster": null, "street_count": 2 }, "geometry": { "type": "Point", "coordinates": [ 20.5392972, 54.717305199999984 ] } },
{ "type": "Feature", "properties": { "osmid": 215, "osmid_original": "457", "x": 20.5377729, "y": 54.7165879, "cluster": null, "street_count": 3 }, "geometry": { "type": "Point", "coordinates": [ 20.5377729, 54.7165879 ] } },
{ "type": "Feature", "properties": { "osmid": 275, "osmid_original": "504", "x": 20.5367249, "y": 54.7157528, "cluster": null, "street_count": 1 }, "geometry": { "type": "Point", "coordinates": [ 20.5367249, 54.7157528 ] } },
{ "type": "Feature", "properties": { "osmid": 268, "osmid_original": "446", "x": 20.5393304, "y": 54.7155584, "cluster": null, "street_count": 2 }, "geometry": { "type": "Point", "coordinates": [ 20.5393304, 54.7155584 ] } },
{ "type": "Feature", "properties": { "osmid": 216, "osmid_original": "236", "x": 20.4945043, "y": 54.7072555, "cluster": null, "street_count": 3 }, "geometry": { "type": "Point", "coordinates": [ 20.4945043, 54.7072555 ] } },
{ "type": "Feature", "properties": { "osmid": 218, "osmid_original": [ 587, 353, 355, 588, 590, 589 ], "x": 20.496428701149224, "y": 54.707377848884057, "cluster": 218.0, "street_count": 4 }, "geometry": { "type": "Point", "coordinates": [ 20.496428701149224, 54.707377848884057 ] } },
{ "type": "Feature", "properties": { "osmid": 219, "osmid_original": [ 306, 305 ], "x": 20.498632799865167, "y": 54.707965600049207, "cluster": 219.0, "street_count": 4 }, "geometry": { "type": "Point", "coordinates": [ 20.498632799865167, 54.707965600049207 ] } },
{ "type": "Feature", "properties": { "osmid": 221, "osmid_original": [ 240, 304, 354 ], "x": 20.499014349829118, "y": 54.707062827680275, "cluster": 221.0, "street_count": 5 }, "geometry": { "type": "Point", "coordinates": [ 20.499014349829118, 54.707062827680275 ] } },
{ "type": "Feature", "properties": { "osmid": 248, "osmid_original": [ 591, 592 ], "x": 20.497070850167265, "y": 54.708436300023209, "cluster": 248.0, "street_count": 2 }, "geometry": { "type": "Point", "coordinates": [ 20.497070850167265, 54.708436300023209 ] } },
{ "type": "Feature", "properties": { "osmid": 249, "osmid_original": "593", "x": 20.4995081, "y": 54.7084346, "cluster": null, "street_count": 1 }, "geometry": { "type": "Point", "coordinates": [ 20.4995081, 54.7084346 ] } },
{ "type": "Feature", "properties": { "osmid": 223, "osmid_original": "244", "x": 20.4997859, "y": 54.707965, "cluster": null, "street_count": 1 }, "geometry": { "type": "Point", "coordinates": [ 20.4997859, 54.707965 ] } },
{ "type": "Feature", "properties": { "osmid": 234, "osmid_original": "277", "x": 20.5237522, "y": 54.7036016, "cluster": null, "street_count": 3 }, "geometry": { "type": "Point", "coordinates": [ 20.5237522, 54.7036016 ] } },
{ "type": "Feature", "properties": { "osmid": 235, "osmid_original": "451", "x": 20.5236843, "y": 54.7065394, "cluster": null, "street_count": 3 }, "geometry": { "type": "Point", "coordinates": [ 20.5236843, 54.7065394 ] } },
{ "type": "Feature", "properties": { "osmid": 236, "osmid_original": "447", "x": 20.5281069, "y": 54.7044469, "cluster": null, "street_count": 3 }, "geometry": { "type": "Point", "coordinates": [ 20.5281069, 54.7044469 ] } },
{ "type": "Feature", "properties": { "osmid": 269, "osmid_original": [ 477, 475, 476, 478 ], "x": 20.535151935689594, "y": 54.70315139760136, "cluster": 269.0, "street_count": 3 }, "geometry": { "type": "Point", "coordinates": [ 20.535151935689594, 54.70315139760136 ] } },
{ "type": "Feature", "properties": { "osmid": 241, "osmid_original": "360", "x": 20.499213, "y": 54.6969452, "cluster": null, "street_count": 1 }, "geometry": { "type": "Point", "coordinates": [ 20.499213, 54.6969452 ] } },
{ "type": "Feature", "properties": { "osmid": 242, "osmid_original": "291", "x": 20.5175632, "y": 54.6971877, "cluster": null, "street_count": 3 }, "geometry": { "type": "Point", "coordinates": [ 20.5175632, 54.6971877 ] } },
{ "type": "Feature", "properties": { "osmid": 251, "osmid_original": "314", "x": 20.5228078, "y": 54.7102786, "cluster": null, "street_count": 3 }, "geometry": { "type": "Point", "coordinates": [ 20.5228078, 54.7102786 ] } },
{ "type": "Feature", "properties": { "osmid": 250, "osmid_original": "456", "x": 20.5226582, "y": 54.7019101, "cluster": null, "street_count": 3 }, "geometry": { "type": "Point", "coordinates": [ 20.5226582, 54.7019101 ] } },
{ "type": "Feature", "properties": { "osmid": 279, "osmid_original": "474", "x": 20.5374808, "y": 54.702205, "cluster": null, "street_count": 2 }, "geometry": { "type": "Point", "coordinates": [ 20.5374808, 54.702205 ] } },
{ "type": "Feature", "properties": { "osmid": 270, "osmid_original": "448", "x": 20.5281922, "y": 54.7045951, "cluster": null, "street_count": 3 }, "geometry": { "type": "Point", "coordinates": [ 20.5281922, 54.7045951 ] } },
{ "type": "Feature", "properties": { "osmid": 280, "osmid_original": "496", "x": 20.5366435, "y": 54.7013279, "cluster": null, "street_count": 3 }, "geometry": { "type": "Point", "coordinates": [ 20.5366435, 54.7013279 ] } },
{ "type": "Feature", "properties": { "osmid": 286, "osmid_original": "492", "x": 20.5378277, "y": 54.6993846, "cluster": null, "street_count": 2 }, "geometry": { "type": "Point", "coordinates": [ 20.5378277, 54.6993846 ] } },
{ "type": "Feature", "properties": { "osmid": 274, "osmid_original": "494", "x": 20.5240074, "y": 54.6981831, "cluster": null, "street_count": 3 }, "geometry": { "type": "Point", "coordinates": [ 20.5240074, 54.6981831 ] } },
{ "type": "Feature", "properties": { "osmid": 284, "osmid_original": "491", "x": 20.5281955, "y": 54.6969814, "cluster": null, "street_count": 3 }, "geometry": { "type": "Point", "coordinates": [ 20.5281955, 54.6969814 ] } },
{ "type": "Feature", "properties": { "osmid": 287, "osmid_original": "497", "x": 20.5392719, "y": 54.7003039, "cluster": null, "street_count": 2 }, "geometry": { "type": "Point", "coordinates": [ 20.5392719, 54.7003039 ] } },
{ "type": "Feature", "properties": { "osmid": 285, "osmid_original": "511", "x": 20.5387968, "y": 54.6957952, "cluster": null, "street_count": 1 }, "geometry": { "type": "Point", "coordinates": [ 20.5387968, 54.6957952 ] } },
{ "type": "Feature", "properties": { "osmid": 289, "osmid_original": "620", "x": 20.4869778, "y": 54.7135646, "cluster": null, "street_count": 1 }, "geometry": { "type": "Point", "coordinates": [ 20.4869778, 54.7135646 ] } }
]
}
