{"type": "FeatureCollection", "features": [{"type": "Feature", "properties": {"osmid": 0}, "geometry": {"type": "Point", "coordinates": [-0.02489524995520161, 51.47478155872712]}}, {"type": "Feature", "properties": {"osmid": 1}, "geometry": {"type": "Point", "coordinates": [-0.022796900000000668, 51.47629220000001]}}, {"type": "Feature", "properties": {"osmid": 2}, "geometry": {"type": "Point", "coordinates": [-0.02347189999999994, 51.47285190000001]}}, {"type": "Feature", "properties": {"osmid": 3}, "geometry": {"type": "Point", "coordinates": [-0.028440199623977574, 51.475300850404054]}}, {"type": "Feature", "properties": {"osmid": 4}, "geometry": {"type": "Point", "coordinates": [-0.02153250685328003, 51.47420511807805]}}, {"type": "Feature", "properties": {"osmid": 5}, "geometry": {"type": "Point", "coordinates": [-0.03477308733292156, 51.51250546555758]}}, {"type": "Feature", "properties": {"osmid": 6}, "geometry": {"type": "Point", "coordinates": [-0.03753420000000098, 51.512646700000005]}}, {"type": "Feature", "properties": {"osmid": 7}, "geometry": {"type": "Point", "coordinates": [-0.03186026486609281, 51.51236859193987]}}, {"type": "Feature", "properties": {"osmid": 8}, "geometry": {"type": "Point", "coordinates": [-0.04687990073448422, 51.50993875061621]}}, {"type": "Feature", "properties": {"osmid": 9}, "geometry": {"type": "Point", "coordinates": [-0.04815059999999907, 51.50978880000001]}}, {"type": "Feature", "properties": {"osmid": 10}, "geometry": {"type": "Point", "coordinates": [-0.04353308509494496, 51.51045813852447]}}, {"type": "Feature", "properties": {"osmid": 11}, "geometry": {"type": "Point", "coordinates": [-0.05058858002302059, 51.509768269947536]}}, {"type": "Feature", "properties": {"osmid": 12}, "geometry": {"type": "Point", "coordinates": [0.007958100000000173, 51.47908799999999]}}, {"type": "Feature", "properties": {"osmid": 13}, "geometry": {"type": "Point", "coordinates": [0.008076600000000782, 51.4799589]}}, {"type": "Feature", "properties": {"osmid": 14}, "geometry": {"type": "Point", "coordinates": [0.008136700214712207, 51.47690810004344]}}, {"type": "Feature", "properties": {"osmid": 15}, "geometry": {"type": "Point", "coordinates": [0.008402872127515563, 51.48237711904701]}}, {"type": "Feature", "properties": {"osmid": 16}, "geometry": {"type": "Point", "coordinates": [0.005992199999998523, 51.47886609999999]}}, {"type": "Feature", "properties": {"osmid": 17}, "geometry": {"type": "Point", "coordinates": [0.009957316328070247, 51.47518408400468]}}, {"type": "Feature", "properties": {"osmid": 18}, "geometry": {"type": "Point", "coordinates": [-0.0326943131665852, 51.473044345458014]}}, {"type": "Feature", "properties": {"osmid": 19}, "geometry": {"type": "Point", "coordinates": [-0.03139349999999971, 51.4722613]}}, {"type": "Feature", "properties": {"osmid": 20}, "geometry": {"type": "Point", "coordinates": [-0.03383224998722957, 51.47396815000282]}}, {"type": "Feature", "properties": {"osmid": 21}, "geometry": {"type": "Point", "coordinates": [-0.03416339999999943, 51.4721876]}}, {"type": "Feature", "properties": {"osmid": 22}, "geometry": {"type": "Point", "coordinates": [-0.0299529000000017, 51.4737131]}}, {"type": "Feature", "properties": {"osmid": 23}, "geometry": {"type": "Point", "coordinates": [-0.03239710000000045, 51.471585]}}, {"type": "Feature", "properties": {"osmid": 24}, "geometry": {"type": "Point", "coordinates": [-0.030093433700397496, 51.47132976455258]}}, {"type": "Feature", "properties": {"osmid": 25}, "geometry": {"type": "Point", "coordinates": [0.004861999999999104, 51.479923199999995]}}, {"type": "Feature", "properties": {"osmid": 26}, "geometry": {"type": "Point", "coordinates": [0.0031328999999993955, 51.4810413]}}, {"type": "Feature", "properties": {"osmid": 27}, "geometry": {"type": "Point", "coordinates": [-0.026029750014942805, 51.50028475000367]}}, {"type": "Feature", "properties": {"osmid": 28}, "geometry": {"type": "Point", "coordinates": [-0.025966850159663622, 51.50137655000948]}}, {"type": "Feature", "properties": {"osmid": 29}, "geometry": {"type": "Point", "coordinates": [-0.02596759999999996, 51.4992128]}}, {"type": "Feature", "properties": {"osmid": 30}, "geometry": {"type": "Point", "coordinates": [-0.025528447356070474, 51.5039203038408]}}, {"type": "Feature", "properties": {"osmid": 31}, "geometry": {"type": "Point", "coordinates": [0.008206431430563666, 51.51585418308194]}}, {"type": "Feature", "properties": {"osmid": 32}, "geometry": {"type": "Point", "coordinates": [0.008547799999999389, 51.514913400000005]}}, {"type": "Feature", "properties": {"osmid": 33}, "geometry": {"type": "Point", "coordinates": [0.0005183327537478993, 51.51293167097594]}}, {"type": "Feature", "properties": {"osmid": 34}, "geometry": {"type": "Point", "coordinates": [0.010794200000000122, 51.516982199999994]}}, {"type": "Feature", "properties": {"osmid": 35}, "geometry": {"type": "Point", "coordinates": [0.00449159999999863, 51.52072819999999]}}, {"type": "Feature", "properties": {"osmid": 36}, "geometry": {"type": "Point", "coordinates": [0.010355899999999372, 51.51269310000001]}}, {"type": "Feature", "properties": {"osmid": 37}, "geometry": {"type": "Point", "coordinates": [-0.03901851884806297, 51.512251388593604]}}, {"type": "Feature", "properties": {"osmid": 38}, "geometry": {"type": "Point", "coordinates": [-0.009013568467858377, 51.51146601230629]}}, {"type": "Feature", "properties": {"osmid": 39}, "geometry": {"type": "Point", "coordinates": [-0.010223300000000816, 51.50993810000001]}}, {"type": "Feature", "properties": {"osmid": 40}, "geometry": {"type": "Point", "coordinates": [-0.01246649999999955, 51.5112297]}}, {"type": "Feature", "properties": {"osmid": 41}, "geometry": {"type": "Point", "coordinates": [-0.008052100316466505, 51.513205950049475]}}, {"type": "Feature", "properties": {"osmid": 42}, "geometry": {"type": "Point", "coordinates": [-0.006907700000000533, 51.5099462]}}, {"type": "Feature", "properties": {"osmid": 43}, "geometry": {"type": "Point", "coordinates": [-0.008278749853512334, 51.512851350019716]}}, {"type": "Feature", "properties": {"osmid": 44}, "geometry": {"type": "Point", "coordinates": [0.017431299999999924, 51.4891326]}}, {"type": "Feature", "properties": {"osmid": 45}, "geometry": {"type": "Point", "coordinates": [0.018188307711219643, 51.49046204551625]}}, {"type": "Feature", "properties": {"osmid": 46}, "geometry": {"type": "Point", "coordinates": [0.012699999999998463, 51.49124729999999]}}, {"type": "Feature", "properties": {"osmid": 47}, "geometry": {"type": "Point", "coordinates": [0.017608100000000383, 51.4891209]}}, {"type": "Feature", "properties": {"osmid": 48}, "geometry": {"type": "Point", "coordinates": [-0.03297590000000054, 51.4844466]}}, {"type": "Feature", "properties": {"osmid": 49}, "geometry": {"type": "Point", "coordinates": [-0.03191980012296198, 51.483993050027586]}}, {"type": "Feature", "properties": {"osmid": 50}, "geometry": {"type": "Point", "coordinates": [-0.03479199999999916, 51.48584590000001]}}, {"type": "Feature", "properties": {"osmid": 51}, "geometry": {"type": "Point", "coordinates": [-0.03082509999999956, 51.483342300000004]}}, {"type": "Feature", "properties": {"osmid": 52}, "geometry": {"type": "Point", "coordinates": [-0.03176550000000079, 51.4857007]}}, {"type": "Feature", "properties": {"osmid": 53}, "geometry": {"type": "Point", "coordinates": [-0.0361566000000008, 51.486785700000006]}}, {"type": "Feature", "properties": {"osmid": 54}, "geometry": {"type": "Point", "coordinates": [0.01211279999999959, 51.517564799999995]}}, {"type": "Feature", "properties": {"osmid": 55}, "geometry": {"type": "Point", "coordinates": [-0.05831069999999959, 51.5096588]}}, {"type": "Feature", "properties": {"osmid": 56}, "geometry": {"type": "Point", "coordinates": [-0.05525230000000017, 51.50962809999999]}}, {"type": "Feature", "properties": {"osmid": 57}, "geometry": {"type": "Point", "coordinates": [-0.053455900000000015, 51.5096715]}}, {"type": "Feature", "properties": {"osmid": 58}, "geometry": {"type": "Point", "coordinates": [-0.05489555675864029, 51.50729012928777]}}, {"type": "Feature", "properties": {"osmid": 59}, "geometry": {"type": "Point", "coordinates": [0.01874299999999978, 51.5095704]}}, {"type": "Feature", "properties": {"osmid": 60}, "geometry": {"type": "Point", "coordinates": [0.014587100000000708, 51.5091521]}}, {"type": "Feature", "properties": {"osmid": 61}, "geometry": {"type": "Point", "coordinates": [0.01345909999999973, 51.509307299999996]}}, {"type": "Feature", "properties": {"osmid": 62}, "geometry": {"type": "Point", "coordinates": [-0.05741108564917605, 51.517416094471784]}}, {"type": "Feature", "properties": {"osmid": 63}, "geometry": {"type": "Point", "coordinates": [-0.05753499999999964, 51.5188065]}}, {"type": "Feature", "properties": {"osmid": 64}, "geometry": {"type": "Point", "coordinates": [-0.0571425499784628, 51.516200850001454]}}, {"type": "Feature", "properties": {"osmid": 65}, "geometry": {"type": "Point", "coordinates": [-0.055200123007725484, 51.517058655498424]}}, {"type": "Feature", "properties": {"osmid": 66}, "geometry": {"type": "Point", "coordinates": [0.01768756527394965, 51.48637775249613]}}, {"type": "Feature", "properties": {"osmid": 67}, "geometry": {"type": "Point", "coordinates": [0.017346231024327783, 51.48829562253822]}}, {"type": "Feature", "properties": {"osmid": 68}, "geometry": {"type": "Point", "coordinates": [0.017259399999999914, 51.48585479999999]}}, {"type": "Feature", "properties": {"osmid": 69}, "geometry": {"type": "Point", "coordinates": [0.01517314999816526, 51.48610880000187]}}, {"type": "Feature", "properties": {"osmid": 70}, "geometry": {"type": "Point", "coordinates": [0.013434900000000572, 51.488667]}}, {"type": "Feature", "properties": {"osmid": 71}, "geometry": {"type": "Point", "coordinates": [-0.04173020000000022, 51.5069086]}}, {"type": "Feature", "properties": {"osmid": 72}, "geometry": {"type": "Point", "coordinates": [-0.03741624994068592, 51.506711550068644]}}, {"type": "Feature", "properties": {"osmid": 73}, "geometry": {"type": "Point", "coordinates": [-0.042938150118076245, 51.50666400008001]}}, {"type": "Feature", "properties": {"osmid": 74}, "geometry": {"type": "Point", "coordinates": [-0.03608519999999941, 51.506499299999994]}}, {"type": "Feature", "properties": {"osmid": 75}, "geometry": {"type": "Point", "coordinates": [-0.044217750528742224, 51.50625400017204]}}, {"type": "Feature", "properties": {"osmid": 76}, "geometry": {"type": "Point", "coordinates": [-0.04091725034249652, 51.47475455020629]}}, {"type": "Feature", "properties": {"osmid": 77}, "geometry": {"type": "Point", "coordinates": [-0.042536465141201144, 51.47440547872672]}}, {"type": "Feature", "properties": {"osmid": 78}, "geometry": {"type": "Point", "coordinates": [-0.03898855000626022, 51.475232750004935]}}, {"type": "Feature", "properties": {"osmid": 79}, "geometry": {"type": "Point", "coordinates": [-0.04586405313340102, 51.47432828911795]}}, {"type": "Feature", "properties": {"osmid": 80}, "geometry": {"type": "Point", "coordinates": [-0.05326127774012157, 51.514382860283]}}, {"type": "Feature", "properties": {"osmid": 81}, "geometry": {"type": "Point", "coordinates": [-0.053129199999998274, 51.515590200000005]}}, {"type": "Feature", "properties": {"osmid": 82}, "geometry": {"type": "Point", "coordinates": [-0.050856708871387046, 51.51387198999701]}}, {"type": "Feature", "properties": {"osmid": 83}, "geometry": {"type": "Point", "coordinates": [-0.05553059179142213, 51.51432925137122]}}, {"type": "Feature", "properties": {"osmid": 84}, "geometry": {"type": "Point", "coordinates": [-0.05300931976997478, 51.51673511978571]}}, {"type": "Feature", "properties": {"osmid": 85}, "geometry": {"type": "Point", "coordinates": [-0.007393531754477299, 51.50487374138395]}}, {"type": "Feature", "properties": {"osmid": 86}, "geometry": {"type": "Point", "coordinates": [-0.007960699999999958, 51.50363999999999]}}, {"type": "Feature", "properties": {"osmid": 87}, "geometry": {"type": "Point", "coordinates": [-0.008584207246863578, 51.507837784027046]}}, {"type": "Feature", "properties": {"osmid": 88}, "geometry": {"type": "Point", "coordinates": [-0.0512173499670991, 51.47745790001585]}}, {"type": "Feature", "properties": {"osmid": 89}, "geometry": {"type": "Point", "coordinates": [-0.052535900279489345, 51.47795303394874]}}, {"type": "Feature", "properties": {"osmid": 90}, "geometry": {"type": "Point", "coordinates": [-0.04921710000000099, 51.4766412]}}, {"type": "Feature", "properties": {"osmid": 91}, "geometry": {"type": "Point", "coordinates": [-0.05449509690261068, 51.4789213041585]}}, {"type": "Feature", "properties": {"osmid": 92}, "geometry": {"type": "Point", "coordinates": [-0.05270279999999941, 51.4766344]}}, {"type": "Feature", "properties": {"osmid": 93}, "geometry": {"type": "Point", "coordinates": [-0.032564100000000006, 51.5095247]}}, {"type": "Feature", "properties": {"osmid": 94}, "geometry": {"type": "Point", "coordinates": [-0.04382033294186284, 51.511554582487]}}, {"type": "Feature", "properties": {"osmid": 95}, "geometry": {"type": "Point", "coordinates": [-0.01282438378235595, 51.504263783227934]}}, {"type": "Feature", "properties": {"osmid": 96}, "geometry": {"type": "Point", "coordinates": [-0.010191403837633978, 51.50676752373009]}}, {"type": "Feature", "properties": {"osmid": 97}, "geometry": {"type": "Point", "coordinates": [-0.014152900000000902, 51.49530550000001]}}, {"type": "Feature", "properties": {"osmid": 98}, "geometry": {"type": "Point", "coordinates": [-0.014119499999999877, 51.49608659999999]}}, {"type": "Feature", "properties": {"osmid": 99}, "geometry": {"type": "Point", "coordinates": [-0.014342649876397051, 51.48980205015133]}}, {"type": "Feature", "properties": {"osmid": 100}, "geometry": {"type": "Point", "coordinates": [-0.01354954494112028, 51.49686251685733]}}, {"type": "Feature", "properties": {"osmid": 101}, "geometry": {"type": "Point", "coordinates": [-0.013921199999999884, 51.48916489999999]}}, {"type": "Feature", "properties": {"osmid": 102}, "geometry": {"type": "Point", "coordinates": [-0.015245300000000425, 51.490475]}}, {"type": "Feature", "properties": {"osmid": 103}, "geometry": {"type": "Point", "coordinates": [-0.017673650005165097, 51.478050650000384]}}, {"type": "Feature", "properties": {"osmid": 104}, "geometry": {"type": "Point", "coordinates": [-0.016667411375464566, 51.47673389624724]}}, {"type": "Feature", "properties": {"osmid": 105}, "geometry": {"type": "Point", "coordinates": [-0.017168400000000698, 51.4793452]}}, {"type": "Feature", "properties": {"osmid": 106}, "geometry": {"type": "Point", "coordinates": [-0.014103600000000858, 51.47751689999999]}}, {"type": "Feature", "properties": {"osmid": 107}, "geometry": {"type": "Point", "coordinates": [-0.018797700000000264, 51.47590019999999]}}, {"type": "Feature", "properties": {"osmid": 108}, "geometry": {"type": "Point", "coordinates": [-0.05175570000000143, 51.49586649999999]}}, {"type": "Feature", "properties": {"osmid": 109}, "geometry": {"type": "Point", "coordinates": [-0.05092439999342983, 51.4952313000016]}}, {"type": "Feature", "properties": {"osmid": 110}, "geometry": {"type": "Point", "coordinates": [-0.05245096806101041, 51.49649407836999]}}, {"type": "Feature", "properties": {"osmid": 111}, "geometry": {"type": "Point", "coordinates": [-0.04985820000000044, 51.49447789999999]}}, {"type": "Feature", "properties": {"osmid": 112}, "geometry": {"type": "Point", "coordinates": [-0.054995070182472114, 51.49870421129716]}}, {"type": "Feature", "properties": {"osmid": 113}, "geometry": {"type": "Point", "coordinates": [-0.04982780000000134, 51.49743569999998]}}, {"type": "Feature", "properties": {"osmid": 114}, "geometry": {"type": "Point", "coordinates": [-0.01561960000000018, 51.480729]}}, {"type": "Feature", "properties": {"osmid": 115}, "geometry": {"type": "Point", "coordinates": [-0.04329430000000112, 51.492088]}}, {"type": "Feature", "properties": {"osmid": 116}, "geometry": {"type": "Point", "coordinates": [-0.04204550000000165, 51.4923732]}}, {"type": "Feature", "properties": {"osmid": 117}, "geometry": {"type": "Point", "coordinates": [-0.045845502026984127, 51.49239933731716]}}, {"type": "Feature", "properties": {"osmid": 118}, "geometry": {"type": "Point", "coordinates": [-0.040469000000001254, 51.49275519999998]}}, {"type": "Feature", "properties": {"osmid": 119}, "geometry": {"type": "Point", "coordinates": [-0.04537970000000097, 51.4938158]}}, {"type": "Feature", "properties": {"osmid": 120}, "geometry": {"type": "Point", "coordinates": [-0.04711930230351082, 51.491768971808725]}}, {"type": "Feature", "properties": {"osmid": 121}, "geometry": {"type": "Point", "coordinates": [-0.04353720000000078, 51.49097499999999]}}, {"type": "Feature", "properties": {"osmid": 122}, "geometry": {"type": "Point", "coordinates": [-0.014843500072918268, 51.48128965000483]}}, {"type": "Feature", "properties": {"osmid": 123}, "geometry": {"type": "Point", "coordinates": [-0.04159111058639338, 51.48124934506642]}}, {"type": "Feature", "properties": {"osmid": 124}, "geometry": {"type": "Point", "coordinates": [-0.04182879999999991, 51.482301599999985]}}, {"type": "Feature", "properties": {"osmid": 125}, "geometry": {"type": "Point", "coordinates": [-0.041023000000001565, 51.4800107]}}, {"type": "Feature", "properties": {"osmid": 126}, "geometry": {"type": "Point", "coordinates": [-0.041480900000000535, 51.4832523]}}, {"type": "Feature", "properties": {"osmid": 127}, "geometry": {"type": "Point", "coordinates": [-0.0403073000000019, 51.4790199]}}, {"type": "Feature", "properties": {"osmid": 128}, "geometry": {"type": "Point", "coordinates": [-0.03969930000000157, 51.47858289999999]}}, {"type": "Feature", "properties": {"osmid": 129}, "geometry": {"type": "Point", "coordinates": [-0.03885169999999944, 51.49283979999999]}}, {"type": "Feature", "properties": {"osmid": 130}, "geometry": {"type": "Point", "coordinates": [-0.028478228754823778, 51.5119687624007]}}, {"type": "Feature", "properties": {"osmid": 131}, "geometry": {"type": "Point", "coordinates": [-0.025672611096054787, 51.511493792104446]}}, {"type": "Feature", "properties": {"osmid": 132}, "geometry": {"type": "Point", "coordinates": [-0.02675656915025712, 51.50891367829479]}}, {"type": "Feature", "properties": {"osmid": 133}, "geometry": {"type": "Point", "coordinates": [-0.027765200000001364, 51.5134265]}}, {"type": "Feature", "properties": {"osmid": 134}, "geometry": {"type": "Point", "coordinates": [-0.031241972641613096, 51.48030481415256]}}, {"type": "Feature", "properties": {"osmid": 135}, "geometry": {"type": "Point", "coordinates": [-0.02755149999999956, 51.48091619999999]}}, {"type": "Feature", "properties": {"osmid": 136}, "geometry": {"type": "Point", "coordinates": [-0.0337925005771138, 51.479535600327004]}}, {"type": "Feature", "properties": {"osmid": 137}, "geometry": {"type": "Point", "coordinates": [-0.023957180822213087, 51.508815235650204]}}, {"type": "Feature", "properties": {"osmid": 138}, "geometry": {"type": "Point", "coordinates": [-0.03340070000000039, 51.510424799999996]}}, {"type": "Feature", "properties": {"osmid": 139}, "geometry": {"type": "Point", "coordinates": [-0.028719600000000303, 51.5093088]}}, {"type": "Feature", "properties": {"osmid": 140}, "geometry": {"type": "Point", "coordinates": [-0.02667663926939274, 51.50583138079763]}}, {"type": "Feature", "properties": {"osmid": 141}, "geometry": {"type": "Point", "coordinates": [-0.02661611712286023, 51.50580060946932]}}, {"type": "Feature", "properties": {"osmid": 142}, "geometry": {"type": "Point", "coordinates": [0.01627869999999964, 51.508335300000006]}}, {"type": "Feature", "properties": {"osmid": 143}, "geometry": {"type": "Point", "coordinates": [0.01325529976482845, 51.50837400361708]}}, {"type": "Feature", "properties": {"osmid": 144}, "geometry": {"type": "Point", "coordinates": [0.01430599999999941, 51.5080501]}}, {"type": "Feature", "properties": {"osmid": 145}, "geometry": {"type": "Point", "coordinates": [0.002162100000001051, 51.5102072]}}, {"type": "Feature", "properties": {"osmid": 146}, "geometry": {"type": "Point", "coordinates": [0.015906950014822528, 51.50616115000124]}}, {"type": "Feature", "properties": {"osmid": 147}, "geometry": {"type": "Point", "coordinates": [0.004426300000000126, 51.49533250000001]}}, {"type": "Feature", "properties": {"osmid": 148}, "geometry": {"type": "Point", "coordinates": [0.011390626851298633, 51.511483556688965]}}, {"type": "Feature", "properties": {"osmid": 149}, "geometry": {"type": "Point", "coordinates": [0.008864487705949288, 51.49121045763539]}}, {"type": "Feature", "properties": {"osmid": 150}, "geometry": {"type": "Point", "coordinates": [0.008403909176760163, 51.48895879491674]}}, {"type": "Feature", "properties": {"osmid": 151}, "geometry": {"type": "Point", "coordinates": [0.006565799999998645, 51.4935597]}}, {"type": "Feature", "properties": {"osmid": 152}, "geometry": {"type": "Point", "coordinates": [0.00964965738862868, 51.49324369511758]}}, {"type": "Feature", "properties": {"osmid": 153}, "geometry": {"type": "Point", "coordinates": [0.011025199999999883, 51.49035270000001]}}, {"type": "Feature", "properties": {"osmid": 154}, "geometry": {"type": "Point", "coordinates": [0.0006468844057933162, 51.50073706290839]}}, {"type": "Feature", "properties": {"osmid": 155}, "geometry": {"type": "Point", "coordinates": [0.002220347377665252, 51.50078822023202]}}, {"type": "Feature", "properties": {"osmid": 156}, "geometry": {"type": "Point", "coordinates": [0.0023183184460838103, 51.49627704630313]}}, {"type": "Feature", "properties": {"osmid": 157}, "geometry": {"type": "Point", "coordinates": [-0.008063488199197142, 51.48120378575923]}}, {"type": "Feature", "properties": {"osmid": 158}, "geometry": {"type": "Point", "coordinates": [-0.010014964873328966, 51.4810112065232]}}, {"type": "Feature", "properties": {"osmid": 159}, "geometry": {"type": "Point", "coordinates": [-0.0031209000000008485, 51.48285709999999]}}, {"type": "Feature", "properties": {"osmid": 160}, "geometry": {"type": "Point", "coordinates": [0.011540910269399513, 51.49201924523384]}}, {"type": "Feature", "properties": {"osmid": 161}, "geometry": {"type": "Point", "coordinates": [0.008893999999999116, 51.4940754]}}, {"type": "Feature", "properties": {"osmid": 162}, "geometry": {"type": "Point", "coordinates": [-0.010829500000000866, 51.47867480000001]}}, {"type": "Feature", "properties": {"osmid": 163}, "geometry": {"type": "Point", "coordinates": [-0.01347260000000063, 51.48144529999998]}}, {"type": "Feature", "properties": {"osmid": 164}, "geometry": {"type": "Point", "coordinates": [-0.002298899999999992, 51.48310679999999]}}, {"type": "Feature", "properties": {"osmid": 165}, "geometry": {"type": "Point", "coordinates": [-0.0564545389290435, 51.51974068460216]}}, {"type": "Feature", "properties": {"osmid": 166}, "geometry": {"type": "Point", "coordinates": [-0.05618120000000046, 51.5209607]}}, {"type": "Feature", "properties": {"osmid": 167}, "geometry": {"type": "Point", "coordinates": [-0.05555370000000016, 51.51861139999999]}}, {"type": "Feature", "properties": {"osmid": 168}, "geometry": {"type": "Point", "coordinates": [-0.05192215023900247, 51.520682100235014]}}, {"type": "Feature", "properties": {"osmid": 169}, "geometry": {"type": "Point", "coordinates": [0.01768894962837948, 51.52004694084119]}}, {"type": "Feature", "properties": {"osmid": 170}, "geometry": {"type": "Point", "coordinates": [0.014257099999999913, 51.5185213]}}, {"type": "Feature", "properties": {"osmid": 171}, "geometry": {"type": "Point", "coordinates": [0.013511851889539286, 51.518074827818516]}}, {"type": "Feature", "properties": {"osmid": 172}, "geometry": {"type": "Point", "coordinates": [-0.04703421178189814, 51.475489253491645]}}, {"type": "Feature", "properties": {"osmid": 173}, "geometry": {"type": "Point", "coordinates": [-0.04761129999999932, 51.474020900000006]}}, {"type": "Feature", "properties": {"osmid": 174}, "geometry": {"type": "Point", "coordinates": [-0.04506099996255121, 51.47204640000234]}}, {"type": "Feature", "properties": {"osmid": 175}, "geometry": {"type": "Point", "coordinates": [-0.04803350000000058, 51.47611319999999]}}, {"type": "Feature", "properties": {"osmid": 176}, "geometry": {"type": "Point", "coordinates": [-0.008510611026239345, 51.50254900684738]}}, {"type": "Feature", "properties": {"osmid": 177}, "geometry": {"type": "Point", "coordinates": [-0.008824600000000462, 51.50088219999999]}}, {"type": "Feature", "properties": {"osmid": 178}, "geometry": {"type": "Point", "coordinates": [-0.009371397088034467, 51.49958365314117]}}, {"type": "Feature", "properties": {"osmid": 179}, "geometry": {"type": "Point", "coordinates": [-0.030356147286190835, 51.51843244988882]}}, {"type": "Feature", "properties": {"osmid": 180}, "geometry": {"type": "Point", "coordinates": [-0.031692899999999344, 51.5201314]}}, {"type": "Feature", "properties": {"osmid": 181}, "geometry": {"type": "Point", "coordinates": [-0.02986536172034072, 51.51723450826204]}}, {"type": "Feature", "properties": {"osmid": 182}, "geometry": {"type": "Point", "coordinates": [-0.01877010000000261, 51.507559699999995]}}, {"type": "Feature", "properties": {"osmid": 183}, "geometry": {"type": "Point", "coordinates": [-0.020965699919575854, 51.50800530008939]}}, {"type": "Feature", "properties": {"osmid": 184}, "geometry": {"type": "Point", "coordinates": [-0.009496607068222406, 51.476140739696675]}}, {"type": "Feature", "properties": {"osmid": 185}, "geometry": {"type": "Point", "coordinates": [-0.006132400000000731, 51.474836100000005]}}, {"type": "Feature", "properties": {"osmid": 186}, "geometry": {"type": "Point", "coordinates": [-0.010029288546470201, 51.47765405384781]}}, {"type": "Feature", "properties": {"osmid": 187}, "geometry": {"type": "Point", "coordinates": [-0.005191800000001016, 51.47449639999999]}}, {"type": "Feature", "properties": {"osmid": 188}, "geometry": {"type": "Point", "coordinates": [0.01282678895491599, 51.48611487203699]}}, {"type": "Feature", "properties": {"osmid": 189}, "geometry": {"type": "Point", "coordinates": [0.010591599999998712, 51.486237399999986]}}, {"type": "Feature", "properties": {"osmid": 190}, "geometry": {"type": "Point", "coordinates": [0.009157046054950388, 51.486293812198916]}}, {"type": "Feature", "properties": {"osmid": 191}, "geometry": {"type": "Point", "coordinates": [-0.03760079946713322, 51.492290400721465]}}, {"type": "Feature", "properties": {"osmid": 192}, "geometry": {"type": "Point", "coordinates": [-0.03591525042487523, 51.49247765044555]}}, {"type": "Feature", "properties": {"osmid": 193}, "geometry": {"type": "Point", "coordinates": [-0.006201692044754034, 51.492235664377624]}}, {"type": "Feature", "properties": {"osmid": 194}, "geometry": {"type": "Point", "coordinates": [-0.007128149442987874, 51.493136450104956]}}, {"type": "Feature", "properties": {"osmid": 195}, "geometry": {"type": "Point", "coordinates": [-0.005845400000001787, 51.49094829999999]}}, {"type": "Feature", "properties": {"osmid": 196}, "geometry": {"type": "Point", "coordinates": [-0.00797709904714454, 51.49396750017991]}}, {"type": "Feature", "properties": {"osmid": 197}, "geometry": {"type": "Point", "coordinates": [0.012270449711651019, 51.51959573249867]}}, {"type": "Feature", "properties": {"osmid": 198}, "geometry": {"type": "Point", "coordinates": [0.015072200035402323, 51.5174053000274]}}, {"type": "Feature", "properties": {"osmid": 199}, "geometry": {"type": "Point", "coordinates": [-0.03806541209188077, 51.478280405340634]}}, {"type": "Feature", "properties": {"osmid": 200}, "geometry": {"type": "Point", "coordinates": [-0.03578260896236594, 51.4788984432207]}}, {"type": "Feature", "properties": {"osmid": 201}, "geometry": {"type": "Point", "coordinates": [-0.02459859937014028, 51.492286200068946]}}, {"type": "Feature", "properties": {"osmid": 202}, "geometry": {"type": "Point", "coordinates": [-0.024026500000000478, 51.49147669999999]}}, {"type": "Feature", "properties": {"osmid": 203}, "geometry": {"type": "Point", "coordinates": [-0.02488245000702036, 51.493223800000436]}}, {"type": "Feature", "properties": {"osmid": 204}, "geometry": {"type": "Point", "coordinates": [-0.02330739999999914, 51.490826799999994]}}, {"type": "Feature", "properties": {"osmid": 205}, "geometry": {"type": "Point", "coordinates": [-0.04894375039601496, 51.50248975012751]}}, {"type": "Feature", "properties": {"osmid": 206}, "geometry": {"type": "Point", "coordinates": [-0.046697900000001485, 51.50387889999999]}}, {"type": "Feature", "properties": {"osmid": 207}, "geometry": {"type": "Point", "coordinates": [-0.0504355470554523, 51.50154440669494]}}, {"type": "Feature", "properties": {"osmid": 208}, "geometry": {"type": "Point", "coordinates": [-0.0456792314722776, 51.50458145473157]}}, {"type": "Feature", "properties": {"osmid": 209}, "geometry": {"type": "Point", "coordinates": [-0.057508009990587236, 51.473418805751805]}}, {"type": "Feature", "properties": {"osmid": 210}, "geometry": {"type": "Point", "coordinates": [-0.056160099999999484, 51.473336599999996]}}, {"type": "Feature", "properties": {"osmid": 211}, "geometry": {"type": "Point", "coordinates": [-0.05791550000000093, 51.4753016]}}, {"type": "Feature", "properties": {"osmid": 212}, "geometry": {"type": "Point", "coordinates": [0.009726917981006174, 51.51979564403209]}}, {"type": "Feature", "properties": {"osmid": 213}, "geometry": {"type": "Point", "coordinates": [0.012354727950881191, 51.521302128970106]}}, {"type": "Feature", "properties": {"osmid": 214}, "geometry": {"type": "Point", "coordinates": [-0.0011665999999995844, 51.5138352]}}, {"type": "Feature", "properties": {"osmid": 215}, "geometry": {"type": "Point", "coordinates": [0.0008488680911364792, 51.510715885766665]}}, {"type": "Feature", "properties": {"osmid": 216}, "geometry": {"type": "Point", "coordinates": [-0.00472020020005239, 51.511898350223774]}}, {"type": "Feature", "properties": {"osmid": 217}, "geometry": {"type": "Point", "coordinates": [0.0023550999999988526, 51.51423189999999]}}, {"type": "Feature", "properties": {"osmid": 218}, "geometry": {"type": "Point", "coordinates": [0.006129789674852181, 51.51558480518102]}}, {"type": "Feature", "properties": {"osmid": 219}, "geometry": {"type": "Point", "coordinates": [-0.003571399999999824, 51.514493]}}, {"type": "Feature", "properties": {"osmid": 220}, "geometry": {"type": "Point", "coordinates": [-0.012151400000000184, 51.47236709999999]}}, {"type": "Feature", "properties": {"osmid": 221}, "geometry": {"type": "Point", "coordinates": [-0.010395650042645572, 51.472551400071815]}}, {"type": "Feature", "properties": {"osmid": 222}, "geometry": {"type": "Point", "coordinates": [-0.015136875668269897, 51.47281495179105]}}, {"type": "Feature", "properties": {"osmid": 223}, "geometry": {"type": "Point", "coordinates": [-0.005369383552504706, 51.4724317809666]}}, {"type": "Feature", "properties": {"osmid": 224}, "geometry": {"type": "Point", "coordinates": [-0.014252094855962906, 51.474089509058054]}}, {"type": "Feature", "properties": {"osmid": 225}, "geometry": {"type": "Point", "coordinates": [-0.01819180000000132, 51.473207599999995]}}, {"type": "Feature", "properties": {"osmid": 226}, "geometry": {"type": "Point", "coordinates": [-0.014958849083371695, 51.47151695014392]}}, {"type": "Feature", "properties": {"osmid": 227}, "geometry": {"type": "Point", "coordinates": [-0.055567099999999224, 51.521913999999995]}}, {"type": "Feature", "properties": {"osmid": 228}, "geometry": {"type": "Point", "coordinates": [0.011879887855559356, 51.47323314041068]}}, {"type": "Feature", "properties": {"osmid": 229}, "geometry": {"type": "Point", "coordinates": [0.009599330397771728, 51.472807740892634]}}, {"type": "Feature", "properties": {"osmid": 230}, "geometry": {"type": "Point", "coordinates": [0.015901913258800505, 51.47367210312695]}}, {"type": "Feature", "properties": {"osmid": 231}, "geometry": {"type": "Point", "coordinates": [-0.00017625008224313459, 51.47185610032867]}}, {"type": "Feature", "properties": {"osmid": 232}, "geometry": {"type": "Point", "coordinates": [0.007012841126914194, 51.48566532614848]}}, {"type": "Feature", "properties": {"osmid": 233}, "geometry": {"type": "Point", "coordinates": [-0.03740638943322197, 51.514252476160124]}}, {"type": "Feature", "properties": {"osmid": 234}, "geometry": {"type": "Point", "coordinates": [-0.04043630000000069, 51.5147813]}}, {"type": "Feature", "properties": {"osmid": 235}, "geometry": {"type": "Point", "coordinates": [-0.03405550000000042, 51.514217599999995]}}, {"type": "Feature", "properties": {"osmid": 236}, "geometry": {"type": "Point", "coordinates": [-0.04257080121227688, 51.512994438519875]}}, {"type": "Feature", "properties": {"osmid": 237}, "geometry": {"type": "Point", "coordinates": [-0.0408311000000004, 51.51353919999998]}}, {"type": "Feature", "properties": {"osmid": 238}, "geometry": {"type": "Point", "coordinates": [-0.03992949999999983, 51.51279530000001]}}, {"type": "Feature", "properties": {"osmid": 239}, "geometry": {"type": "Point", "coordinates": [-0.04656218642979607, 51.5132459715492]}}, {"type": "Feature", "properties": {"osmid": 240}, "geometry": {"type": "Point", "coordinates": [-0.04588334982460905, 51.51676470041268]}}, {"type": "Feature", "properties": {"osmid": 241}, "geometry": {"type": "Point", "coordinates": [-0.04269780001561786, 51.516766050035535]}}, {"type": "Feature", "properties": {"osmid": 242}, "geometry": {"type": "Point", "coordinates": [-0.04756240000000261, 51.516858]}}, {"type": "Feature", "properties": {"osmid": 243}, "geometry": {"type": "Point", "coordinates": [-0.0429642918843988, 51.5179828918985]}}, {"type": "Feature", "properties": {"osmid": 244}, "geometry": {"type": "Point", "coordinates": [-0.04143759999770241, 51.51555155000015]}}, {"type": "Feature", "properties": {"osmid": 245}, "geometry": {"type": "Point", "coordinates": [-0.048435707365816656, 51.493607818704305]}}, {"type": "Feature", "properties": {"osmid": 246}, "geometry": {"type": "Point", "coordinates": [-0.04972640079748453, 51.492531200209285]}}, {"type": "Feature", "properties": {"osmid": 247}, "geometry": {"type": "Point", "coordinates": [-0.053085713598409474, 51.49083974708956]}}, {"type": "Feature", "properties": {"osmid": 248}, "geometry": {"type": "Point", "coordinates": [0.013507299999998763, 51.48876320000001]}}, {"type": "Feature", "properties": {"osmid": 249}, "geometry": {"type": "Point", "coordinates": [-0.04044905003673721, 51.51793845007995]}}, {"type": "Feature", "properties": {"osmid": 250}, "geometry": {"type": "Point", "coordinates": [-0.04338699940545532, 51.519359500071324]}}, {"type": "Feature", "properties": {"osmid": 251}, "geometry": {"type": "Point", "coordinates": [-0.044229200000000087, 51.518061499999995]}}, {"type": "Feature", "properties": {"osmid": 252}, "geometry": {"type": "Point", "coordinates": [-0.041370249992485335, 51.514882350000384]}}, {"type": "Feature", "properties": {"osmid": 253}, "geometry": {"type": "Point", "coordinates": [-0.02160640000000025, 51.50847250000002]}}, {"type": "Feature", "properties": {"osmid": 254}, "geometry": {"type": "Point", "coordinates": [-0.020169500041297764, 51.50820840000243]}}, {"type": "Feature", "properties": {"osmid": 255}, "geometry": {"type": "Point", "coordinates": [-0.018921599999999723, 51.50771569999999]}}, {"type": "Feature", "properties": {"osmid": 256}, "geometry": {"type": "Point", "coordinates": [-0.0349242498725608, 51.47485470002854]}}, {"type": "Feature", "properties": {"osmid": 257}, "geometry": {"type": "Point", "coordinates": [-0.05063940000228113, 51.5084385000002]}}, {"type": "Feature", "properties": {"osmid": 258}, "geometry": {"type": "Point", "coordinates": [-0.03867339245967753, 51.518113521075435]}}, {"type": "Feature", "properties": {"osmid": 259}, "geometry": {"type": "Point", "coordinates": [-0.03742930000000071, 51.518207399999994]}}, {"type": "Feature", "properties": {"osmid": 260}, "geometry": {"type": "Point", "coordinates": [-0.044020500000000955, 51.5201374]}}, {"type": "Feature", "properties": {"osmid": 261}, "geometry": {"type": "Point", "coordinates": [-0.0357202008257974, 51.51843440045564]}}, {"type": "Feature", "properties": {"osmid": 262}, "geometry": {"type": "Point", "coordinates": [-0.04590112360924404, 51.51862464854477]}}, {"type": "Feature", "properties": {"osmid": 263}, "geometry": {"type": "Point", "coordinates": [-0.048385400000000266, 51.519927300000006]}}, {"type": "Feature", "properties": {"osmid": 264}, "geometry": {"type": "Point", "coordinates": [-0.029815600004321565, 51.5091633000073]}}, {"type": "Feature", "properties": {"osmid": 265}, "geometry": {"type": "Point", "coordinates": [-0.032044200000002375, 51.508643899999996]}}, {"type": "Feature", "properties": {"osmid": 266}, "geometry": {"type": "Point", "coordinates": [-0.03372701519155247, 51.508950490712415]}}, {"type": "Feature", "properties": {"osmid": 267}, "geometry": {"type": "Point", "coordinates": [-0.05710689999347821, 51.51449955001212]}}, {"type": "Feature", "properties": {"osmid": 268}, "geometry": {"type": "Point", "coordinates": [-0.057099000000000746, 51.51517379999999]}}, {"type": "Feature", "properties": {"osmid": 269}, "geometry": {"type": "Point", "coordinates": [-0.03497620000000041, 51.50929289999999]}}, {"type": "Feature", "properties": {"osmid": 270}, "geometry": {"type": "Point", "coordinates": [-0.04878841920895709, 51.51353825874442]}}, {"type": "Feature", "properties": {"osmid": 271}, "geometry": {"type": "Point", "coordinates": [-0.028670800000000246, 51.5174575]}}, {"type": "Feature", "properties": {"osmid": 272}, "geometry": {"type": "Point", "coordinates": [-0.02890239999999904, 51.5156375]}}, {"type": "Feature", "properties": {"osmid": 273}, "geometry": {"type": "Point", "coordinates": [-0.03138214998685509, 51.51732100004511]}}, {"type": "Feature", "properties": {"osmid": 274}, "geometry": {"type": "Point", "coordinates": [-0.02847129978498079, 51.51480920002135]}}, {"type": "Feature", "properties": {"osmid": 275}, "geometry": {"type": "Point", "coordinates": [-0.03510544998131721, 51.50622990001303]}}, {"type": "Feature", "properties": {"osmid": 276}, "geometry": {"type": "Point", "coordinates": [0.004372800000000093, 51.5214227]}}, {"type": "Feature", "properties": {"osmid": 277}, "geometry": {"type": "Point", "coordinates": [0.0059935999999994475, 51.52065769999998]}}, {"type": "Feature", "properties": {"osmid": 278}, "geometry": {"type": "Point", "coordinates": [0.007058199999999256, 51.5205517]}}, {"type": "Feature", "properties": {"osmid": 279}, "geometry": {"type": "Point", "coordinates": [-0.008822600000000902, 51.4949538]}}, {"type": "Feature", "properties": {"osmid": 280}, "geometry": {"type": "Point", "coordinates": [-0.009306899966088389, 51.49632240000227]}}, {"type": "Feature", "properties": {"osmid": 281}, "geometry": {"type": "Point", "coordinates": [-0.0496400785714865, 51.52092718744245]}}, {"type": "Feature", "properties": {"osmid": 282}, "geometry": {"type": "Point", "coordinates": [-0.0463712018480845, 51.52181581365044]}}, {"type": "Feature", "properties": {"osmid": 283}, "geometry": {"type": "Point", "coordinates": [-0.05763119999999883, 51.4887313]}}, {"type": "Feature", "properties": {"osmid": 284}, "geometry": {"type": "Point", "coordinates": [-0.05808560000000066, 51.491804300000005]}}, {"type": "Feature", "properties": {"osmid": 285}, "geometry": {"type": "Point", "coordinates": [-0.049787299999999035, 51.4910686]}}, {"type": "Feature", "properties": {"osmid": 286}, "geometry": {"type": "Point", "coordinates": [-0.04824120000000013, 51.491328200000005]}}, {"type": "Feature", "properties": {"osmid": 287}, "geometry": {"type": "Point", "coordinates": [-0.01196640000000022, 51.497716]}}, {"type": "Feature", "properties": {"osmid": 288}, "geometry": {"type": "Point", "coordinates": [-0.010375350883372051, 51.49889260021181]}}, {"type": "Feature", "properties": {"osmid": 289}, "geometry": {"type": "Point", "coordinates": [-0.01340079999999829, 51.49984520000001]}}, {"type": "Feature", "properties": {"osmid": 290}, "geometry": {"type": "Point", "coordinates": [0.010778700000000061, 51.51220199999999]}}, {"type": "Feature", "properties": {"osmid": 291}, "geometry": {"type": "Point", "coordinates": [0.012868267376841809, 51.51001436677674]}}, {"type": "Feature", "properties": {"osmid": 292}, "geometry": {"type": "Point", "coordinates": [0.0124082013312805, 51.5100229335423]}}, {"type": "Feature", "properties": {"osmid": 293}, "geometry": {"type": "Point", "coordinates": [0.004612499999999347, 51.51482500000001]}}, {"type": "Feature", "properties": {"osmid": 294}, "geometry": {"type": "Point", "coordinates": [0.012487199999998784, 51.5163713]}}, {"type": "Feature", "properties": {"osmid": 295}, "geometry": {"type": "Point", "coordinates": [0.012823699999999836, 51.49133640000001]}}, {"type": "Feature", "properties": {"osmid": 296}, "geometry": {"type": "Point", "coordinates": [-0.05746980000000177, 51.50365159999999]}}, {"type": "Feature", "properties": {"osmid": 297}, "geometry": {"type": "Point", "coordinates": [-0.05636059999999991, 51.50417830000001]}}, {"type": "Feature", "properties": {"osmid": 298}, "geometry": {"type": "Point", "coordinates": [-0.05562650000000048, 51.504793199999995]}}, {"type": "Feature", "properties": {"osmid": 299}, "geometry": {"type": "Point", "coordinates": [-0.05748389262912785, 51.504826754374584]}}, {"type": "Feature", "properties": {"osmid": 300}, "geometry": {"type": "Point", "coordinates": [-0.05337732088550739, 51.51086251527121]}}, {"type": "Feature", "properties": {"osmid": 301}, "geometry": {"type": "Point", "coordinates": [-0.05496869997696018, 51.51109615023982]}}, {"type": "Feature", "properties": {"osmid": 302}, "geometry": {"type": "Point", "coordinates": [-0.0011527000000021122, 51.48334769999999]}}, {"type": "Feature", "properties": {"osmid": 303}, "geometry": {"type": "Point", "coordinates": [-0.00026870000000061255, 51.4835681]}}, {"type": "Feature", "properties": {"osmid": 304}, "geometry": {"type": "Point", "coordinates": [-0.05842550000000139, 51.49881969999999]}}, {"type": "Feature", "properties": {"osmid": 305}, "geometry": {"type": "Point", "coordinates": [-0.05228109999999934, 51.50050000000001]}}, {"type": "Feature", "properties": {"osmid": 306}, "geometry": {"type": "Point", "coordinates": [-0.012173538892876545, 51.47769006210517]}}, {"type": "Feature", "properties": {"osmid": 307}, "geometry": {"type": "Point", "coordinates": [-0.012768299999999684, 51.4761663]}}, {"type": "Feature", "properties": {"osmid": 308}, "geometry": {"type": "Point", "coordinates": [0.0008961999999993267, 51.4839167]}}, {"type": "Feature", "properties": {"osmid": 309}, "geometry": {"type": "Point", "coordinates": [-0.007070200000000587, 51.5096271]}}, {"type": "Feature", "properties": {"osmid": 310}, "geometry": {"type": "Point", "coordinates": [-0.01913119615595198, 51.48117319861769]}}, {"type": "Feature", "properties": {"osmid": 311}, "geometry": {"type": "Point", "coordinates": [-0.016208300078734444, 51.48136495075283]}}, {"type": "Feature", "properties": {"osmid": 312}, "geometry": {"type": "Point", "coordinates": [-0.02055695000407357, 51.481016100007764]}}, {"type": "Feature", "properties": {"osmid": 313}, "geometry": {"type": "Point", "coordinates": [0.01818203504053393, 51.475944654356766]}}, {"type": "Feature", "properties": {"osmid": 314}, "geometry": {"type": "Point", "coordinates": [0.018041099999998943, 51.4738418]}}, {"type": "Feature", "properties": {"osmid": 315}, "geometry": {"type": "Point", "coordinates": [-0.003257899999999865, 51.50906400000001]}}, {"type": "Feature", "properties": {"osmid": 316}, "geometry": {"type": "Point", "coordinates": [0.002408799999998165, 51.510269499999985]}}, {"type": "Feature", "properties": {"osmid": 317}, "geometry": {"type": "Point", "coordinates": [0.0016586000000000448, 51.4825835]}}, {"type": "Feature", "properties": {"osmid": 318}, "geometry": {"type": "Point", "coordinates": [0.0019009999975324017, 51.484295150001316]}}, {"type": "Feature", "properties": {"osmid": 319}, "geometry": {"type": "Point", "coordinates": [0.018859521613557178, 51.47689272676654]}}, {"type": "Feature", "properties": {"osmid": 320}, "geometry": {"type": "Point", "coordinates": [0.005152200000000443, 51.51030780000001]}}, {"type": "Feature", "properties": {"osmid": 321}, "geometry": {"type": "Point", "coordinates": [-0.04439943676621626, 51.490047054193894]}}, {"type": "Feature", "properties": {"osmid": 322}, "geometry": {"type": "Point", "coordinates": [-0.044488900000000095, 51.488700300000005]}}, {"type": "Feature", "properties": {"osmid": 323}, "geometry": {"type": "Point", "coordinates": [-0.04335910000000043, 51.4873617]}}, {"type": "Feature", "properties": {"osmid": 324}, "geometry": {"type": "Point", "coordinates": [0.0031145499425199747, 51.484691800036266]}}, {"type": "Feature", "properties": {"osmid": 325}, "geometry": {"type": "Point", "coordinates": [0.004340399999999047, 51.485066499999995]}}, {"type": "Feature", "properties": {"osmid": 326}, "geometry": {"type": "Point", "coordinates": [0.007516900000000519, 51.487174100000004]}}, {"type": "Feature", "properties": {"osmid": 327}, "geometry": {"type": "Point", "coordinates": [0.008328150376490824, 51.48437780002549]}}, {"type": "Feature", "properties": {"osmid": 328}, "geometry": {"type": "Point", "coordinates": [0.016125100000000347, 51.47720460000001]}}, {"type": "Feature", "properties": {"osmid": 329}, "geometry": {"type": "Point", "coordinates": [-0.03413974504455902, 51.47639225065905]}}, {"type": "Feature", "properties": {"osmid": 330}, "geometry": {"type": "Point", "coordinates": [-0.03257728555823049, 51.47583738702736]}}, {"type": "Feature", "properties": {"osmid": 331}, "geometry": {"type": "Point", "coordinates": [0.005033100000000402, 51.509858799999996]}}, {"type": "Feature", "properties": {"osmid": 332}, "geometry": {"type": "Point", "coordinates": [-0.02978129608822945, 51.52121064261521]}}, {"type": "Feature", "properties": {"osmid": 333}, "geometry": {"type": "Point", "coordinates": [-0.02670420000000092, 51.52055159999999]}}, {"type": "Feature", "properties": {"osmid": 334}, "geometry": {"type": "Point", "coordinates": [-0.03321736628795483, 51.52147614679171]}}, {"type": "Feature", "properties": {"osmid": 335}, "geometry": {"type": "Point", "coordinates": [-0.013036800029183799, 51.47546925000447]}}, {"type": "Feature", "properties": {"osmid": 336}, "geometry": {"type": "Point", "coordinates": [-0.03204619999999995, 51.5169093]}}, {"type": "Feature", "properties": {"osmid": 337}, "geometry": {"type": "Point", "coordinates": [-0.03237259999999859, 51.5174247]}}, {"type": "Feature", "properties": {"osmid": 338}, "geometry": {"type": "Point", "coordinates": [-0.033068250066436385, 51.516124650004926]}}, {"type": "Feature", "properties": {"osmid": 339}, "geometry": {"type": "Point", "coordinates": [-0.0064029963109393, 51.471414543875106]}}, {"type": "Feature", "properties": {"osmid": 340}, "geometry": {"type": "Point", "coordinates": [-0.007597399999999965, 51.47182529999999]}}, {"type": "Feature", "properties": {"osmid": 341}, "geometry": {"type": "Point", "coordinates": [-0.007003399999998934, 51.47030900000001]}}, {"type": "Feature", "properties": {"osmid": 342}, "geometry": {"type": "Point", "coordinates": [-0.008525099993975832, 51.47205065000404]}}, {"type": "Feature", "properties": {"osmid": 343}, "geometry": {"type": "Point", "coordinates": [-0.03686420000000001, 51.50964789999998]}}, {"type": "Feature", "properties": {"osmid": 344}, "geometry": {"type": "Point", "coordinates": [-0.037874700000000754, 51.50982539999999]}}, {"type": "Feature", "properties": {"osmid": 345}, "geometry": {"type": "Point", "coordinates": [-0.022647303861210177, 51.47746417647377]}}, {"type": "Feature", "properties": {"osmid": 346}, "geometry": {"type": "Point", "coordinates": [-0.02293440000000007, 51.4785506]}}, {"type": "Feature", "properties": {"osmid": 347}, "geometry": {"type": "Point", "coordinates": [-0.033301200000000954, 51.51526179999998]}}, {"type": "Feature", "properties": {"osmid": 348}, "geometry": {"type": "Point", "coordinates": [-0.03324020000000029, 51.514589699999995]}}, {"type": "Feature", "properties": {"osmid": 349}, "geometry": {"type": "Point", "coordinates": [-0.034374699753139594, 51.491782550010775]}}, {"type": "Feature", "properties": {"osmid": 350}, "geometry": {"type": "Point", "coordinates": [-0.034638250012168706, 51.49271930001364]}}, {"type": "Feature", "properties": {"osmid": 351}, "geometry": {"type": "Point", "coordinates": [-0.034201999999998435, 51.490803400000004]}}, {"type": "Feature", "properties": {"osmid": 352}, "geometry": {"type": "Point", "coordinates": [0.011529299999999921, 51.5146584]}}, {"type": "Feature", "properties": {"osmid": 353}, "geometry": {"type": "Point", "coordinates": [0.011663699999999153, 51.513502100000004]}}, {"type": "Feature", "properties": {"osmid": 354}, "geometry": {"type": "Point", "coordinates": [0.011398400000000216, 51.51577670000001]}}, {"type": "Feature", "properties": {"osmid": 355}, "geometry": {"type": "Point", "coordinates": [-0.04275060000000091, 51.48641729999999]}}, {"type": "Feature", "properties": {"osmid": 356}, "geometry": {"type": "Point", "coordinates": [-0.05451009337654247, 51.505691806707716]}}, {"type": "Feature", "properties": {"osmid": 357}, "geometry": {"type": "Point", "coordinates": [-0.04207890000000029, 51.4848725]}}, {"type": "Feature", "properties": {"osmid": 358}, "geometry": {"type": "Point", "coordinates": [-0.04776203115061863, 51.51135860775551]}}, {"type": "Feature", "properties": {"osmid": 359}, "geometry": {"type": "Point", "coordinates": [-0.05056506192796411, 51.51108736108066]}}, {"type": "Feature", "properties": {"osmid": 360}, "geometry": {"type": "Point", "coordinates": [-0.038966497926089555, 51.48544843209095]}}, {"type": "Feature", "properties": {"osmid": 361}, "geometry": {"type": "Point", "coordinates": [-0.04240310000000089, 51.484338699999995]}}, {"type": "Feature", "properties": {"osmid": 362}, "geometry": {"type": "Point", "coordinates": [-0.05407210000000144, 51.485772299999994]}}, {"type": "Feature", "properties": {"osmid": 363}, "geometry": {"type": "Point", "coordinates": [-0.05365669999999956, 51.4846111]}}, {"type": "Feature", "properties": {"osmid": 364}, "geometry": {"type": "Point", "coordinates": [-0.05469709999999981, 51.4869247]}}, {"type": "Feature", "properties": {"osmid": 365}, "geometry": {"type": "Point", "coordinates": [-0.04848120000000089, 51.4843723]}}, {"type": "Feature", "properties": {"osmid": 366}, "geometry": {"type": "Point", "coordinates": [-0.05373730000000043, 51.48346430000001]}}, {"type": "Feature", "properties": {"osmid": 367}, "geometry": {"type": "Point", "coordinates": [-0.05819450000000044, 51.488116999999995]}}, {"type": "Feature", "properties": {"osmid": 368}, "geometry": {"type": "Point", "coordinates": [-0.037187200000001745, 51.4861931]}}, {"type": "Feature", "properties": {"osmid": 369}, "geometry": {"type": "Point", "coordinates": [-0.04620769999999931, 51.4843267]}}, {"type": "Feature", "properties": {"osmid": 370}, "geometry": {"type": "Point", "coordinates": [-0.047390499999999815, 51.484353299999995]}}, {"type": "Feature", "properties": {"osmid": 371}, "geometry": {"type": "Point", "coordinates": [-0.04439610000000099, 51.49491729999999]}}, {"type": "Feature", "properties": {"osmid": 372}, "geometry": {"type": "Point", "coordinates": [-0.04604954626712649, 51.49805943010664]}}, {"type": "Feature", "properties": {"osmid": 373}, "geometry": {"type": "Point", "coordinates": [-0.042625100000000846, 51.49581319999999]}}, {"type": "Feature", "properties": {"osmid": 374}, "geometry": {"type": "Point", "coordinates": [-0.04694960000000207, 51.49864829999999]}}, {"type": "Feature", "properties": {"osmid": 375}, "geometry": {"type": "Point", "coordinates": [-0.04119801877171976, 51.49620831070975]}}, {"type": "Feature", "properties": {"osmid": 376}, "geometry": {"type": "Point", "coordinates": [-0.017362600000001734, 51.4877558]}}, {"type": "Feature", "properties": {"osmid": 377}, "geometry": {"type": "Point", "coordinates": [-0.018134100000001697, 51.4880607]}}, {"type": "Feature", "properties": {"osmid": 378}, "geometry": {"type": "Point", "coordinates": [-0.013332500000000646, 51.4872434]}}, {"type": "Feature", "properties": {"osmid": 379}, "geometry": {"type": "Point", "coordinates": [-0.020018600000001375, 51.488860499999994]}}, {"type": "Feature", "properties": {"osmid": 380}, "geometry": {"type": "Point", "coordinates": [-0.013380700000000476, 51.487824599999996]}}, {"type": "Feature", "properties": {"osmid": 381}, "geometry": {"type": "Point", "coordinates": [-0.010962500291809103, 51.487581650315974]}}, {"type": "Feature", "properties": {"osmid": 382}, "geometry": {"type": "Point", "coordinates": [-0.027615500000000556, 51.5177374]}}, {"type": "Feature", "properties": {"osmid": 383}, "geometry": {"type": "Point", "coordinates": [-0.025611525808247874, 51.518212266553256]}}, {"type": "Feature", "properties": {"osmid": 384}, "geometry": {"type": "Point", "coordinates": [-0.023394400000002022, 51.516720299999996]}}, {"type": "Feature", "properties": {"osmid": 385}, "geometry": {"type": "Point", "coordinates": [-0.024581900000000118, 51.516241]}}, {"type": "Feature", "properties": {"osmid": 386}, "geometry": {"type": "Point", "coordinates": [-0.02228639999999942, 51.5171562]}}, {"type": "Feature", "properties": {"osmid": 387}, "geometry": {"type": "Point", "coordinates": [-0.02712750061949533, 51.51518460031206]}}, {"type": "Feature", "properties": {"osmid": 388}, "geometry": {"type": "Point", "coordinates": [-0.020707900000000657, 51.515943]}}, {"type": "Feature", "properties": {"osmid": 389}, "geometry": {"type": "Point", "coordinates": [-0.023091933952729574, 51.518508083146735]}}, {"type": "Feature", "properties": {"osmid": 390}, "geometry": {"type": "Point", "coordinates": [-0.0537724000000015, 51.4827054]}}, {"type": "Feature", "properties": {"osmid": 391}, "geometry": {"type": "Point", "coordinates": [0.008576999999998437, 51.483606]}}, {"type": "Feature", "properties": {"osmid": 392}, "geometry": {"type": "Point", "coordinates": [-0.0209436511013777, 51.519597150350904]}}, {"type": "Feature", "properties": {"osmid": 393}, "geometry": {"type": "Point", "coordinates": [-0.019417092374797974, 51.520789285796326]}}, {"type": "Feature", "properties": {"osmid": 394}, "geometry": {"type": "Point", "coordinates": [-0.02218270000000119, 51.5188125]}}, {"type": "Feature", "properties": {"osmid": 395}, "geometry": {"type": "Point", "coordinates": [-0.01849348524167487, 51.52187475393233]}}, {"type": "Feature", "properties": {"osmid": 396}, "geometry": {"type": "Point", "coordinates": [-0.0230117500265668, 51.47945940000275]}}, {"type": "Feature", "properties": {"osmid": 397}, "geometry": {"type": "Point", "coordinates": [-0.004717300000000175, 51.47387829999999]}}, {"type": "Feature", "properties": {"osmid": 398}, "geometry": {"type": "Point", "coordinates": [0.01336059999999948, 51.476395499999995]}}, {"type": "Feature", "properties": {"osmid": 399}, "geometry": {"type": "Point", "coordinates": [0.003270600513580929, 51.49775426679324]}}, {"type": "Feature", "properties": {"osmid": 400}, "geometry": {"type": "Point", "coordinates": [-0.03925859999999872, 51.510642600000004]}}, {"type": "Feature", "properties": {"osmid": 401}, "geometry": {"type": "Point", "coordinates": [-0.040030000000000045, 51.512719]}}, {"type": "Feature", "properties": {"osmid": 402}, "geometry": {"type": "Point", "coordinates": [0.003420299999998092, 51.47300489999999]}}, {"type": "Feature", "properties": {"osmid": 403}, "geometry": {"type": "Point", "coordinates": [-0.0022354000000001767, 51.4719488]}}, {"type": "Feature", "properties": {"osmid": 404}, "geometry": {"type": "Point", "coordinates": [-0.04052910000000138, 51.5100742]}}, {"type": "Feature", "properties": {"osmid": 405}, "geometry": {"type": "Point", "coordinates": [-0.02278453862279541, 51.51105428222574]}}, {"type": "Feature", "properties": {"osmid": 406}, "geometry": {"type": "Point", "coordinates": [-0.02106847679250334, 51.51049230065935]}}, {"type": "Feature", "properties": {"osmid": 407}, "geometry": {"type": "Point", "coordinates": [-0.02000610003620908, 51.512201100002464]}}, {"type": "Feature", "properties": {"osmid": 408}, "geometry": {"type": "Point", "coordinates": [-0.018749266061337023, 51.51091203969271]}}, {"type": "Feature", "properties": {"osmid": 409}, "geometry": {"type": "Point", "coordinates": [-0.02091314977068, 51.50934560049562]}}, {"type": "Feature", "properties": {"osmid": 410}, "geometry": {"type": "Point", "coordinates": [0.008320500000000026, 51.4948879]}}, {"type": "Feature", "properties": {"osmid": 411}, "geometry": {"type": "Point", "coordinates": [0.0028195999999991147, 51.514269999999996]}}, {"type": "Feature", "properties": {"osmid": 412}, "geometry": {"type": "Point", "coordinates": [-0.00388450000000003, 51.5085725]}}, {"type": "Feature", "properties": {"osmid": 413}, "geometry": {"type": "Point", "coordinates": [-0.037763700000000774, 51.487665899999996]}}, {"type": "Feature", "properties": {"osmid": 414}, "geometry": {"type": "Point", "coordinates": [-0.034808950070769985, 51.48869680034111]}}, {"type": "Feature", "properties": {"osmid": 415}, "geometry": {"type": "Point", "coordinates": [-0.03935229999999995, 51.48843599999999]}}, {"type": "Feature", "properties": {"osmid": 416}, "geometry": {"type": "Point", "coordinates": [-0.040685761057809744, 51.48912175703778]}}, {"type": "Feature", "properties": {"osmid": 417}, "geometry": {"type": "Point", "coordinates": [-0.04233312046591165, 51.490106058213186]}}, {"type": "Feature", "properties": {"osmid": 418}, "geometry": {"type": "Point", "coordinates": [-0.039642000000000906, 51.5056718]}}, {"type": "Feature", "properties": {"osmid": 419}, "geometry": {"type": "Point", "coordinates": [-0.036773500000000306, 51.5048663]}}, {"type": "Feature", "properties": {"osmid": 420}, "geometry": {"type": "Point", "coordinates": [-0.04263950000000149, 51.50539789999999]}}, {"type": "Feature", "properties": {"osmid": 421}, "geometry": {"type": "Point", "coordinates": [-0.035928000000000355, 51.50331390000001]}}, {"type": "Feature", "properties": {"osmid": 422}, "geometry": {"type": "Point", "coordinates": [-0.04359450000000025, 51.50518019999999]}}, {"type": "Feature", "properties": {"osmid": 423}, "geometry": {"type": "Point", "coordinates": [-0.03436989999573181, 51.48808115000039]}}, {"type": "Feature", "properties": {"osmid": 424}, "geometry": {"type": "Point", "coordinates": [-0.03461125014459248, 51.489930050011644]}}, {"type": "Feature", "properties": {"osmid": 425}, "geometry": {"type": "Point", "coordinates": [-0.033037849880351376, 51.4868168500271]}}, {"type": "Feature", "properties": {"osmid": 426}, "geometry": {"type": "Point", "coordinates": [-0.022355999999999338, 51.4900786]}}, {"type": "Feature", "properties": {"osmid": 427}, "geometry": {"type": "Point", "coordinates": [-0.01634680000000158, 51.50735079999999]}}, {"type": "Feature", "properties": {"osmid": 428}, "geometry": {"type": "Point", "coordinates": [-0.02083110000000005, 51.500814600000005]}}, {"type": "Feature", "properties": {"osmid": 429}, "geometry": {"type": "Point", "coordinates": [-0.012252400000000776, 51.5071559]}}, {"type": "Feature", "properties": {"osmid": 430}, "geometry": {"type": "Point", "coordinates": [-0.004562500000000034, 51.50835879999999]}}, {"type": "Feature", "properties": {"osmid": 431}, "geometry": {"type": "Point", "coordinates": [-0.010506900000001661, 51.50875849999999]}}, {"type": "Feature", "properties": {"osmid": 432}, "geometry": {"type": "Point", "coordinates": [-0.0139379, 51.50710180000001]}}, {"type": "Feature", "properties": {"osmid": 433}, "geometry": {"type": "Point", "coordinates": [-0.017541700000001666, 51.5109779]}}, {"type": "Feature", "properties": {"osmid": 434}, "geometry": {"type": "Point", "coordinates": [-0.016181800000041338, 51.51104450000018]}}, {"type": "Feature", "properties": {"osmid": 435}, "geometry": {"type": "Point", "coordinates": [-0.014077039694930198, 51.51126141520748]}}, {"type": "Feature", "properties": {"osmid": 436}, "geometry": {"type": "Point", "coordinates": [-0.045086000000000105, 51.505347]}}, {"type": "Feature", "properties": {"osmid": 437}, "geometry": {"type": "Point", "coordinates": [-0.014135800000001432, 51.51319769999999]}}, {"type": "Feature", "properties": {"osmid": 438}, "geometry": {"type": "Point", "coordinates": [-0.023603128387271074, 51.48086283284394]}}, {"type": "Feature", "properties": {"osmid": 439}, "geometry": {"type": "Point", "coordinates": [-0.026303073990980932, 51.48060952531835]}}, {"type": "Feature", "properties": {"osmid": 440}, "geometry": {"type": "Point", "coordinates": [-0.025625899972627486, 51.477608550434724]}}, {"type": "Feature", "properties": {"osmid": 441}, "geometry": {"type": "Point", "coordinates": [-0.0068069000000012085, 51.48896119999999]}}, {"type": "Feature", "properties": {"osmid": 442}, "geometry": {"type": "Point", "coordinates": [-0.0033463000000000945, 51.5092689]}}, {"type": "Feature", "properties": {"osmid": 443}, "geometry": {"type": "Point", "coordinates": [-0.008655800000001419, 51.4714799]}}, {"type": "Feature", "properties": {"osmid": 444}, "geometry": {"type": "Point", "coordinates": [-0.021536900317898993, 51.49055795010862]}}, {"type": "Feature", "properties": {"osmid": 445}, "geometry": {"type": "Point", "coordinates": [-0.020659900000002094, 51.4910734]}}, {"type": "Feature", "properties": {"osmid": 446}, "geometry": {"type": "Point", "coordinates": [-0.019488900000000857, 51.491099]}}, {"type": "Feature", "properties": {"osmid": 447}, "geometry": {"type": "Point", "coordinates": [-0.0054765712678262815, 51.51501674886819]}}, {"type": "Feature", "properties": {"osmid": 448}, "geometry": {"type": "Point", "coordinates": [-0.017988699999999126, 51.49102]}}, {"type": "Feature", "properties": {"osmid": 449}, "geometry": {"type": "Point", "coordinates": [-0.021225988758775943, 51.48943468166654]}}, {"type": "Feature", "properties": {"osmid": 450}, "geometry": {"type": "Point", "coordinates": [-0.02011760000000002, 51.47508629999999]}}, {"type": "Feature", "properties": {"osmid": 451}, "geometry": {"type": "Point", "coordinates": [-0.019409299201406015, 51.473551250415284]}}, {"type": "Feature", "properties": {"osmid": 452}, "geometry": {"type": "Point", "coordinates": [-0.05123405653554376, 51.47332325565005]}}, {"type": "Feature", "properties": {"osmid": 453}, "geometry": {"type": "Point", "coordinates": [-0.05272810000000117, 51.47297369999998]}}, {"type": "Feature", "properties": {"osmid": 454}, "geometry": {"type": "Point", "coordinates": [-0.05024870000000032, 51.473632699999996]}}, {"type": "Feature", "properties": {"osmid": 455}, "geometry": {"type": "Point", "coordinates": [-0.05272200000000027, 51.4743043]}}, {"type": "Feature", "properties": {"osmid": 456}, "geometry": {"type": "Point", "coordinates": [-0.052114449801540355, 51.47111505001294]}}, {"type": "Feature", "properties": {"osmid": 457}, "geometry": {"type": "Point", "coordinates": [-0.05480214989596091, 51.47303355021121]}}, {"type": "Feature", "properties": {"osmid": 458}, "geometry": {"type": "Point", "coordinates": [-0.03377670000000098, 51.5034634]}}, {"type": "Feature", "properties": {"osmid": 459}, "geometry": {"type": "Point", "coordinates": [-0.03334139999999937, 51.501945600000006]}}, {"type": "Feature", "properties": {"osmid": 460}, "geometry": {"type": "Point", "coordinates": [-0.034174000000001425, 51.5045072]}}, {"type": "Feature", "properties": {"osmid": 461}, "geometry": {"type": "Point", "coordinates": [-0.03477190652275762, 51.499833993133436]}}, {"type": "Feature", "properties": {"osmid": 462}, "geometry": {"type": "Point", "coordinates": [-0.034323199999998666, 51.50569290000001]}}, {"type": "Feature", "properties": {"osmid": 463}, "geometry": {"type": "Point", "coordinates": [-0.029300000000000197, 51.4744924]}}, {"type": "Feature", "properties": {"osmid": 464}, "geometry": {"type": "Point", "coordinates": [-0.03057101988402643, 51.47566780499416]}}, {"type": "Feature", "properties": {"osmid": 465}, "geometry": {"type": "Point", "coordinates": [-0.009760299999999727, 51.51764839999999]}}, {"type": "Feature", "properties": {"osmid": 466}, "geometry": {"type": "Point", "coordinates": [-0.01057959991410849, 51.52040215002983]}}, {"type": "Feature", "properties": {"osmid": 467}, "geometry": {"type": "Point", "coordinates": [-0.0257382000000008, 51.49630599999998]}}, {"type": "Feature", "properties": {"osmid": 468}, "geometry": {"type": "Point", "coordinates": [0.004468700000000558, 51.516366899999994]}}, {"type": "Feature", "properties": {"osmid": 469}, "geometry": {"type": "Point", "coordinates": [0.0030032500690310186, 51.49778500001565]}}, {"type": "Feature", "properties": {"osmid": 470}, "geometry": {"type": "Point", "coordinates": [-0.009389799999999414, 51.48794620000001]}}, {"type": "Feature", "properties": {"osmid": 471}, "geometry": {"type": "Point", "coordinates": [-0.012378399890666874, 51.50885990031018]}}, {"type": "Feature", "properties": {"osmid": 472}, "geometry": {"type": "Point", "coordinates": [-0.014986122294714277, 51.50890271625714]}}, {"type": "Feature", "properties": {"osmid": 473}, "geometry": {"type": "Point", "coordinates": [-0.021650399901427943, 51.47074965002167]}}, {"type": "Feature", "properties": {"osmid": 474}, "geometry": {"type": "Point", "coordinates": [-0.03736620000000025, 51.4977832]}}, {"type": "Feature", "properties": {"osmid": 475}, "geometry": {"type": "Point", "coordinates": [-0.03806400000000134, 51.49734289999999]}}, {"type": "Feature", "properties": {"osmid": 476}, "geometry": {"type": "Point", "coordinates": [-0.036738200000000755, 51.498183299999994]}}, {"type": "Feature", "properties": {"osmid": 477}, "geometry": {"type": "Point", "coordinates": [-0.039479900000000206, 51.4965636]}}, {"type": "Feature", "properties": {"osmid": 478}, "geometry": {"type": "Point", "coordinates": [-0.05638639999999927, 51.47942840000001]}}, {"type": "Feature", "properties": {"osmid": 479}, "geometry": {"type": "Point", "coordinates": [-0.05363280000000071, 51.4809504]}}, {"type": "Feature", "properties": {"osmid": 480}, "geometry": {"type": "Point", "coordinates": [-0.03663956063666039, 51.4756302416838]}}, {"type": "Feature", "properties": {"osmid": 481}, "geometry": {"type": "Point", "coordinates": [-0.009612100000000078, 51.4975082]}}, {"type": "Feature", "properties": {"osmid": 482}, "geometry": {"type": "Point", "coordinates": [-0.0353985000000027, 51.4712072]}}, {"type": "Feature", "properties": {"osmid": 483}, "geometry": {"type": "Point", "coordinates": [-0.058615164047166664, 51.50667424324231]}}, {"type": "Feature", "properties": {"osmid": 484}, "geometry": {"type": "Point", "coordinates": [-0.058654149991402935, 51.50890845000057]}}, {"type": "Feature", "properties": {"osmid": 485}, "geometry": {"type": "Point", "coordinates": [-0.05817079999999968, 51.5055453]}}, {"type": "Feature", "properties": {"osmid": 486}, "geometry": {"type": "Point", "coordinates": [-0.03560860000000076, 51.4703262]}}, {"type": "Feature", "properties": {"osmid": 487}, "geometry": {"type": "Point", "coordinates": [-0.03536279999999822, 51.50054250000001]}}, {"type": "Feature", "properties": {"osmid": 488}, "geometry": {"type": "Point", "coordinates": [-0.0347554000000009, 51.4989872]}}, {"type": "Feature", "properties": {"osmid": 489}, "geometry": {"type": "Point", "coordinates": [-0.020005800000001732, 51.512925900000006]}}, {"type": "Feature", "properties": {"osmid": 490}, "geometry": {"type": "Point", "coordinates": [-0.0200607499996275, 51.513739600000115]}}, {"type": "Feature", "properties": {"osmid": 491}, "geometry": {"type": "Point", "coordinates": [-0.019772269312411037, 51.51487041357149]}}, {"type": "Feature", "properties": {"osmid": 492}, "geometry": {"type": "Point", "coordinates": [-0.035696199740926624, 51.50218670001219]}}, {"type": "Feature", "properties": {"osmid": 493}, "geometry": {"type": "Point", "coordinates": [-0.05245590000000063, 51.5067621]}}, {"type": "Feature", "properties": {"osmid": 494}, "geometry": {"type": "Point", "coordinates": [-0.01913711632019916, 51.50914993157176]}}, {"type": "Feature", "properties": {"osmid": 495}, "geometry": {"type": "Point", "coordinates": [-0.03469240000000028, 51.49840749999999]}}, {"type": "Feature", "properties": {"osmid": 496}, "geometry": {"type": "Point", "coordinates": [-0.056582331827356225, 51.51112568868332]}}, {"type": "Feature", "properties": {"osmid": 497}, "geometry": {"type": "Point", "coordinates": [-0.057850700000000824, 51.511107599999995]}}, {"type": "Feature", "properties": {"osmid": 498}, "geometry": {"type": "Point", "coordinates": [0.0036993000000003894, 51.5217562]}}, {"type": "Feature", "properties": {"osmid": 499}, "geometry": {"type": "Point", "coordinates": [0.0037830500007919226, 51.520572300004446]}}, {"type": "Feature", "properties": {"osmid": 500}, "geometry": {"type": "Point", "coordinates": [0.00028615013873113914, 51.521288850163295]}}, {"type": "Feature", "properties": {"osmid": 501}, "geometry": {"type": "Point", "coordinates": [0.004257200000001567, 51.519249300000006]}}, {"type": "Feature", "properties": {"osmid": 502}, "geometry": {"type": "Point", "coordinates": [-0.04903570000000039, 51.47391600000001]}}, {"type": "Feature", "properties": {"osmid": 503}, "geometry": {"type": "Point", "coordinates": [-0.02577979999999974, 51.5201422]}}, {"type": "Feature", "properties": {"osmid": 504}, "geometry": {"type": "Point", "coordinates": [-0.0240448, 51.519473299999994]}}, {"type": "Feature", "properties": {"osmid": 505}, "geometry": {"type": "Point", "coordinates": [-0.04859170027706019, 51.49875030023163]}}, {"type": "Feature", "properties": {"osmid": 506}, "geometry": {"type": "Point", "coordinates": [-0.017671700000000436, 51.508969799999996]}}, {"type": "Feature", "properties": {"osmid": 507}, "geometry": {"type": "Point", "coordinates": [-0.0175862000000003, 51.520497899999995]}}, {"type": "Feature", "properties": {"osmid": 508}, "geometry": {"type": "Point", "coordinates": [0.018532200000000058, 51.5172876]}}, {"type": "Feature", "properties": {"osmid": 509}, "geometry": {"type": "Point", "coordinates": [-0.02907910000000006, 51.470533800000005]}}, {"type": "Feature", "properties": {"osmid": 510}, "geometry": {"type": "Point", "coordinates": [-0.02836669963410168, 51.46997755008765]}}, {"type": "Feature", "properties": {"osmid": 511}, "geometry": {"type": "Point", "coordinates": [0.011161299999998759, 51.49007]}}, {"type": "Feature", "properties": {"osmid": 512}, "geometry": {"type": "Point", "coordinates": [0.0037888999999978893, 51.4954684]}}, {"type": "Feature", "properties": {"osmid": 513}, "geometry": {"type": "Point", "coordinates": [-0.03386655004874823, 51.470489750010216]}}, {"type": "Feature", "properties": {"osmid": 514}, "geometry": {"type": "Point", "coordinates": [0.012868900000000127, 51.5163074]}}, {"type": "Feature", "properties": {"osmid": 515}, "geometry": {"type": "Point", "coordinates": [0.005434500000000204, 51.51489399999999]}}, {"type": "Feature", "properties": {"osmid": 516}, "geometry": {"type": "Point", "coordinates": [-0.008394299999999934, 51.5148034]}}, {"type": "Feature", "properties": {"osmid": 517}, "geometry": {"type": "Point", "coordinates": [-0.05378810000000124, 51.481744299999995]}}, {"type": "Feature", "properties": {"osmid": 518}, "geometry": {"type": "Point", "coordinates": [-0.057407849988386654, 51.479813550005744]}}, {"type": "Feature", "properties": {"osmid": 519}, "geometry": {"type": "Point", "coordinates": [-0.058369800000000936, 51.48017599999999]}}, {"type": "Feature", "properties": {"osmid": 520}, "geometry": {"type": "Point", "coordinates": [-0.00942890000000119, 51.49872439999999]}}, {"type": "Feature", "properties": {"osmid": 521}, "geometry": {"type": "Point", "coordinates": [-0.010574099999999887, 51.499652700000006]}}, {"type": "Feature", "properties": {"osmid": 522}, "geometry": {"type": "Point", "coordinates": [-0.05846889990735781, 51.51466210006309]}}, {"type": "Feature", "properties": {"osmid": 523}, "geometry": {"type": "Point", "coordinates": [0.005530000000001313, 51.49450399999999]}}, {"type": "Feature", "properties": {"osmid": 524}, "geometry": {"type": "Point", "coordinates": [-0.04985060000000037, 51.51687859999999]}}, {"type": "Feature", "properties": {"osmid": 525}, "geometry": {"type": "Point", "coordinates": [-0.011932800000001109, 51.50728549999999]}}, {"type": "Feature", "properties": {"osmid": 526}, "geometry": {"type": "Point", "coordinates": [-0.016720999817347808, 51.507260150297626]}}, {"type": "Feature", "properties": {"osmid": 527}, "geometry": {"type": "Point", "coordinates": [-0.018519799999999375, 51.50039249999999]}}, {"type": "Feature", "properties": {"osmid": 528}, "geometry": {"type": "Point", "coordinates": [-0.008815400000000185, 51.515862299999995]}}, {"type": "Feature", "properties": {"osmid": 529}, "geometry": {"type": "Point", "coordinates": [-0.016366500000001234, 51.4908276]}}, {"type": "Feature", "properties": {"osmid": 530}, "geometry": {"type": "Point", "coordinates": [0.008047900000000531, 51.4949414]}}, {"type": "Feature", "properties": {"osmid": 531}, "geometry": {"type": "Point", "coordinates": [0.0070031999999984615, 51.49583309999999]}}, {"type": "Feature", "properties": {"osmid": 532}, "geometry": {"type": "Point", "coordinates": [0.0054446499607562725, 51.49675365000948]}}, {"type": "Feature", "properties": {"osmid": 533}, "geometry": {"type": "Point", "coordinates": [-0.016450299999999734, 51.5068269]}}, {"type": "Feature", "properties": {"osmid": 534}, "geometry": {"type": "Point", "coordinates": [-0.01689069999999829, 51.5191843]}}, {"type": "Feature", "properties": {"osmid": 535}, "geometry": {"type": "Point", "coordinates": [-0.016156300000000543, 51.5178127]}}, {"type": "Feature", "properties": {"osmid": 536}, "geometry": {"type": "Point", "coordinates": [-0.014174449410852495, 51.470285700067855]}}, {"type": "Feature", "properties": {"osmid": 537}, "geometry": {"type": "Point", "coordinates": [-0.057990000000002095, 51.47601029999999]}}, {"type": "Feature", "properties": {"osmid": 538}, "geometry": {"type": "Point", "coordinates": [-0.05825990000000117, 51.476790799999996]}}, {"type": "Feature", "properties": {"osmid": 539}, "geometry": {"type": "Point", "coordinates": [-0.0586231518064428, 51.47743402293692]}}, {"type": "Feature", "properties": {"osmid": 540}, "geometry": {"type": "Point", "coordinates": [-0.016064000000000637, 51.51725079999999]}}, {"type": "Feature", "properties": {"osmid": 541}, "geometry": {"type": "Point", "coordinates": [-0.01575467542219201, 51.516096940027]}}, {"type": "Feature", "properties": {"osmid": 542}, "geometry": {"type": "Point", "coordinates": [0.0036921000000008637, 51.517315700000005]}}, {"type": "Feature", "properties": {"osmid": 543}, "geometry": {"type": "Point", "coordinates": [0.004913599999997826, 51.517573299999995]}}, {"type": "Feature", "properties": {"osmid": 544}, "geometry": {"type": "Point", "coordinates": [0.00545129999999976, 51.516711999999984]}}, {"type": "Feature", "properties": {"osmid": 545}, "geometry": {"type": "Point", "coordinates": [0.007111399999999375, 51.4959068]}}, {"type": "Feature", "properties": {"osmid": 546}, "geometry": {"type": "Point", "coordinates": [-0.058445800000001276, 51.498877699999994]}}, {"type": "Feature", "properties": {"osmid": 547}, "geometry": {"type": "Point", "coordinates": [-0.001369149886773527, 51.521506700286444]}}, {"type": "Feature", "properties": {"osmid": 548}, "geometry": {"type": "Point", "coordinates": [0.007425800000000269, 51.49331289999999]}}, {"type": "Feature", "properties": {"osmid": 549}, "geometry": {"type": "Point", "coordinates": [-0.04489730000000213, 51.5209619]}}, {"type": "Feature", "properties": {"osmid": 550}, "geometry": {"type": "Point", "coordinates": [-0.00951260000000025, 51.517662699999995]}}, {"type": "Feature", "properties": {"osmid": 551}, "geometry": {"type": "Point", "coordinates": [-0.02104420000000044, 51.47020599999999]}}, {"type": "Feature", "properties": {"osmid": 552}, "geometry": {"type": "Point", "coordinates": [-0.025180600000000334, 51.49471799999999]}}, {"type": "Feature", "properties": {"osmid": 553}, "geometry": {"type": "Point", "coordinates": [-0.014862500000001255, 51.5149224]}}, {"type": "Feature", "properties": {"osmid": 554}, "geometry": {"type": "Point", "coordinates": [-0.014422099999999913, 51.5139293]}}, {"type": "Feature", "properties": {"osmid": 555}, "geometry": {"type": "Point", "coordinates": [-0.02567299999999975, 51.4957078]}}, {"type": "Feature", "properties": {"osmid": 556}, "geometry": {"type": "Point", "coordinates": [-0.004393149971312679, 51.52209015007975]}}, {"type": "Feature", "properties": {"osmid": 557}, "geometry": {"type": "Point", "coordinates": [-0.032830400000000516, 51.4751368]}}, {"type": "Feature", "properties": {"osmid": 558}, "geometry": {"type": "Point", "coordinates": [-0.04483479999999991, 51.4713001]}}, {"type": "Feature", "properties": {"osmid": 559}, "geometry": {"type": "Point", "coordinates": [-0.01011620000000131, 51.51917879999999]}}, {"type": "Feature", "properties": {"osmid": 560}, "geometry": {"type": "Point", "coordinates": [0.01699399976325178, 51.51702355044443]}}, {"type": "Feature", "properties": {"osmid": 561}, "geometry": {"type": "Point", "coordinates": [-0.009517100000000151, 51.498062]}}, {"type": "Feature", "properties": {"osmid": 562}, "geometry": {"type": "Point", "coordinates": [-0.008933300000000172, 51.47024820000001]}}, {"type": "Feature", "properties": {"osmid": 563}, "geometry": {"type": "Point", "coordinates": [-0.04458009999999979, 51.470482299999986]}}]}