{"type": "FeatureCollection", "features": [{"type": "Feature", "properties": {"osmid": 0}, "geometry": {"type": "Point", "coordinates": [18.6512205, 54.3531481]}}, {"type": "Feature", "properties": {"osmid": 1}, "geometry": {"type": "Point", "coordinates": [18.649038126041074, 54.35228165339743]}}, {"type": "Feature", "properties": {"osmid": 2}, "geometry": {"type": "Point", "coordinates": [18.650696850250018, 54.353870150042475]}}, {"type": "Feature", "properties": {"osmid": 3}, "geometry": {"type": "Point", "coordinates": [18.6525816, 54.35331519999999]}}, {"type": "Feature", "properties": {"osmid": 4}, "geometry": {"type": "Point", "coordinates": [18.6480166818084, 54.35198886544078]}}, {"type": "Feature", "properties": {"osmid": 5}, "geometry": {"type": "Point", "coordinates": [18.6488249, 54.355750699999994]}}, {"type": "Feature", "properties": {"osmid": 6}, "geometry": {"type": "Point", "coordinates": [18.6537707, 54.353447300000006]}}, {"type": "Feature", "properties": {"osmid": 7}, "geometry": {"type": "Point", "coordinates": [18.710563350893782, 54.383420450301024]}}, {"type": "Feature", "properties": {"osmid": 8}, "geometry": {"type": "Point", "coordinates": [18.7079642, 54.3837605]}}, {"type": "Feature", "properties": {"osmid": 9}, "geometry": {"type": "Point", "coordinates": [18.7028051, 54.34379380000001]}}, {"type": "Feature", "properties": {"osmid": 10}, "geometry": {"type": "Point", "coordinates": [18.71701763649313, 54.3476794255916]}}, {"type": "Feature", "properties": {"osmid": 11}, "geometry": {"type": "Point", "coordinates": [18.7018356, 54.3435218]}}, {"type": "Feature", "properties": {"osmid": 12}, "geometry": {"type": "Point", "coordinates": [18.7187393, 54.3458372]}}, {"type": "Feature", "properties": {"osmid": 13}, "geometry": {"type": "Point", "coordinates": [18.7126631, 54.3506325]}}, {"type": "Feature", "properties": {"osmid": 14}, "geometry": {"type": "Point", "coordinates": [18.718320749919652, 54.34676340002319]}}, {"type": "Feature", "properties": {"osmid": 15}, "geometry": {"type": "Point", "coordinates": [18.69972268757465, 54.343303582948224]}}, {"type": "Feature", "properties": {"osmid": 16}, "geometry": {"type": "Point", "coordinates": [18.6211453, 54.34506749999999]}}, {"type": "Feature", "properties": {"osmid": 17}, "geometry": {"type": "Point", "coordinates": [18.641521647259008, 54.348267033488156]}}, {"type": "Feature", "properties": {"osmid": 18}, "geometry": {"type": "Point", "coordinates": [18.6424898, 54.34767219999999]}}, {"type": "Feature", "properties": {"osmid": 19}, "geometry": {"type": "Point", "coordinates": [18.6211129, 54.3453617]}}, {"type": "Feature", "properties": {"osmid": 20}, "geometry": {"type": "Point", "coordinates": [18.6228973, 54.33804859999999]}}, {"type": "Feature", "properties": {"osmid": 21}, "geometry": {"type": "Point", "coordinates": [18.621416800204127, 54.338123800728006]}}, {"type": "Feature", "properties": {"osmid": 22}, "geometry": {"type": "Point", "coordinates": [18.6228755, 54.3379656]}}, {"type": "Feature", "properties": {"osmid": 23}, "geometry": {"type": "Point", "coordinates": [18.620895700998066, 54.35853560045701]}}, {"type": "Feature", "properties": {"osmid": 24}, "geometry": {"type": "Point", "coordinates": [18.6201776, 54.3576773]}}, {"type": "Feature", "properties": {"osmid": 25}, "geometry": {"type": "Point", "coordinates": [18.6252867, 54.358638899999995]}}, {"type": "Feature", "properties": {"osmid": 26}, "geometry": {"type": "Point", "coordinates": [18.6298412, 54.35617810000001]}}, {"type": "Feature", "properties": {"osmid": 27}, "geometry": {"type": "Point", "coordinates": [18.6305649, 54.3557075]}}, {"type": "Feature", "properties": {"osmid": 28}, "geometry": {"type": "Point", "coordinates": [18.633669064739482, 54.353602148110475]}}, {"type": "Feature", "properties": {"osmid": 29}, "geometry": {"type": "Point", "coordinates": [18.63441088703361, 54.33192314899126]}}, {"type": "Feature", "properties": {"osmid": 30}, "geometry": {"type": "Point", "coordinates": [18.635054400000005, 54.3330847]}}, {"type": "Feature", "properties": {"osmid": 31}, "geometry": {"type": "Point", "coordinates": [18.635206600000004, 54.3526763]}}, {"type": "Feature", "properties": {"osmid": 32}, "geometry": {"type": "Point", "coordinates": [18.6347552, 54.354369600000005]}}, {"type": "Feature", "properties": {"osmid": 33}, "geometry": {"type": "Point", "coordinates": [18.6525372, 54.3427863]}}, {"type": "Feature", "properties": {"osmid": 34}, "geometry": {"type": "Point", "coordinates": [18.653791, 54.3421029]}}, {"type": "Feature", "properties": {"osmid": 35}, "geometry": {"type": "Point", "coordinates": [18.650223, 54.344015]}}, {"type": "Feature", "properties": {"osmid": 36}, "geometry": {"type": "Point", "coordinates": [18.6549796, 54.3414517]}}, {"type": "Feature", "properties": {"osmid": 37}, "geometry": {"type": "Point", "coordinates": [18.6494219, 54.3443269]}}, {"type": "Feature", "properties": {"osmid": 38}, "geometry": {"type": "Point", "coordinates": [18.64207509378811, 54.361110807226375]}}, {"type": "Feature", "properties": {"osmid": 39}, "geometry": {"type": "Point", "coordinates": [18.6435001, 54.3619486]}}, {"type": "Feature", "properties": {"osmid": 40}, "geometry": {"type": "Point", "coordinates": [18.6414564, 54.3624463]}}, {"type": "Feature", "properties": {"osmid": 41}, "geometry": {"type": "Point", "coordinates": [18.646348092260514, 54.35762312202586]}}, {"type": "Feature", "properties": {"osmid": 42}, "geometry": {"type": "Point", "coordinates": [18.6411791, 54.3596634]}}, {"type": "Feature", "properties": {"osmid": 43}, "geometry": {"type": "Point", "coordinates": [18.65055705044927, 54.362644700170236]}}, {"type": "Feature", "properties": {"osmid": 44}, "geometry": {"type": "Point", "coordinates": [18.64764320036616, 54.3868492000764]}}, {"type": "Feature", "properties": {"osmid": 45}, "geometry": {"type": "Point", "coordinates": [18.6501741705422, 54.38794028369756]}}, {"type": "Feature", "properties": {"osmid": 46}, "geometry": {"type": "Point", "coordinates": [18.645579705138545, 54.386051624245525]}}, {"type": "Feature", "properties": {"osmid": 47}, "geometry": {"type": "Point", "coordinates": [18.6534913, 54.38672689999999]}}, {"type": "Feature", "properties": {"osmid": 48}, "geometry": {"type": "Point", "coordinates": [18.65744710012976, 54.39205315005069]}}, {"type": "Feature", "properties": {"osmid": 49}, "geometry": {"type": "Point", "coordinates": [18.646216200000005, 54.389839899999984]}}, {"type": "Feature", "properties": {"osmid": 50}, "geometry": {"type": "Point", "coordinates": [18.66562294968321, 54.338526250014255]}}, {"type": "Feature", "properties": {"osmid": 51}, "geometry": {"type": "Point", "coordinates": [18.6633723, 54.33813099999999]}}, {"type": "Feature", "properties": {"osmid": 52}, "geometry": {"type": "Point", "coordinates": [18.6659858, 54.3399778]}}, {"type": "Feature", "properties": {"osmid": 53}, "geometry": {"type": "Point", "coordinates": [18.661049700000003, 54.337335899999985]}}, {"type": "Feature", "properties": {"osmid": 54}, "geometry": {"type": "Point", "coordinates": [18.64545060001657, 54.34636010000096]}}, {"type": "Feature", "properties": {"osmid": 55}, "geometry": {"type": "Point", "coordinates": [18.645846728774377, 54.34963920256249]}}, {"type": "Feature", "properties": {"osmid": 56}, "geometry": {"type": "Point", "coordinates": [18.645361624329798, 54.34752234342279]}}, {"type": "Feature", "properties": {"osmid": 57}, "geometry": {"type": "Point", "coordinates": [18.6452995, 54.34623009999999]}}, {"type": "Feature", "properties": {"osmid": 58}, "geometry": {"type": "Point", "coordinates": [18.649071600253578, 54.34707305031987]}}, {"type": "Feature", "properties": {"osmid": 59}, "geometry": {"type": "Point", "coordinates": [18.6442667, 54.3480024]}}, {"type": "Feature", "properties": {"osmid": 60}, "geometry": {"type": "Point", "coordinates": [18.645142393823498, 54.34513664620249]}}, {"type": "Feature", "properties": {"osmid": 61}, "geometry": {"type": "Point", "coordinates": [18.6552802, 54.403012399999994]}}, {"type": "Feature", "properties": {"osmid": 62}, "geometry": {"type": "Point", "coordinates": [18.652772700027327, 54.40415235000282]}}, {"type": "Feature", "properties": {"osmid": 63}, "geometry": {"type": "Point", "coordinates": [18.657794500494248, 54.4019203502056]}}, {"type": "Feature", "properties": {"osmid": 64}, "geometry": {"type": "Point", "coordinates": [18.6630474, 54.39963]}}, {"type": "Feature", "properties": {"osmid": 65}, "geometry": {"type": "Point", "coordinates": [18.6225262, 54.39212280000001]}}, {"type": "Feature", "properties": {"osmid": 66}, "geometry": {"type": "Point", "coordinates": [18.6224901, 54.394538399999995]}}, {"type": "Feature", "properties": {"osmid": 67}, "geometry": {"type": "Point", "coordinates": [18.622321548610053, 54.397291840748956]}}, {"type": "Feature", "properties": {"osmid": 68}, "geometry": {"type": "Point", "coordinates": [18.6850218, 54.369557500000006]}}, {"type": "Feature", "properties": {"osmid": 69}, "geometry": {"type": "Point", "coordinates": [18.6883438, 54.36492049999999]}}, {"type": "Feature", "properties": {"osmid": 70}, "geometry": {"type": "Point", "coordinates": [18.69078360000387, 54.36155500000334]}}, {"type": "Feature", "properties": {"osmid": 71}, "geometry": {"type": "Point", "coordinates": [18.660578, 54.3366957]}}, {"type": "Feature", "properties": {"osmid": 72}, "geometry": {"type": "Point", "coordinates": [18.64810771718355, 54.35946526807476]}}, {"type": "Feature", "properties": {"osmid": 73}, "geometry": {"type": "Point", "coordinates": [18.6478706, 54.3565768]}}, {"type": "Feature", "properties": {"osmid": 74}, "geometry": {"type": "Point", "coordinates": [18.644772681395974, 54.353874207650115]}}, {"type": "Feature", "properties": {"osmid": 75}, "geometry": {"type": "Point", "coordinates": [18.64191838376369, 54.351714748098]}}, {"type": "Feature", "properties": {"osmid": 76}, "geometry": {"type": "Point", "coordinates": [18.641791800000004, 54.35046469999999]}}, {"type": "Feature", "properties": {"osmid": 77}, "geometry": {"type": "Point", "coordinates": [18.6436416, 54.3517706]}}, {"type": "Feature", "properties": {"osmid": 78}, "geometry": {"type": "Point", "coordinates": [18.638867200000004, 54.35150240000001]}}, {"type": "Feature", "properties": {"osmid": 79}, "geometry": {"type": "Point", "coordinates": [18.6434125, 54.3581496]}}, {"type": "Feature", "properties": {"osmid": 80}, "geometry": {"type": "Point", "coordinates": [18.641574800014116, 54.34937445000085]}}, {"type": "Feature", "properties": {"osmid": 81}, "geometry": {"type": "Point", "coordinates": [18.6357358, 54.334870599999995]}}, {"type": "Feature", "properties": {"osmid": 82}, "geometry": {"type": "Point", "coordinates": [18.6354554, 54.334171100000006]}}, {"type": "Feature", "properties": {"osmid": 83}, "geometry": {"type": "Point", "coordinates": [18.6411969, 54.3405934]}}, {"type": "Feature", "properties": {"osmid": 84}, "geometry": {"type": "Point", "coordinates": [18.64261785798485, 54.34226040405341]}}, {"type": "Feature", "properties": {"osmid": 85}, "geometry": {"type": "Point", "coordinates": [18.679788800000004, 54.3457495]}}, {"type": "Feature", "properties": {"osmid": 86}, "geometry": {"type": "Point", "coordinates": [18.6784922, 54.345577899999995]}}, {"type": "Feature", "properties": {"osmid": 87}, "geometry": {"type": "Point", "coordinates": [18.6823753, 54.3477497]}}, {"type": "Feature", "properties": {"osmid": 88}, "geometry": {"type": "Point", "coordinates": [18.6775357, 54.3454468]}}, {"type": "Feature", "properties": {"osmid": 89}, "geometry": {"type": "Point", "coordinates": [18.68316604006941, 54.348765628516524]}}, {"type": "Feature", "properties": {"osmid": 90}, "geometry": {"type": "Point", "coordinates": [18.6948441, 54.349379899999995]}}, {"type": "Feature", "properties": {"osmid": 91}, "geometry": {"type": "Point", "coordinates": [18.6787535, 54.3492781]}}, {"type": "Feature", "properties": {"osmid": 92}, "geometry": {"type": "Point", "coordinates": [18.692982233211822, 54.360447303095256]}}, {"type": "Feature", "properties": {"osmid": 93}, "geometry": {"type": "Point", "coordinates": [18.6999181, 54.363394099999994]}}, {"type": "Feature", "properties": {"osmid": 94}, "geometry": {"type": "Point", "coordinates": [18.69145135030446, 54.35994450003611]}}, {"type": "Feature", "properties": {"osmid": 95}, "geometry": {"type": "Point", "coordinates": [18.6909639, 54.3617946]}}, {"type": "Feature", "properties": {"osmid": 96}, "geometry": {"type": "Point", "coordinates": [18.70519705036869, 54.36272030014994]}}, {"type": "Feature", "properties": {"osmid": 97}, "geometry": {"type": "Point", "coordinates": [18.671554, 54.3489599]}}, {"type": "Feature", "properties": {"osmid": 98}, "geometry": {"type": "Point", "coordinates": [18.669826856212396, 54.34851044650816]}}, {"type": "Feature", "properties": {"osmid": 99}, "geometry": {"type": "Point", "coordinates": [18.6705697, 54.35080889999999]}}, {"type": "Feature", "properties": {"osmid": 100}, "geometry": {"type": "Point", "coordinates": [18.6755076000522, 54.349232000003695]}}, {"type": "Feature", "properties": {"osmid": 101}, "geometry": {"type": "Point", "coordinates": [18.6685861, 54.3462973]}}, {"type": "Feature", "properties": {"osmid": 102}, "geometry": {"type": "Point", "coordinates": [18.6726433, 54.34909699999999]}}, {"type": "Feature", "properties": {"osmid": 103}, "geometry": {"type": "Point", "coordinates": [18.67968579981603, 54.35704215010396]}}, {"type": "Feature", "properties": {"osmid": 104}, "geometry": {"type": "Point", "coordinates": [18.680941549920945, 54.356589250049794]}}, {"type": "Feature", "properties": {"osmid": 105}, "geometry": {"type": "Point", "coordinates": [18.6829114, 54.35746550000001]}}, {"type": "Feature", "properties": {"osmid": 106}, "geometry": {"type": "Point", "coordinates": [18.672007276416803, 54.35255818520571]}}, {"type": "Feature", "properties": {"osmid": 107}, "geometry": {"type": "Point", "coordinates": [18.67316377816158, 54.35184250641402]}}, {"type": "Feature", "properties": {"osmid": 108}, "geometry": {"type": "Point", "coordinates": [18.671188400000002, 54.351987300000005]}}, {"type": "Feature", "properties": {"osmid": 109}, "geometry": {"type": "Point", "coordinates": [18.670342500000004, 54.350863]}}, {"type": "Feature", "properties": {"osmid": 110}, "geometry": {"type": "Point", "coordinates": [18.6739703, 54.3510668]}}, {"type": "Feature", "properties": {"osmid": 111}, "geometry": {"type": "Point", "coordinates": [18.675110264368726, 54.35005949934673]}}, {"type": "Feature", "properties": {"osmid": 112}, "geometry": {"type": "Point", "coordinates": [18.6743136505746, 54.3509958501034]}}, {"type": "Feature", "properties": {"osmid": 113}, "geometry": {"type": "Point", "coordinates": [18.6373252, 54.3861464]}}, {"type": "Feature", "properties": {"osmid": 114}, "geometry": {"type": "Point", "coordinates": [18.636199299970695, 54.38699435001088]}}, {"type": "Feature", "properties": {"osmid": 115}, "geometry": {"type": "Point", "coordinates": [18.63490369997168, 54.38802440001263]}}, {"type": "Feature", "properties": {"osmid": 116}, "geometry": {"type": "Point", "coordinates": [18.6372179, 54.3861016]}}, {"type": "Feature", "properties": {"osmid": 117}, "geometry": {"type": "Point", "coordinates": [18.64695680094949, 54.36093220021156]}}, {"type": "Feature", "properties": {"osmid": 118}, "geometry": {"type": "Point", "coordinates": [18.649952, 54.35832619999999]}}, {"type": "Feature", "properties": {"osmid": 119}, "geometry": {"type": "Point", "coordinates": [18.643577550117868, 54.38520585002869]}}, {"type": "Feature", "properties": {"osmid": 120}, "geometry": {"type": "Point", "coordinates": [18.6566658611156, 54.33351205111303]}}, {"type": "Feature", "properties": {"osmid": 121}, "geometry": {"type": "Point", "coordinates": [18.6580314, 54.3339251]}}, {"type": "Feature", "properties": {"osmid": 122}, "geometry": {"type": "Point", "coordinates": [18.6532884, 54.334253199999985]}}, {"type": "Feature", "properties": {"osmid": 123}, "geometry": {"type": "Point", "coordinates": [18.6974196, 54.3463465]}}, {"type": "Feature", "properties": {"osmid": 124}, "geometry": {"type": "Point", "coordinates": [18.6992808, 54.350131]}}, {"type": "Feature", "properties": {"osmid": 125}, "geometry": {"type": "Point", "coordinates": [18.6518092, 54.3345292]}}, {"type": "Feature", "properties": {"osmid": 126}, "geometry": {"type": "Point", "coordinates": [18.6601163, 54.3345417]}}, {"type": "Feature", "properties": {"osmid": 127}, "geometry": {"type": "Point", "coordinates": [18.625065000094796, 54.37160460000499]}}, {"type": "Feature", "properties": {"osmid": 128}, "geometry": {"type": "Point", "coordinates": [18.630396895697334, 54.36863642079375]}}, {"type": "Feature", "properties": {"osmid": 129}, "geometry": {"type": "Point", "coordinates": [18.6325723, 54.367047299999996]}}, {"type": "Feature", "properties": {"osmid": 130}, "geometry": {"type": "Point", "coordinates": [18.6364215, 54.3650042]}}, {"type": "Feature", "properties": {"osmid": 131}, "geometry": {"type": "Point", "coordinates": [18.624182299536905, 54.37247060014471]}}, {"type": "Feature", "properties": {"osmid": 132}, "geometry": {"type": "Point", "coordinates": [18.638144093964296, 54.363847555262026]}}, {"type": "Feature", "properties": {"osmid": 133}, "geometry": {"type": "Point", "coordinates": [18.64885815336526, 54.33551224878643]}}, {"type": "Feature", "properties": {"osmid": 134}, "geometry": {"type": "Point", "coordinates": [18.647728100000002, 54.340342799999995]}}, {"type": "Feature", "properties": {"osmid": 135}, "geometry": {"type": "Point", "coordinates": [18.6466912, 54.3337915]}}, {"type": "Feature", "properties": {"osmid": 136}, "geometry": {"type": "Point", "coordinates": [18.66587187767985, 54.398157257150494]}}, {"type": "Feature", "properties": {"osmid": 137}, "geometry": {"type": "Point", "coordinates": [18.6670634, 54.39873969999999]}}, {"type": "Feature", "properties": {"osmid": 138}, "geometry": {"type": "Point", "coordinates": [18.6678032, 54.39751629999999]}}, {"type": "Feature", "properties": {"osmid": 139}, "geometry": {"type": "Point", "coordinates": [18.6641233, 54.39904080000001]}}, {"type": "Feature", "properties": {"osmid": 140}, "geometry": {"type": "Point", "coordinates": [18.670152460085998, 54.39897332082161]}}, {"type": "Feature", "properties": {"osmid": 141}, "geometry": {"type": "Point", "coordinates": [18.670079600000005, 54.39672529999999]}}, {"type": "Feature", "properties": {"osmid": 142}, "geometry": {"type": "Point", "coordinates": [18.67938395550833, 54.378441283704184]}}, {"type": "Feature", "properties": {"osmid": 143}, "geometry": {"type": "Point", "coordinates": [18.6757138, 54.379111099999996]}}, {"type": "Feature", "properties": {"osmid": 144}, "geometry": {"type": "Point", "coordinates": [18.68252870005866, 54.37480805159069]}}, {"type": "Feature", "properties": {"osmid": 145}, "geometry": {"type": "Point", "coordinates": [18.6859724, 54.3877294]}}, {"type": "Feature", "properties": {"osmid": 146}, "geometry": {"type": "Point", "coordinates": [18.6535826, 54.3868368]}}, {"type": "Feature", "properties": {"osmid": 147}, "geometry": {"type": "Point", "coordinates": [18.683968800000002, 54.37265250000001]}}, {"type": "Feature", "properties": {"osmid": 148}, "geometry": {"type": "Point", "coordinates": [18.682730404705826, 54.37684068647782]}}, {"type": "Feature", "properties": {"osmid": 149}, "geometry": {"type": "Point", "coordinates": [18.6846463, 54.3751068]}}, {"type": "Feature", "properties": {"osmid": 150}, "geometry": {"type": "Point", "coordinates": [18.69111364998771, 54.37962960002122]}}, {"type": "Feature", "properties": {"osmid": 151}, "geometry": {"type": "Point", "coordinates": [18.636161250047913, 54.38958875002246]}}, {"type": "Feature", "properties": {"osmid": 152}, "geometry": {"type": "Point", "coordinates": [18.6370563000465, 54.39046250002406]}}, {"type": "Feature", "properties": {"osmid": 153}, "geometry": {"type": "Point", "coordinates": [18.63779410003703, 54.39118945002157]}}, {"type": "Feature", "properties": {"osmid": 154}, "geometry": {"type": "Point", "coordinates": [18.6761894, 54.4010276]}}, {"type": "Feature", "properties": {"osmid": 155}, "geometry": {"type": "Point", "coordinates": [18.67306425003616, 54.401857400049856]}}, {"type": "Feature", "properties": {"osmid": 156}, "geometry": {"type": "Point", "coordinates": [18.6716275, 54.40201299999999]}}, {"type": "Feature", "properties": {"osmid": 157}, "geometry": {"type": "Point", "coordinates": [18.7079644, 54.3611222]}}, {"type": "Feature", "properties": {"osmid": 158}, "geometry": {"type": "Point", "coordinates": [18.7088612, 54.360540300000004]}}, {"type": "Feature", "properties": {"osmid": 159}, "geometry": {"type": "Point", "coordinates": [18.7111357, 54.3610109]}}, {"type": "Feature", "properties": {"osmid": 160}, "geometry": {"type": "Point", "coordinates": [18.6264353, 54.367162699999994]}}, {"type": "Feature", "properties": {"osmid": 161}, "geometry": {"type": "Point", "coordinates": [18.6645875, 54.4009652]}}, {"type": "Feature", "properties": {"osmid": 162}, "geometry": {"type": "Point", "coordinates": [18.6657332, 54.400542099999996]}}, {"type": "Feature", "properties": {"osmid": 163}, "geometry": {"type": "Point", "coordinates": [18.6671867, 54.4000413]}}, {"type": "Feature", "properties": {"osmid": 164}, "geometry": {"type": "Point", "coordinates": [18.6741765, 54.349216]}}, {"type": "Feature", "properties": {"osmid": 165}, "geometry": {"type": "Point", "coordinates": [18.663410954317698, 54.34460359936925]}}, {"type": "Feature", "properties": {"osmid": 166}, "geometry": {"type": "Point", "coordinates": [18.622299449899607, 54.399404100091694]}}, {"type": "Feature", "properties": {"osmid": 167}, "geometry": {"type": "Point", "coordinates": [18.622197, 54.394538]}}, {"type": "Feature", "properties": {"osmid": 168}, "geometry": {"type": "Point", "coordinates": [18.63466185120391, 54.365836400368316]}}, {"type": "Feature", "properties": {"osmid": 169}, "geometry": {"type": "Point", "coordinates": [18.6211307, 54.4037611]}}, {"type": "Feature", "properties": {"osmid": 170}, "geometry": {"type": "Point", "coordinates": [18.622690760610507, 54.40191733837143]}}, {"type": "Feature", "properties": {"osmid": 171}, "geometry": {"type": "Point", "coordinates": [18.6245211, 54.4044304]}}, {"type": "Feature", "properties": {"osmid": 172}, "geometry": {"type": "Point", "coordinates": [18.626545697760232, 54.3997860997107]}}, {"type": "Feature", "properties": {"osmid": 173}, "geometry": {"type": "Point", "coordinates": [18.6974559, 54.34413039999999]}}, {"type": "Feature", "properties": {"osmid": 174}, "geometry": {"type": "Point", "coordinates": [18.695633118978893, 54.342720810622325]}}, {"type": "Feature", "properties": {"osmid": 175}, "geometry": {"type": "Point", "coordinates": [18.6679347, 54.402406799999994]}}, {"type": "Feature", "properties": {"osmid": 176}, "geometry": {"type": "Point", "coordinates": [18.664760594376013, 54.40276263631946]}}, {"type": "Feature", "properties": {"osmid": 177}, "geometry": {"type": "Point", "coordinates": [18.6648012, 54.40191089999999]}}, {"type": "Feature", "properties": {"osmid": 178}, "geometry": {"type": "Point", "coordinates": [18.6607068, 54.4042532]}}, {"type": "Feature", "properties": {"osmid": 179}, "geometry": {"type": "Point", "coordinates": [18.6225538, 54.37364229999999]}}, {"type": "Feature", "properties": {"osmid": 180}, "geometry": {"type": "Point", "coordinates": [18.62509470037761, 54.37340750002605]}}, {"type": "Feature", "properties": {"osmid": 181}, "geometry": {"type": "Point", "coordinates": [18.620831363847525, 54.37427058882525]}}, {"type": "Feature", "properties": {"osmid": 182}, "geometry": {"type": "Point", "coordinates": [18.6241338, 54.3745172]}}, {"type": "Feature", "properties": {"osmid": 183}, "geometry": {"type": "Point", "coordinates": [18.6239862, 54.337863699999986]}}, {"type": "Feature", "properties": {"osmid": 184}, "geometry": {"type": "Point", "coordinates": [18.627478827756175, 54.337725822288334]}}, {"type": "Feature", "properties": {"osmid": 185}, "geometry": {"type": "Point", "coordinates": [18.70313039977492, 54.351040600153176]}}, {"type": "Feature", "properties": {"osmid": 186}, "geometry": {"type": "Point", "coordinates": [18.70853, 54.351996199999995]}}, {"type": "Feature", "properties": {"osmid": 187}, "geometry": {"type": "Point", "coordinates": [18.7027875, 54.35108329999999]}}, {"type": "Feature", "properties": {"osmid": 188}, "geometry": {"type": "Point", "coordinates": [18.7013838, 54.350750199999986]}}, {"type": "Feature", "properties": {"osmid": 189}, "geometry": {"type": "Point", "coordinates": [18.6976283, 54.3512333]}}, {"type": "Feature", "properties": {"osmid": 190}, "geometry": {"type": "Point", "coordinates": [18.6996843, 54.35039239999999]}}, {"type": "Feature", "properties": {"osmid": 191}, "geometry": {"type": "Point", "coordinates": [18.645388, 54.353054199999995]}}, {"type": "Feature", "properties": {"osmid": 192}, "geometry": {"type": "Point", "coordinates": [18.64691284032251, 54.34253415785603]}}, {"type": "Feature", "properties": {"osmid": 193}, "geometry": {"type": "Point", "coordinates": [18.639112600052233, 54.392525800021495]}}, {"type": "Feature", "properties": {"osmid": 194}, "geometry": {"type": "Point", "coordinates": [18.64002370004389, 54.393515200030926]}}, {"type": "Feature", "properties": {"osmid": 195}, "geometry": {"type": "Point", "coordinates": [18.6425686, 54.391652099999995]}}, {"type": "Feature", "properties": {"osmid": 196}, "geometry": {"type": "Point", "coordinates": [18.6980725, 54.34754800000001]}}, {"type": "Feature", "properties": {"osmid": 197}, "geometry": {"type": "Point", "coordinates": [18.6967563, 54.3521853]}}, {"type": "Feature", "properties": {"osmid": 198}, "geometry": {"type": "Point", "coordinates": [18.6986674, 54.3487974]}}, {"type": "Feature", "properties": {"osmid": 199}, "geometry": {"type": "Point", "coordinates": [18.6972704, 54.34409889999999]}}, {"type": "Feature", "properties": {"osmid": 200}, "geometry": {"type": "Point", "coordinates": [18.6981612, 54.34174509999999]}}, {"type": "Feature", "properties": {"osmid": 201}, "geometry": {"type": "Point", "coordinates": [18.6737898, 54.39782999999999]}}, {"type": "Feature", "properties": {"osmid": 202}, "geometry": {"type": "Point", "coordinates": [18.6669569, 54.3988588]}}, {"type": "Feature", "properties": {"osmid": 203}, "geometry": {"type": "Point", "coordinates": [18.661786890282052, 54.335682114327106]}}, {"type": "Feature", "properties": {"osmid": 204}, "geometry": {"type": "Point", "coordinates": [18.6586414, 54.335911]}}, {"type": "Feature", "properties": {"osmid": 205}, "geometry": {"type": "Point", "coordinates": [18.674487, 54.39896619999998]}}, {"type": "Feature", "properties": {"osmid": 206}, "geometry": {"type": "Point", "coordinates": [18.6752692, 54.3999536]}}, {"type": "Feature", "properties": {"osmid": 207}, "geometry": {"type": "Point", "coordinates": [18.62557954986012, 54.37534085000578]}}, {"type": "Feature", "properties": {"osmid": 208}, "geometry": {"type": "Point", "coordinates": [18.6286253, 54.37547539999999]}}, {"type": "Feature", "properties": {"osmid": 209}, "geometry": {"type": "Point", "coordinates": [18.62377567093115, 54.375749299483225]}}, {"type": "Feature", "properties": {"osmid": 210}, "geometry": {"type": "Point", "coordinates": [18.6310539, 54.37361369999999]}}, {"type": "Feature", "properties": {"osmid": 211}, "geometry": {"type": "Point", "coordinates": [18.6302738, 54.37484090000001]}}, {"type": "Feature", "properties": {"osmid": 212}, "geometry": {"type": "Point", "coordinates": [18.6694622, 54.3403579]}}, {"type": "Feature", "properties": {"osmid": 213}, "geometry": {"type": "Point", "coordinates": [18.6708743, 54.3406633]}}, {"type": "Feature", "properties": {"osmid": 214}, "geometry": {"type": "Point", "coordinates": [18.6737161, 54.34493629999999]}}, {"type": "Feature", "properties": {"osmid": 215}, "geometry": {"type": "Point", "coordinates": [18.6233107, 54.3773358]}}, {"type": "Feature", "properties": {"osmid": 216}, "geometry": {"type": "Point", "coordinates": [18.675908, 54.378964999999994]}}, {"type": "Feature", "properties": {"osmid": 217}, "geometry": {"type": "Point", "coordinates": [18.642705, 54.391740399999996]}}, {"type": "Feature", "properties": {"osmid": 218}, "geometry": {"type": "Point", "coordinates": [18.70710198738788, 54.38329883495627]}}, {"type": "Feature", "properties": {"osmid": 219}, "geometry": {"type": "Point", "coordinates": [18.641648, 54.392289399999996]}}, {"type": "Feature", "properties": {"osmid": 220}, "geometry": {"type": "Point", "coordinates": [18.6467247, 54.389437799999996]}}, {"type": "Feature", "properties": {"osmid": 221}, "geometry": {"type": "Point", "coordinates": [18.63927884920188, 54.339969150135516]}}, {"type": "Feature", "properties": {"osmid": 222}, "geometry": {"type": "Point", "coordinates": [18.6401741, 54.3405768]}}, {"type": "Feature", "properties": {"osmid": 223}, "geometry": {"type": "Point", "coordinates": [18.6380996, 54.338856699999994]}}, {"type": "Feature", "properties": {"osmid": 224}, "geometry": {"type": "Point", "coordinates": [18.63192705079843, 54.39655370027024]}}, {"type": "Feature", "properties": {"osmid": 225}, "geometry": {"type": "Point", "coordinates": [18.6274669, 54.400092199999996]}}, {"type": "Feature", "properties": {"osmid": 226}, "geometry": {"type": "Point", "coordinates": [18.71259545642404, 54.383059635890085]}}, {"type": "Feature", "properties": {"osmid": 227}, "geometry": {"type": "Point", "coordinates": [18.646173639988643, 54.35194677456794]}}, {"type": "Feature", "properties": {"osmid": 228}, "geometry": {"type": "Point", "coordinates": [18.6435577, 54.35189460000001]}}, {"type": "Feature", "properties": {"osmid": 229}, "geometry": {"type": "Point", "coordinates": [18.71527835003934, 54.36147860001304]}}, {"type": "Feature", "properties": {"osmid": 230}, "geometry": {"type": "Point", "coordinates": [18.7190582, 54.3616207]}}, {"type": "Feature", "properties": {"osmid": 231}, "geometry": {"type": "Point", "coordinates": [18.7157335, 54.3631633]}}, {"type": "Feature", "properties": {"osmid": 232}, "geometry": {"type": "Point", "coordinates": [18.712790349465024, 54.36121685082933]}}, {"type": "Feature", "properties": {"osmid": 233}, "geometry": {"type": "Point", "coordinates": [18.6605283, 54.34182889999999]}}, {"type": "Feature", "properties": {"osmid": 234}, "geometry": {"type": "Point", "coordinates": [18.6618242, 54.342441699999995]}}, {"type": "Feature", "properties": {"osmid": 235}, "geometry": {"type": "Point", "coordinates": [18.6585687, 54.3408984]}}, {"type": "Feature", "properties": {"osmid": 236}, "geometry": {"type": "Point", "coordinates": [18.662568849855884, 54.34305965001213]}}, {"type": "Feature", "properties": {"osmid": 237}, "geometry": {"type": "Point", "coordinates": [18.6577151, 54.340492300000015]}}, {"type": "Feature", "properties": {"osmid": 238}, "geometry": {"type": "Point", "coordinates": [18.70244911679955, 54.38233724176094]}}, {"type": "Feature", "properties": {"osmid": 239}, "geometry": {"type": "Point", "coordinates": [18.7059514, 54.3829859]}}, {"type": "Feature", "properties": {"osmid": 240}, "geometry": {"type": "Point", "coordinates": [18.7000148, 54.38229380000001]}}, {"type": "Feature", "properties": {"osmid": 241}, "geometry": {"type": "Point", "coordinates": [18.62788915030033, 54.336133400023066]}}, {"type": "Feature", "properties": {"osmid": 242}, "geometry": {"type": "Point", "coordinates": [18.6342029, 54.338055000000004]}}, {"type": "Feature", "properties": {"osmid": 243}, "geometry": {"type": "Point", "coordinates": [18.637113950036685, 54.351296600003195]}}, {"type": "Feature", "properties": {"osmid": 244}, "geometry": {"type": "Point", "coordinates": [18.6573063, 54.360468399999995]}}, {"type": "Feature", "properties": {"osmid": 245}, "geometry": {"type": "Point", "coordinates": [18.656299949028455, 54.35924260015317]}}, {"type": "Feature", "properties": {"osmid": 246}, "geometry": {"type": "Point", "coordinates": [18.6540352, 54.361115099999985]}}, {"type": "Feature", "properties": {"osmid": 247}, "geometry": {"type": "Point", "coordinates": [18.654998050556348, 54.358349350527334]}}, {"type": "Feature", "properties": {"osmid": 248}, "geometry": {"type": "Point", "coordinates": [18.655906149897678, 54.34563285001143]}}, {"type": "Feature", "properties": {"osmid": 249}, "geometry": {"type": "Point", "coordinates": [18.6533182, 54.34599719999999]}}, {"type": "Feature", "properties": {"osmid": 250}, "geometry": {"type": "Point", "coordinates": [18.6510649, 54.3468171]}}, {"type": "Feature", "properties": {"osmid": 251}, "geometry": {"type": "Point", "coordinates": [18.6679404, 54.345397]}}, {"type": "Feature", "properties": {"osmid": 252}, "geometry": {"type": "Point", "coordinates": [18.6628899, 54.3437223]}}, {"type": "Feature", "properties": {"osmid": 253}, "geometry": {"type": "Point", "coordinates": [18.642852000000005, 54.36435790000001]}}, {"type": "Feature", "properties": {"osmid": 254}, "geometry": {"type": "Point", "coordinates": [18.637373200000003, 54.3687885]}}, {"type": "Feature", "properties": {"osmid": 255}, "geometry": {"type": "Point", "coordinates": [18.644114800051206, 54.36297905000671]}}, {"type": "Feature", "properties": {"osmid": 256}, "geometry": {"type": "Point", "coordinates": [18.636018, 54.369859199999986]}}, {"type": "Feature", "properties": {"osmid": 257}, "geometry": {"type": "Point", "coordinates": [18.645374, 54.3620612]}}, {"type": "Feature", "properties": {"osmid": 258}, "geometry": {"type": "Point", "coordinates": [18.70869636804283, 54.3520452675599]}}, {"type": "Feature", "properties": {"osmid": 259}, "geometry": {"type": "Point", "coordinates": [18.63329064941032, 54.35085880060233]}}, {"type": "Feature", "properties": {"osmid": 260}, "geometry": {"type": "Point", "coordinates": [18.63475164999498, 54.35105300000701]}}, {"type": "Feature", "properties": {"osmid": 261}, "geometry": {"type": "Point", "coordinates": [18.6302073, 54.350184500000005]}}, {"type": "Feature", "properties": {"osmid": 262}, "geometry": {"type": "Point", "coordinates": [18.6359181, 54.35117799999999]}}, {"type": "Feature", "properties": {"osmid": 263}, "geometry": {"type": "Point", "coordinates": [18.6311308, 54.3737127]}}, {"type": "Feature", "properties": {"osmid": 264}, "geometry": {"type": "Point", "coordinates": [18.629202, 54.37586649999999]}}, {"type": "Feature", "properties": {"osmid": 265}, "geometry": {"type": "Point", "coordinates": [18.6339563, 54.3790951]}}, {"type": "Feature", "properties": {"osmid": 266}, "geometry": {"type": "Point", "coordinates": [18.62173870004232, 54.380669150002156]}}, {"type": "Feature", "properties": {"osmid": 267}, "geometry": {"type": "Point", "coordinates": [18.6230602, 54.37729530000001]}}, {"type": "Feature", "properties": {"osmid": 268}, "geometry": {"type": "Point", "coordinates": [18.6220076, 54.38057619999999]}}, {"type": "Feature", "properties": {"osmid": 269}, "geometry": {"type": "Point", "coordinates": [18.621880000016585, 54.38334705008244]}}, {"type": "Feature", "properties": {"osmid": 270}, "geometry": {"type": "Point", "coordinates": [18.62227, 54.38541529999999]}}, {"type": "Feature", "properties": {"osmid": 271}, "geometry": {"type": "Point", "coordinates": [18.619978099985875, 54.38334060010228]}}, {"type": "Feature", "properties": {"osmid": 272}, "geometry": {"type": "Point", "coordinates": [18.6610753, 54.356894100000005]}}, {"type": "Feature", "properties": {"osmid": 273}, "geometry": {"type": "Point", "coordinates": [18.653230449554194, 54.35848670071566]}}, {"type": "Feature", "properties": {"osmid": 274}, "geometry": {"type": "Point", "coordinates": [18.7006872, 54.3504527]}}, {"type": "Feature", "properties": {"osmid": 275}, "geometry": {"type": "Point", "coordinates": [18.698655, 54.349394499999995]}}, {"type": "Feature", "properties": {"osmid": 276}, "geometry": {"type": "Point", "coordinates": [18.6980828, 54.3506593]}}, {"type": "Feature", "properties": {"osmid": 277}, "geometry": {"type": "Point", "coordinates": [18.6488919, 54.3473626]}}, {"type": "Feature", "properties": {"osmid": 278}, "geometry": {"type": "Point", "coordinates": [18.633054599960992, 54.37230625001667]}}, {"type": "Feature", "properties": {"osmid": 279}, "geometry": {"type": "Point", "coordinates": [18.6420282, 54.3413388]}}, {"type": "Feature", "properties": {"osmid": 280}, "geometry": {"type": "Point", "coordinates": [18.683419757666524, 54.402491057768856]}}, {"type": "Feature", "properties": {"osmid": 281}, "geometry": {"type": "Point", "coordinates": [18.682270600078994, 54.40358850019902]}}, {"type": "Feature", "properties": {"osmid": 282}, "geometry": {"type": "Point", "coordinates": [18.6883784, 54.395430899999994]}}, {"type": "Feature", "properties": {"osmid": 283}, "geometry": {"type": "Point", "coordinates": [18.6382508, 54.382025399999996]}}, {"type": "Feature", "properties": {"osmid": 284}, "geometry": {"type": "Point", "coordinates": [18.6400881, 54.3832506]}}, {"type": "Feature", "properties": {"osmid": 285}, "geometry": {"type": "Point", "coordinates": [18.640647100212583, 54.38380635006965]}}, {"type": "Feature", "properties": {"osmid": 286}, "geometry": {"type": "Point", "coordinates": [18.622217, 54.3920809]}}, {"type": "Feature", "properties": {"osmid": 287}, "geometry": {"type": "Point", "coordinates": [18.6222403, 54.38930959999999]}}, {"type": "Feature", "properties": {"osmid": 288}, "geometry": {"type": "Point", "coordinates": [18.6290837, 54.349959600000005]}}, {"type": "Feature", "properties": {"osmid": 289}, "geometry": {"type": "Point", "coordinates": [18.6279315, 54.3497832]}}, {"type": "Feature", "properties": {"osmid": 290}, "geometry": {"type": "Point", "coordinates": [18.6225702, 54.3878152]}}, {"type": "Feature", "properties": {"osmid": 291}, "geometry": {"type": "Point", "coordinates": [18.6222727, 54.3878241]}}, {"type": "Feature", "properties": {"osmid": 292}, "geometry": {"type": "Point", "coordinates": [18.620821450005355, 54.387884250022715]}}, {"type": "Feature", "properties": {"osmid": 293}, "geometry": {"type": "Point", "coordinates": [18.6219907, 54.385428899999994]}}, {"type": "Feature", "properties": {"osmid": 294}, "geometry": {"type": "Point", "coordinates": [18.7125141, 54.35057110000001]}}, {"type": "Feature", "properties": {"osmid": 295}, "geometry": {"type": "Point", "coordinates": [18.6475884, 54.344863999999994]}}, {"type": "Feature", "properties": {"osmid": 296}, "geometry": {"type": "Point", "coordinates": [18.6312802, 54.37745129999998]}}, {"type": "Feature", "properties": {"osmid": 297}, "geometry": {"type": "Point", "coordinates": [18.6926422, 54.3587066]}}, {"type": "Feature", "properties": {"osmid": 298}, "geometry": {"type": "Point", "coordinates": [18.689664818774016, 54.35950596753033]}}, {"type": "Feature", "properties": {"osmid": 299}, "geometry": {"type": "Point", "coordinates": [18.6962352, 54.35270820000001]}}, {"type": "Feature", "properties": {"osmid": 300}, "geometry": {"type": "Point", "coordinates": [18.6889149, 54.3651568]}}, {"type": "Feature", "properties": {"osmid": 301}, "geometry": {"type": "Point", "coordinates": [18.6877314, 54.36680509999999]}}, {"type": "Feature", "properties": {"osmid": 302}, "geometry": {"type": "Point", "coordinates": [18.6930978, 54.366418599999996]}}, {"type": "Feature", "properties": {"osmid": 303}, "geometry": {"type": "Point", "coordinates": [18.68375500242925, 54.37486530021837]}}, {"type": "Feature", "properties": {"osmid": 304}, "geometry": {"type": "Point", "coordinates": [18.6427402, 54.3482121]}}, {"type": "Feature", "properties": {"osmid": 305}, "geometry": {"type": "Point", "coordinates": [18.64219215007588, 54.34936795000471]}}, {"type": "Feature", "properties": {"osmid": 306}, "geometry": {"type": "Point", "coordinates": [18.650919, 54.3466153]}}, {"type": "Feature", "properties": {"osmid": 307}, "geometry": {"type": "Point", "coordinates": [18.6562437, 54.3537194]}}, {"type": "Feature", "properties": {"osmid": 308}, "geometry": {"type": "Point", "coordinates": [18.658218949643786, 54.35390815059186]}}, {"type": "Feature", "properties": {"osmid": 309}, "geometry": {"type": "Point", "coordinates": [18.6605673, 54.354241099999996]}}, {"type": "Feature", "properties": {"osmid": 310}, "geometry": {"type": "Point", "coordinates": [18.670449600000005, 54.39349899999999]}}, {"type": "Feature", "properties": {"osmid": 311}, "geometry": {"type": "Point", "coordinates": [18.6610998, 54.39034470000001]}}, {"type": "Feature", "properties": {"osmid": 312}, "geometry": {"type": "Point", "coordinates": [18.6729358, 54.39472169999999]}}, {"type": "Feature", "properties": {"osmid": 313}, "geometry": {"type": "Point", "coordinates": [18.67283933880243, 54.395730258473584]}}, {"type": "Feature", "properties": {"osmid": 314}, "geometry": {"type": "Point", "coordinates": [18.6362443, 54.36490009999998]}}, {"type": "Feature", "properties": {"osmid": 315}, "geometry": {"type": "Point", "coordinates": [18.642112050121504, 54.38458465002844]}}, {"type": "Feature", "properties": {"osmid": 316}, "geometry": {"type": "Point", "coordinates": [18.63972494997284, 54.38427690000671]}}, {"type": "Feature", "properties": {"osmid": 317}, "geometry": {"type": "Point", "coordinates": [18.638745049975746, 54.384902900014666]}}, {"type": "Feature", "properties": {"osmid": 318}, "geometry": {"type": "Point", "coordinates": [18.638119949974318, 54.38540975001393]}}, {"type": "Feature", "properties": {"osmid": 319}, "geometry": {"type": "Point", "coordinates": [18.6367931, 54.36521040000001]}}, {"type": "Feature", "properties": {"osmid": 320}, "geometry": {"type": "Point", "coordinates": [18.6372088, 54.33848549999998]}}, {"type": "Feature", "properties": {"osmid": 321}, "geometry": {"type": "Point", "coordinates": [18.7088938, 54.3831402]}}, {"type": "Feature", "properties": {"osmid": 322}, "geometry": {"type": "Point", "coordinates": [18.7108021, 54.38296350000001]}}, {"type": "Feature", "properties": {"osmid": 323}, "geometry": {"type": "Point", "coordinates": [18.6945738, 54.349524899999984]}}, {"type": "Feature", "properties": {"osmid": 324}, "geometry": {"type": "Point", "coordinates": [18.69107214998818, 54.3797462500211]}}, {"type": "Feature", "properties": {"osmid": 325}, "geometry": {"type": "Point", "coordinates": [18.633842799678263, 54.40416210008317]}}, {"type": "Feature", "properties": {"osmid": 326}, "geometry": {"type": "Point", "coordinates": [18.630449048811172, 54.401991100305175]}}, {"type": "Feature", "properties": {"osmid": 327}, "geometry": {"type": "Point", "coordinates": [18.7010173, 54.38191659999998]}}, {"type": "Feature", "properties": {"osmid": 328}, "geometry": {"type": "Point", "coordinates": [18.7165753, 54.36389470000001]}}, {"type": "Feature", "properties": {"osmid": 329}, "geometry": {"type": "Point", "coordinates": [18.6547057, 54.3535643]}}, {"type": "Feature", "properties": {"osmid": 330}, "geometry": {"type": "Point", "coordinates": [18.6378892, 54.38215710000001]}}, {"type": "Feature", "properties": {"osmid": 331}, "geometry": {"type": "Point", "coordinates": [18.6396667, 54.359003]}}, {"type": "Feature", "properties": {"osmid": 332}, "geometry": {"type": "Point", "coordinates": [18.6369838, 54.356737499999994]}}, {"type": "Feature", "properties": {"osmid": 333}, "geometry": {"type": "Point", "coordinates": [18.635767200000004, 54.35516049999998]}}, {"type": "Feature", "properties": {"osmid": 334}, "geometry": {"type": "Point", "coordinates": [18.688487, 54.3590263]}}, {"type": "Feature", "properties": {"osmid": 335}, "geometry": {"type": "Point", "coordinates": [18.6389019, 54.3513992]}}, {"type": "Feature", "properties": {"osmid": 336}, "geometry": {"type": "Point", "coordinates": [18.6286882, 54.3335897]}}, {"type": "Feature", "properties": {"osmid": 337}, "geometry": {"type": "Point", "coordinates": [18.6812322, 54.40301620000001]}}, {"type": "Feature", "properties": {"osmid": 338}, "geometry": {"type": "Point", "coordinates": [18.680606, 54.4035943]}}, {"type": "Feature", "properties": {"osmid": 339}, "geometry": {"type": "Point", "coordinates": [18.644612048679157, 54.33254490059728]}}, {"type": "Feature", "properties": {"osmid": 340}, "geometry": {"type": "Point", "coordinates": [18.6927726, 54.358732399999994]}}, {"type": "Feature", "properties": {"osmid": 341}, "geometry": {"type": "Point", "coordinates": [18.6341146, 54.37138869999999]}}, {"type": "Feature", "properties": {"osmid": 342}, "geometry": {"type": "Point", "coordinates": [18.6212694, 54.399007399999995]}}, {"type": "Feature", "properties": {"osmid": 343}, "geometry": {"type": "Point", "coordinates": [18.6242485, 54.40448519999999]}}, {"type": "Feature", "properties": {"osmid": 344}, "geometry": {"type": "Point", "coordinates": [18.633689900000004, 54.379228499999996]}}, {"type": "Feature", "properties": {"osmid": 345}, "geometry": {"type": "Point", "coordinates": [18.6787039, 54.34916849999999]}}, {"type": "Feature", "properties": {"osmid": 346}, "geometry": {"type": "Point", "coordinates": [18.6754838, 54.345162599999995]}}, {"type": "Feature", "properties": {"osmid": 347}, "geometry": {"type": "Point", "coordinates": [18.655939150036904, 54.34082570001002]}}, {"type": "Feature", "properties": {"osmid": 348}, "geometry": {"type": "Point", "coordinates": [18.6415151, 54.3922006]}}, {"type": "Feature", "properties": {"osmid": 349}, "geometry": {"type": "Point", "coordinates": [18.63243220083668, 54.39687005029737]}}, {"type": "Feature", "properties": {"osmid": 350}, "geometry": {"type": "Point", "coordinates": [18.65688735010218, 54.340205600027836]}}, {"type": "Feature", "properties": {"osmid": 351}, "geometry": {"type": "Point", "coordinates": [18.6841665, 54.3726002]}}, {"type": "Feature", "properties": {"osmid": 352}, "geometry": {"type": "Point", "coordinates": [18.6930893, 54.366519399999994]}}, {"type": "Feature", "properties": {"osmid": 353}, "geometry": {"type": "Point", "coordinates": [18.6983604, 54.34173579999999]}}, {"type": "Feature", "properties": {"osmid": 354}, "geometry": {"type": "Point", "coordinates": [18.6249768, 54.34931389999999]}}, {"type": "Feature", "properties": {"osmid": 355}, "geometry": {"type": "Point", "coordinates": [18.6429999, 54.3323166]}}]}